mall_name,address,longitude,latitude 
新奥购物中心,湖景东路9-11号,116.3942,40.0000
华联商厦,通胡大街甲3号,116.7001,39.9184
恒泰广场,丰台北路18号,116.3063,39.8660
王府中環,王府井大街269号,116.4097,39.9122
金源新燕莎MALL,远大路1号,116.2891,39.9585
北京apm,王府井大街138号,116.4119,39.9148
龙湖北京大兴天街,永兴路七号院龙湖大兴天街,116.3195,39.6862
BHG Mall购物中心,新顺南大街8号,116.6525,40.1280
乐成中心SPACE3,东三环中路22号,116.4625,39.8945
国贸商城,建国门外大街1号,116.4584,39.9112
北京SKP,建国路87号,116.4789,39.9103
花乡奥莱村,南四环西路76号,116.3239,39.8275
天虹百货,湖景东路9号,116.3963,40.0015
华贸购物中心,建国路79号,116.4811,39.9091
万达广场,丰科路与五圈路交叉口东100米路南,116.2987,39.8242
龙湖北京长楹天街,朝阳北路常营地铁站F出口旁,116.5980,39.9248
凯德MALL,广顺北大街33号,116.4687,39.9929
望京华彩商业中心,广顺北大街16号,116.4689,40.0108
银泰百货,马家堡东路101号院10号楼,116.3856,39.8444
五彩城,清河中街68号,116.3351,40.0303
世贸天阶THE PLACE,光华路9号,116.4519,39.9162
万达百货,新华西街58号,116.6410,39.9053
北京银泰中心in01,建国门外大街2号,116.4592,39.9074
菜市口百货中心,广安门内大街306号,116.3594,39.8890
燕丰商场,西坝河南里17号楼,116.4391,39.9600
官舍,东方东路亮马桥外交公寓B区一号楼首层,116.4640,39.9519
三里屯太古里,三里屯北路11号,116.4545,39.9385
温特莱中心,西大望路1号,116.4768,39.9132
悠唐购物中心,三丰路三丰北里2号,116.4390,39.9218
中国红街,工体东路丙2号,116.4508,39.9323
新中关购物中心,中关村大街19号,116.3153,39.9783
欧美汇购物中心,中关村丹棱街甲1号,116.3141,39.9795
侨福芳草地购物中心,东大桥路北巷9号,116.4488,39.9192
西单大悦城,西单北大街131号,116.3728,39.9108
凯德MALL,西直门外大街1号,116.3528,39.9417
华熙LIVE,复兴路69-1号,116.2796,39.9105
荟聚中心,欣宁街15号,116.3272,39.7875
合生汇,西大望路甲22号,116.4794,39.8939
首开福茂,宋庄路67号,116.4272,39.8464
万达广场B座,新华西街58号院3,116.6407,39.9057
亦庄创意生活广场,亦庄开发区文化园东路与荣华北路交叉东侧,116.5033,39.8105
青春万达广场,府前西街1号院1号楼,116.6299,40.3162
首航生活广场,丰北路甲79号,116.2938,39.8668
四元桥购物中心,四元桥宜居南路2号楼,116.4609,39.9788
京投港·长阳购物中心,长阳镇长政南街1号院1号楼,116.2133,39.7631
中央公园广场商铺,六里屯朝阳公园南侧,116.4775,39.9326
哇沃生活广场,学院南路南,116.3487,39.9577
燕莎友谊商城,远大路1号金源新燕莎MALL东侧B1楼至3楼,116.2916,39.9585
NTP新城广场,蒲黄榆路芳古园一区18号楼,116.4221,39.8671
BHG Mall购物中心,迎宾街1号院22号楼,117.0946,40.1463
百尚食工坊,兴华南街马驹桥百尚生活广场B1层,116.5451,39.7531
万源广场,万源路和万源北路交叉口西南角,116.4236,39.8021
金熙汇,古城地铁西南金融街长安中心负1层,116.1843,39.9060
陆港城,朝阳北路20号院,116.5926,39.9249
融科天地中心,科学院南路2号,116.3265,39.9832
荣祥广场,馨园一路2号院,116.5475,40.0627
翠微百货,立汤路186号龙德广场1-4层,116.4156,40.0605
双子座购物中心,建国门外大街乙12号,116.4486,39.9076
西单购物中心,西单北大街132号,116.3746,39.9114
龙湖星悦荟,颐和园路208号,116.2901,39.9983
东环广场,东中街29号,116.4361,39.9372
云影小镇,朝阳路28号,116.5926,39.9111
鲁能美丽汇,合景香悦四季西区,116.6513,40.1787
中骏·世界城,金汇路9号,116.4518,39.9177
方庄市场,方庄芳星园一区15号,116.4322,39.8619
中粮广场购物中心,建国门内大街8号,116.4300,39.9072
金宝汇购物中心,金宝街88号,116.4223,39.9152
华贸广场,西大望路甲6号,116.4799,39.9100
华夏幸福创新中心·特色商街,汽车博物馆西路8号院华夏幸福创新中心内,116.3017,39.8240
燕莎友谊商城,亮马桥路52号,116.4630,39.9489
悠唐广场,三丰北里3号北京朝阳悠唐皇冠假日酒店附近,116.4392,39.9221
居然之家体验mall,西三环南路甲27号,116.3098,39.8719
潮驿178,北苑路28号,116.4157,40.0403
财富购物中心,东三环中路7号财富购物中心F1层,116.4591,39.9177
悦茂购物中心,后屯路文龙家园四里4号楼,116.3494,40.0432
BHG Mall购物中心,东三旗路天通中苑F区,116.4150,40.0703
万象汇,水源路与顺密路交叉口东南角,116.8354,40.3556
金隅嘉品Mall,东坝中路38号,116.5483,39.9515
鸿坤购物中心,西红门欣旺北大街8号,116.3399,39.7913
伊藤洋华堂,北四环东路108号,116.4208,39.9882
北京市百货大楼,王府井大街255号,116.4100,39.9138
万达广场,建国路93号,116.4714,39.9102
双安商场,北三环西路38号,116.3259,39.9665
BHG Mall购物中心,育知东路30号院,116.3371,40.0719
华威约饭街,西单北大街130号华威大厦7层,116.3746,39.9115
天虹百货,广安门外大街168号,116.3412,39.8887
BHG Mall购物中心,荣华中路8号院,116.5020,39.8053
麒麟新天地,阜通西大街11号,116.4778,39.9972
那里花园,三里屯北街81号,116.4549,39.9363
北京王府井银泰in88,王府井大街88号,116.4118,39.9161
京通罗斯福广场,北苑南路九棵树地铁对面,116.6588,39.8890
BHG Mall购物中心,巴沟路2号,116.2951,39.9731
通盈中心,南三里屯路与工体北路交叉处,116.4549,39.9323
隆华购物中心,新顺南大街11号,116.6505,40.1264
澳门中心,王府井东街8号,116.4133,39.9149
世纪金源购物中心,远大路1号,116.2886,39.9586
食宝街,中关村大街15号,116.3138,39.9803
华润plus365购物中心,石龙西路润西山别墅区对面,116.1103,39.9114
北京君太,西单北大街133号,116.3733,39.9095
东安市场,王府井大街253-255号,116.4115,39.9138
北京坊,煤市街廊房头条交叉口东北角,116.3967,39.8980
金地广场,建国路91号,116.4743,39.9092
首创奥特莱斯,长阳镇悦盛路6号院,116.1867,39.7633
昌发展万科广场,龙域中街龙域中心,116.3168,40.0665
三里屯SOHO,工体北路8号,116.4533,39.9331
凯德Mall,华佗路2号,116.3190,39.6723
住总万科广场,旧宫东西大街旧宫地铁对面,116.4594,39.8056
银河SOHO购物中心,牌坊胡同甲7号,116.4335,39.9200
国瑞购物中心,崇文门外大街18号,116.4199,39.8982
绿地缤纷城,金星西路金星公园斜对面,116.3341,39.7645
华贸天地,清河营南街七号院,116.4323,40.0465
合景·摩方购物中心,崇文门外大街1号,116.4177,39.8996
老佛爷百货,西单北大街110号,116.3743,39.9139
银座和谐广场,万丰路68号,116.2973,39.8823
朝阳大悦城,朝阳北路101号,116.5185,39.9239
悦荟万科广场,南环路10号院1号楼,116.2393,40.2123
食寶街,羊坊店路18号光耀东方广场,116.3220,39.8991
龙湖北京房山天街,拱辰北大街与管委路交口西南角,116.1403,39.7459
喜隆多新国际购物中心,阜石路300号,116.1717,39.9228
东方新天地,东长安街1号,116.4144,39.9091
蓝色港湾,朝阳公园路6号二十一世纪对面,116.4753,39.9491
中粮祥云小镇,安泰大街9号,116.5377,40.0870
Hello Mart城市市集,亮马桥路48号,116.4669,39.9504
八达岭奥莱,南口镇陈庄京藏高速公路陈庄出口北侧,116.1703,40.2351
来福士中心,东直门南大街1号,116.4324,39.9400
赛特奥莱,香江北路28号,116.5056,40.0354
中粮万科半岛广场,长阳路广阳新路9号院1号楼,116.2112,39.7535
万达广场,北苑一路1号院,116.6406,39.9049
环球贸易中心,北三环东路36号,116.4108,39.9672
龙德广场,立汤路186号,116.4155,40.0597
北京富力广场,广渠门外大街东三环南路1号院,116.4607,39.8954
万达广场,石景山路乙18号,116.2262,39.9059
颐堤港,酒仙桥路18号,116.4913,39.9696
大族广场Mall&More,经济技术开发区荣华南路2号,116.5129,39.7927
北京太阳宫爱琴海购物公园,七圣中街12号,116.4365,39.9719
中海环宇荟购物中心,北土城路与安定路西北角,116.4064,39.9779
新东郊商城二层,新东郊商城二层a-087a-088,116.5358,39.8676
北京嘉里中心,光华路1号,116.4593,39.9140
永旺梦乐城,丰葆路88号院1号楼,116.2924,39.8178
枫蓝国际购物中心,西直门北大街32号,116.3565,39.9532
五道口购物中心,成府路28号,116.3393,39.9917
三里屯太古里北区N8座,三里屯路19号三里屯太古里北区,116.4542,39.9387
凯德MALL,太阳宫中路12号,116.4477,39.9715
斯普瑞斯奥特莱斯,机场二高速西侧金盏乡森林公园东1号,116.5964,40.0119
万达广场,南苑西路39号,116.3680,39.8142
远洋未来广场,北四环东路73号,116.4324,39.9902
马家堡新荟城购物中心,马家堡路角门19号院,116.3785,39.8363
汉光百货,西单北大街176号,116.3753,39.9094
凤凰汇购物中心,京密路曙光西里甲5号院,116.4570,39.9629
新世界百货,新顺南大街18号,116.6523,40.1261
金融街购物中心,金城坊街2号,116.3625,39.9153
BHG,北三环安贞西里五区4号华联商厦F1层,116.4012,39.9707
贪吃一番街,双清路88号华源世纪商务楼1-3层,116.3349,39.9962
物美大卖场,新街口北大街1号新华百货B1层,116.3712,39.9474
绿地缤纷城,天星街1号院,116.1609,39.7564
凯德晶品购物中心,复兴路51号,116.2972,39.9082
世界之花假日广场,久敬庄路与德贤路交叉口西南角,116.4224,39.8194
万达广场,玉林西路145号,116.3557,39.8608
银座mall,东直门外大街48号,116.4357,39.9403
北京印象城,翠微路12号新华联商业大厦,116.3041,39.9118
中昂时代广场,门头沟路9号博物馆对面,116.0966,39.9437
方庄购物中心,蒲芳路24号,116.4288,39.8655
上品折扣,回龙观西大街16号龙冠商务中心B座,116.3353,40.0793
赛特购物中心,建国门外大街22号,116.4417,39.9076
华创生活广场,林翠西里16号楼,116.3726,40.0101
盛景国际广场,石景山路31号盛景国际大厦一层,116.2015,39.9082
扑满山,宋庄路71号院扑满山大厦1-3层,116.4264,39.8455
朝阳商业大楼,西坝河中里34号,116.4396,39.9618
千禧商业街,靛厂路千禧商业街A-D座,116.2835,39.8900
百盛,复兴门内大街101号,116.3584,39.9089
贵友大厦,云景东路1号,116.6668,39.8841
甘家口百货,三里河路17号,116.3334,39.9275
天键广场,枣园路印刷学院附属小学对面,116.3143,39.7526
易事达购物休闲广场,秋实街1号,116.4219,40.0423
越都荟,广安门外大街178号,116.3374,39.8894
城乡世纪广场,科创五街38号,116.5328,39.8021
天丰利市场,和平西街21号,116.4176,39.9627
国华商场,宣武门西大街18号,116.3640,39.8990
复兴商业城,复兴门外大街4号,116.3496,39.9067
搜秀购物广场,崇文门外大街40号,116.4194,39.8964
光耀东方广场,羊坊店路18号,116.3222,39.8994
新世界百货,崇文门外大街3-5号,116.4176,39.8980
凯德MALL,南三环西路16号,116.3670,39.8548
苏宁生活广场,朝阳路与八里庄路交叉口西北角,116.4947,39.9161
当代商城,阜石路165号,116.1967,39.9254
中发百旺商城,圆明园西路18号,116.2767,40.0292
燕莎奥特莱斯购物中心,东四环南路9号,116.4864,39.8780
工美大厦,王府井大街200号,116.4119,39.9109
易事达,孙河康营中路康营家园,116.5436,40.0353
西单觅食森林,西单北大街111号觅食森林,116.3734,39.9134
新荟城,望京阜通西大街东园一区120号,116.4821,39.9987
永旺梦乐城国际商城,北清路1号,116.2900,40.0960
时代Life购物中心,蒲方路芳星园二区6号楼,116.4354,39.8656
上品＋,北苑路甲13号,116.4171,40.0318
合生广场,永外路果园8号,116.3978,39.8562
华宇时尚购物中心,中关村南大街2号,116.3232,39.9650
百荣世贸商城,永定门外大街101号,116.3984,39.8609
京粮广场,田村路43号,116.2539,39.9311
新世界百货,广顺南大街16号,116.4805,39.9866
乐多港奥特莱斯购物中心,旧西路与京藏高速交叉口西北角,116.1897,40.2305
北京华联上地购物中心,农大南路1号硅谷亮城1号楼,116.3118,40.0286
翠微百货,复兴路33号、29号,116.3039,39.9084
当代商城,中关村大街40号,116.3211,39.9704
方恒购物中心,阜通东大街6号院,116.4824,39.9902
天通苑万优汇UNIT ONE,立汤路188号,116.4152,40.0570
3.3大厦,三里屯路33号,116.4546,39.9367
金泉广场,北苑路与大屯路交叉口西北角,116.4156,40.0052
王府井购物中心,白纸坊街道右安门内大街万博苑7号楼,116.3649,39.8719
BHG Mall购物中心,朝阳北路17号,116.5975,39.9263
城乡购物中心,复兴路甲23号,116.3075,39.9088
西点mall购物中心,永定路88号,116.2652,39.9052
华联商厦,成府路28号五道口商业中心,116.3394,39.9921
翠微百货,花园路2号翠微百货,116.3664,39.9773
泰华龙旗购物中心,黄平路19号,116.3474,40.0669
BHG Mall北京华联公益西桥购物中心,公益西街与马家堡西路交口西南角,116.3694,39.8343
太阳飘亮购物中心,安立路68号,116.4092,39.9977
上品折扣,西翠路5号今日商业中心一层、二层,116.2804,39.9005
新燕莎金街购物广场,王府井大街301号,116.4107,39.9098
上品折扣,草桥东路1号,116.3583,39.8510
华联商厦,龙背村路99号院,116.2709,40.0155
天虹,左家庄北里58号,116.4423,39.9589
远洋未来汇,东四环中路58号,116.4922,39.9161
比如世界购物中心,京顺路111号,116.4617,39.9684
翠微百货,大成路8号,116.2653,39.8881
北京台湾街,石景山路2号,116.2364,39.9044
新街口百货商场,新街口南大街7号,116.3725,39.9401
华冠购物中心,良乡秋树街38号,116.1393,39.7349
尚街购物中心,甘露园南里25号,116.5175,39.9169
丽都广场,将台路6号,116.4788,39.9770
SOHO尚都,东大桥路8号,116.4515,39.9189
丰联广场,朝阳门外大街18号,116.4386,39.9237
泰禾里,新源大街与兴华大街交汇处东北角,116.3206,39.7131
京港城生活广场,光彩路京深海鲜市场对面,116.4146,39.8406
万科时代中心,朝阳路十里堡甲3号院甲1号,116.5026,39.9152
阳光新城市广场,朝阳路十里堡乙2号院,116.5054,39.9152
第5大道精品休闲购物广场,慧忠北里309-6号,116.4075,40.0029
国泰百货,双桥路2号,116.5777,39.9083
护国新天地,护国寺街85号,116.3755,39.9354
万科时代中心·望京,望京街9号望京新城B区,116.4833,39.9890
久隆百货,酒仙桥路39号,116.4950,39.9621
翠微广场,复兴路29号,116.3054,39.9083
五道口购物广场,五道口新村4号,116.3399,39.9854
百汇商城,建材城西路22号,116.3434,40.0619
华联商厦,广顺北大街33号望京凯德MALL,116.4689,39.9925
都汇天地,新源南路1号,116.4600,39.9497
BHG Mall购物中心,杨庄北里52号天时名苑小区14号楼,116.6363,39.9038
北店时代广场,回龙观西大街D05区,116.3378,40.0806
上品宜购,马连道路10号2-3层,116.3271,39.8830
铭泽生活广场,周庄村52号,116.4769,39.8641
嘉茂购物中心·西直门,西外大街1号凯德MALL2层207,116.3528,39.9411
乐家购物中心,京良路10号,116.3327,39.7996
百联清城购物中心,兴华大街三段3号,116.3316,39.7387
米兰life,西三环南路10号,116.3124,39.8799
燕赛奥特莱斯,鼓楼南大街3号,116.8453,40.3746
百尚生活广场,马驹桥兴华中街潼关三区9号楼,116.5449,39.7530
高和萃,东三环北路甲26号楼博瑞大厦,116.4624,39.9284
阳光商厦,府学路29号,116.2442,40.2213
华尚金泰广场,长阳镇怡和北路3号院1号楼,116.2126,39.7615
顶秀美泉小镇欧洲风情商业街,雁栖镇范各庄村,116.6727,40.3707
young街样街,西单北大街131号young街9层,116.3731,39.9106
共享际,东四九条88号共享际内,116.4182,39.9327
贵友大厦,远大路1号金源新燕莎MALL中部1-3楼,116.2873,39.9583
国泰宏城生活购物广场,前进花园石门苑甲13号,116.6345,40.1297
日购商城,慧忠北里309-6号第五大道精品休闲购物广场B1层,116.4070,40.0033
李老社区商业中心,通朝大街与怡乐中路交叉口东南角,116.6356,39.8909
华联购物广场,永顺镇物资学院路18号,116.6400,39.9234
永安路百货商场,永安路143号,116.3886,39.8864
新世纪商城,鼓楼南大街17号新世纪商城F2层,116.2333,40.2191
国泰谊宾商城,义宾街与站前北街交叉口北150米,116.6464,40.1331
共享际,建国门外大街1号,116.4592,39.9118
华创生活广场,红坊路6号,116.4742,39.8287
梦秀欢乐广场,望京西路歌华有线对面,116.4570,39.9936
米拉广场,新海东路1号楼,116.5456,39.7602
资和信百货商场,西四环南路1号,116.2852,39.8380
道尔泰商城,小营路6号,116.4261,39.9965
新华百货,新街口北大街1号,116.3715,39.9474
华联商城,回龙观镇龙禧苑15号楼1至2层03号1层,116.3337,40.0806
五棵松购物中心,复兴路69号中铁广场旁,116.2777,39.9132
富贵园购物中心,广渠门内大街35-7号,116.4327,39.8939
上品折扣,香宾路66-1号,116.4638,40.0167
环球新意百货,妫水北街46号金锣湾商业中心,115.9756,40.4615
阳光新生活广场,九棵树西路48号,116.6563,39.8898
新年华购物中心,马连道路25号,116.3257,39.8773
北京国海广场,复兴路17号国海广场,116.3137,39.9083
华冠天地,昊天北大街48号,116.1690,39.7714
枫尚世纪奥特莱斯购物广场,顺义区后沙峪镇裕民大街45号院,116.5424,40.1056
春平购物广场,工人体育场东路20号,116.4512,39.9242
迪佳广场,万柳中路6号院,116.2975,39.9689
k酷时尚广场,北苑路42号,116.4189,40.0333
西宸广场,首经贸中街北,116.3210,39.8447
国泰百货,八里桥南街1号院北苑路口通典铭居底商,116.6352,39.9069
活力东方购物广场,姚家园路甲1号,116.5222,39.9405
富卓大厦,宣武外大街28号,116.3751,39.8940
贵友大厦,建国门外大街甲5号,116.4511,39.9091
和美购物广场,文化北街7号,117.1101,40.1433
隆华奥特莱斯,贯通路18号,116.6423,40.1290
佳亿·青年汇,青年路与朝阳北路交口南100米,116.5172,39.9217
华冠天地,房山西大街2号,115.9838,39.7021
佳运广场,东小口立水桥佳运园小区26号楼,116.4040,40.0470
玉泉商业生活中心,茶棚路北坞嘉园南里北坞幼儿园东行100米,116.2516,39.9761
