mall_name,address,longitude,latitude 
万达广场,广富林路658弄,121.2430,31.0577
湖滨道购物中心,湖滨路150号,121.4790,31.2210
LCM置汇旭辉广场,张杨路2389号,121.5555,31.2421
虹桥天地,申长路688号,121.3153,31.1925
上海爱琴海购物公园,吴中路1588号,121.3730,31.1745
长风大悦城,大渡河路196号,121.3953,31.2228
世博源,上南路168号,121.4927,31.1828
浦江城市生活广场,江月路1850号,121.5051,31.0834
新天地时尚,马当路245号,121.4752,31.2174
上海万象城,吴中路1599号,121.3692,31.1702
中海环宇荟,黄陂南路838弄中海环宇荟,121.4768,31.2117
太平洋森活天地,淞沪路199号,121.5128,31.3068
新世界大丸百货,南京东路228号,121.4855,31.2383
上海来福士广场,西藏中路268号,121.4766,31.2325
港汇恒隆广场,虹桥路1号,121.4373,31.1944
金桥国际商业广场,金桥路和张杨路交叉口旁,121.5795,31.2557
龙湖虹桥天街,申长路869号,121.3133,31.1922
上海新天地南北里,太仓路181弄,121.4752,31.2192
百联嘉定购物中心,仓场东路384号,121.2783,31.3865
开元地中海商业广场,新松江路925弄,121.2196,31.0380
嘉定大融城,宝安公路3386号,121.2797,31.3304
兴业太古汇,南京西路789号,121.4631,31.2288
龙之梦购物中心,西江湾路388号,121.4772,31.2713
世茂商都,南京西路258号,121.4708,31.2324
环贸iapm商场,淮海中路999号,121.4581,31.2154
上海商城,南京西路1376号,121.4519,31.2267
徐汇日月光,漕宝路33号,121.4326,31.1690
美罗城,肇嘉浜路1111号,121.4399,31.1928
奕欧来奥特莱斯,申迪东路88号,121.6795,31.1405
七宝万科广场,漕宝路3366号,121.3504,31.1543
尚嘉中心,仙霞路99号,121.4071,31.2057
张园·丰盛里,茂名北路与南京西路交叉口,121.4592,31.2279
东鼎购物中心,新松江路1255弄1-10号,121.2114,31.0377
长宁来福士,长宁路1123号,121.4145,31.2165
三林印象城,永泰路1058弄1-26号,121.5259,31.1428
上海环球金融中心,世纪大道100号,121.5075,31.2343
创智天地,淞沪路234号-303号,121.5116,31.3060
芮欧百货,南京西路1601号,121.4475,31.2232
上海高岛屋百货,虹桥路1438号,121.4031,31.1974
老外街商业中心,虹梅路3338弄,121.3877,31.1913
百联又一城购物中心,淞沪路8号,121.5156,31.3014
金茂时尚生活中心,世纪大道88号金茂大厦裙楼内,121.5055,31.2352
上海世茂广场,南京东路829号,121.4755,31.2346
万达广场,淞沪路77号,121.5139,31.3002
晶品CrystalGalleria,愚园路68号,121.4464,31.2255
上海陆家嘴中心 L+MALL,浦东南路899号,121.5153,31.2313
长泰广场,金科路2889号,121.6017,31.2059
阳光天地,高科东路777弄,121.6564,31.2144
洛克·外滩源 ROCKBUND,虎丘路146号光陆大楼,121.4876,31.2434
中庚·漫游城,闵虹路与万源路交叉口,121.3986,31.1311
上海国际时尚中心,杨树浦路2866号,121.5584,31.2705
百联川沙购物中心,川沙新镇川沙路5398号,121.6981,31.1853
合生汇,翔殷路1099号,121.5179,31.2998
静安大悦城,西藏北路166号-198号,121.4721,31.2440
LuOne凯德晶萃广场,徐家汇路268号,121.4772,31.2106
正大广场,陆家嘴西路168号,121.4989,31.2367
环球港,中山北路3300号,121.4125,31.2333
佛罗伦萨小镇上海名品奥特莱斯,卓耀路58弄,121.7641,31.1964
第一百货商业中心,南京东路800-830号,121.4747,31.2352
幸福里,番禺路381号,121.4301,31.2043
瑞虹天地,瑞虹路188号,121.4987,31.2644
158坊,巨鹿路158号,121.4665,31.2231
益丰·外滩源,北京东路99号,121.4888,31.2406
BFC外滩金融中心,中山东二路600号,121.4983,31.2260
新天地广场,淮海中路333号,121.4742,31.2227
建业里,建国西路480号建业里1层,121.4510,31.2031
百盛优客城市广场,天山路789-889号,121.4034,31.2106
百联世纪购物中心,世纪大道1217号,121.5273,31.2301
尚悦湾,银城路66号,121.5106,31.2417
金虹桥国际中心,茅台路179号,121.4026,31.2090
国金中心商场,世纪大道8号,121.5023,31.2362
虹桥南丰城,遵义路100号,121.4079,31.2074
疁城新天地,塔城路295号,121.2554,31.3824
久光百货,南京西路1618号,121.4462,31.2238
恒隆广场,南京西路1266号,121.4538,31.2276
世纪汇广场,世纪大道1192号,121.5272,31.2274
上海K11购物艺术中心,淮海中路300号,121.4735,31.2234
东方渔人码头,杨树浦路1088号,121.5315,31.2528
SOHO复兴广场,复兴中路与马当路交叉口西南角,121.4746,31.2151
大上海时代广场,淮海中路99号,121.4787,31.2245
香港广场,淮海中路282号-283号,121.4749,31.2230
松江万达,广富林路658弄,121.2428,31.0579
外滩十八号Bund18,中山东一路18号,121.4897,31.2384
龙湖宝山天街,丹霞山路与黄海路交叉口,121.3633,31.3571
上海中心 ·上海之品商场,陆家嘴环路479号,121.5059,31.2341
夏都小镇,沪青平公路1583号靠近高径路夏都艺术小镇,121.2932,31.1721
上海老佛爷百货,浦东南路899号,121.5152,31.2315
船厂1862,滨江大道1777号,121.5143,31.2443
绿地缤纷城,东安路562号,121.4567,31.1836
浦东嘉里城,花木路1378号,121.5635,31.2125
上生新所,延安西路1262号,121.4271,31.2099
上海白玉兰广场,东长治路588号,121.4978,31.2491
静安嘉里中心,南京西路1515号,121.4497,31.2238
永新坊,天钥桥路131号,121.4422,31.1920
龙之梦购物中心,沪闵路6088号,121.3783,31.1077
中信泰富广场,南京西路1168号,121.4558,31.2282
大宁国际商业广场,共和新路1878-2008号,121.4524,31.2740
宝龙城市广场,临港新城鸿音路3155弄,121.8157,30.9063
96广场,东方路796号,121.5247,31.2275
南方友谊商城,沪闵路7250号,121.4000,31.1312
亚繁亚乐城,莘松路1266号,121.3499,31.0975
静安大融城,沪太路1111弄,121.4260,31.2801
万达广场,年家浜路518号,121.5701,31.1144
宝山U天地,美健路829、979号,121.3356,31.3901
古北1699商业广场,古北路1699号,121.4028,31.1882
百盛,莘庄都市路5001号仲盛世界商城,121.3876,31.1072
嘉里不夜城企业坊,梅园路277号,121.4581,31.2450
万达广场,一二八纪念路988弄,121.4470,31.3238
汇金百货,肇嘉浜路1000号,121.4403,31.1952
中房金谊广场,上南路4467号,121.5133,31.1409
龙盛国际商业广场,都市路3759号,121.3989,31.0853
189弄购物中心,长寿路189号,121.4407,31.2421
O'MALL华侨城商业中心,陈行公路2688号,121.5039,31.0952
浦东世纪大都会,福山路312号,121.5274,31.2297
滨江世茂52+,浦城路680号,121.5152,31.2227
大华光启城时尚购物中心,宜山路455号,121.4284,31.1841
第一八佰伴,张杨路501号,121.5170,31.2282
仲盛世界商城,莘庄都市路5001号,121.3871,31.1072
宝龙城市广场,航南公路5639号,121.4627,30.9299
阿拉城,先锋街66号,121.3738,31.1767
上滨生活广场,周家嘴路887-917号,121.5037,31.2600
龙之梦购物公园,长宁路1018号,121.4165,31.2189
新华·红星国际广场,虹井路188号,121.3723,31.1735
KING88商业广场,长宁路88号,121.4269,31.2287
上海湾生活时尚中心,浦东南路1138号,121.5148,31.2271
大宁中心广场,万荣路700号,121.4419,31.2808
MORE MEE时尚生活中心,张杨路588号,121.5190,31.2277
凯德七宝购物广场,七莘路3655号,121.3413,31.1644
恒基名人购物中心,南京东路155号,121.4842,31.2376
东方商厦,真光路1288号百联购物广场内,121.3834,31.2456
联洋广场,芳甸路226号,121.5579,31.2264
BFC南区商场,中山东二路600号,121.4984,31.2254
乐尚天地生活广场,南乐路456号,121.2961,31.0254
美陈广场,新郁路904-906号,121.3632,31.2526
中原城市广场,国和路777号,121.5217,31.3158
万达广场,华江路988号,121.3229,31.2395
宝龙广场,阿克苏路1099号,121.2606,31.3458
特力时尚汇,邯郸路600号万达商业广场内,121.5128,31.3021
泛乐城,墨玉南路1080号,121.1637,31.2878
复地四季广场,宁国路503号,121.5336,31.2676
嘉汇国际广场,天钥桥路325号,121.4429,31.1888
东方商厦,公园路700号,121.1123,31.1484
百联南桥购物中心,百齐路588号,121.4838,30.9159
无限极荟购物中心,湖滨路168号,121.4778,31.2205
三湘商业广场,横港公路37-45号,121.2600,31.1173
隆德丰汗麦邻里中心,北中路与沪南路交叉口东南150米,121.5555,31.1823
中展璞荟,光星路1599号,121.2405,31.0574
金桥购物中心,碧云路555号,121.5811,31.2390
井亭大厦,虹泉路1000号,121.3750,31.1705
凯德星贸 Capital Square,恒通路318号,121.4580,31.2413
万达广场,颛兴东路1559号,121.4062,31.0711
新邻生活站,陆家浜路1100号,121.4870,31.2115
豫园商城,福佑路288号,121.4920,31.2270
紫叶广场,紫星路488弄129号,121.4648,31.0208
虹桥万科中心,申长路988弄,121.3153,31.1966
浦商百货,博山东路88号,121.5608,31.2477
外滩十六铺水岸,中山东二路531号,121.4984,31.2276
SOHO天山广场,天山路1717号,121.4084,31.2094
悦荟广场,南京东路353号,121.4836,31.2367
1933购物中心,沙泾路10号,121.4922,31.2546
湟普汇,吴江路269号,121.4593,31.2291
缤谷文化休闲广场,天山路345号,121.3870,31.2143
丰尚国际广场,运乐路569弄,121.2820,31.2033
上海协信星光广场,江场路1228弄,121.4574,31.2975
太平洋百货,衡山路932号,121.4385,31.1951
久金广场,张杨路与中环路交叉口旁,121.5812,31.2556
平高广场,荣乐中路与九峰路交汇处,121.2309,31.0166
嘉亭荟城市生活广场,墨玉南路1033-1099号,121.1618,31.2875
览海国际广场,世纪大道160号,121.5085,31.2350
力宝广场,淮海中路222号,121.4756,31.2242
梅龙镇广场,南京西路1038号,121.4567,31.2289
金桥股份碧云体育休闲中心,碧云路633号碧云体育休闲中心内,121.5828,31.2402
鹿都国际商业广场,松汇中路568号,121.2347,31.0051
新江湾城生活广场,国浩路与政和路交叉口东南角,121.5173,31.3352
大宁音乐广场,万荣路777号,121.4439,31.2807
百盛,淮海中路918号,121.4592,31.2175
百联中环购物广场,真光路1288号,121.3837,31.2456
吾悦广场,淀山湖大道218号,121.0954,31.1445
文峰广场,张杨北路801号,121.5874,31.2722
东航•云锦天地 MUPLAZA,龙兰路277号,121.4565,31.1659
巴黎春天,浦建路118号,121.5200,31.2085
西云楼,洪德路202号-400号,121.2604,31.3579
悠方,殷行路1388号,121.5078,31.3300
新世界城,南京西路2-68号,121.4740,31.2349
中冶祥腾城市广场,真南路4368弄,121.3228,31.2957
富荟广场,樱花路80弄,121.5444,31.2042
宝乐汇生活时尚中心,牡丹江路1569号,121.4854,31.3991
贝尚坊,沪亭北路350弄,121.3177,31.1455
百联南方购物中心,沪闵路7388号,121.4011,31.1317
大华虎城嘉年华广场,大华路352号,121.4139,31.2699
恒基688广场,南京西路688号,121.4645,31.2316
三邻桥体育文化园,江杨南路485号,121.4686,31.3176
宝地广场,唐山路1018号,121.5116,31.2612
青浦宝龙广场,赵巷镇汇金路590号,121.1530,31.1614
保利悦活荟,泗宝路41号,121.2606,31.1162
乐坊松汇生活广场,松汇中路568号鹿都国际商业广场内,121.2355,31.0057
融创精彩天地-上海浦兴,五莲路1333号,121.5978,31.2766
漫选·小马路,长宁路上海地铁2号线中山公园站3/4号口,121.4197,31.2192
陆家嘴1885广场,商城路665号,121.5183,31.2315
青浦万达茂广场,淀山湖大道首创禧悦旁,121.0828,31.1334
保利·悦活荟,长江西路380号,121.4758,31.3430
宏伊国际广场,南京东路299号,121.4846,31.2369
维璟广场,七莘路1507号,121.3635,31.1308
汇智国际商业中心,金科路3057号,121.6016,31.2034
新理想广场,荣乐西路860号,121.1967,31.0170
宝龙城市广场,金海路2505号,121.6534,31.2664
万达广场,龙皓路1088号,121.3350,30.7543
滨江光合新座,浦东大道1559号,121.5390,31.2446
百联奥特莱斯,沪青平公路2888号,121.2284,31.1561
乐荟天地,高科西路899号,121.5082,31.1857
近铁城市广场,真北路788、818号,121.3809,31.2318
禹洲商业广场,沪南公路9928号,121.7387,31.0394
中建广场,东明路高科西路地铁站4出口,121.5083,31.1860
中信泰富万达广场,胜辛路447号,121.2546,31.3308
国家会展中心商业广场,盈港东路158号,121.3033,31.1877
南翔太茂商业广场,丰翔路3168号,121.3252,31.2989
紫荆广场,控江路1628号,121.5167,31.2750
丁香国际商业中心,丁香路858号,121.5510,31.2251
百联滨江购物中心,平凉路1399号,121.5377,31.2650
碧江广场,鹤庆路900号,121.4042,31.0064
国和1000广场,国和路1000号,121.5264,31.3186
1088广场,浦东南路1088号,121.5151,31.2281
巴黎春天,成山路1993号,121.5357,31.1790
唐人幸福里,陈春路109号,121.5546,31.1735
新华联购物中心,申滨路473号,121.3091,31.2011
龙湖北城天街,潘广路与陆翔路交叉口,121.3591,31.3617
日月光中心广场,徐家汇路618号,121.4684,31.2063
保利时光里购物中心,瑞平路230号,121.4559,31.1820
永安百货,南京东路635号,121.4784,31.2352
梅龙镇伊势丹百货,南京西路1038号,121.4571,31.2290
百联金山购物中心,卫清西路168弄99号,121.3477,30.7318
上海世贸商城,延安西路2299号,121.4007,31.2018
东方商厦,漕溪北路8号,121.4380,31.1932
悠迈生活广场,四平路2500号,121.5160,31.2984
北翼生活广场,水产路竹韵路,121.4434,31.3665
万科2049海上传奇,御桥路1949号4-404,121.5719,31.1589
星游城,天钥桥路580号地铁4号线上海体育场4号口出,121.4426,31.1853
淮海755,淮海中路755号,121.4642,31.2187
苏宁生活广场,南奉公路7500号,121.4887,30.9183
天物空间,杨高中路2108号,121.5572,31.2321
证大大拇指广场,芳甸路199弄28号B,121.5597,31.2270
金桥太茂商业广场,金高路1882号,121.6087,31.2667
悦达889广场,万航渡路889号,121.4287,31.2294
东方商厦,卫清西路168弄99号百联金山购物中心内,121.3484,30.7302
百联西郊购物中心,仙霞西路88号,121.3703,31.2089
罗宾森购物中心,城中路138号,121.2455,31.3845
虹桥·食尚天地,沪青平公路1899号,121.2777,31.1668
城开YOYO,上海徐家汇天钥桥路123号,121.4420,31.1924
东方商厦,城中路66号,121.2484,31.3804
锦绣坊,锦延路329号,121.5426,31.2157
七巧国,隆昌路588号,121.5436,31.2750
中星城,钦州南路271号,121.4286,31.1588
正大乐城,中山南二路699号,121.4580,31.1866
港陆广场,上海西藏中路18号,121.4786,31.2294
汇宝购物广场,漕宝路3509号,121.3497,31.1561
汇金百货,天山路900号,121.4048,31.2114
日月光中心,城北路338号,121.2374,31.3906
百脑汇,漕溪北路339号,121.4384,31.1910
金鹰国际购物广场,陕西北路278号金鹰购物广场,121.4545,31.2290
富都广场,东方路1369号,121.5291,31.2122
百联徐汇商业广场,华山路2038号,121.4373,31.1971
瑞虹生活广场,临平路133弄瑞虹新城内,121.4995,31.2611
汇金奥特莱斯,沪闵路9001-3号,121.4281,31.1547
万都商城,兴义路8号万都中心大厦内,121.4052,31.2050
宝龙城,漕宝路3299号,121.3542,31.1587
太平洋生活广场,民星路378号,121.5393,31.3123
环龙商厦,闸北区梅园路330号中亚美爵酒店6楼,121.4562,31.2473
五彩城,宝翔路801号,121.3173,31.3115
松江商城,中山中路188号1楼,121.2340,31.0070
世博源5区,上南路168号世博源,121.4933,31.1798
宝龙城市广场,剑川路与尚义路交叉口北200米路西,121.4507,31.0379
新大陆广场,南泉北路528号,121.5188,31.2297
森兰商都,张杨北路2988号,121.5912,31.3119
世界广场,浦东南路855号,121.5150,31.2323
旭辉mall,控江路2068号,121.5092,31.2734
场北商业广场,场北路704号,121.4246,31.3319
三鑫世界商厦,张杨路579号1-3F,121.5184,31.2283
IMAGO我格广场,武宁路101号,121.4234,31.2379
置地广场,南京东路409号,121.4819,31.2361
万辉国际广场,虹梅南路863号,121.4227,31.1249
南洋1931,裕德路165号,121.4340,31.1855
万嘉商业广场,东靖路1881号,121.6109,31.2936
徐汇梅陇商业中心,龙州路995号,121.4225,31.1390
诺亚新天地,牡丹江路318号,121.4949,31.3813
淞南购物中心,长江南路651号,121.4806,31.3388
百联东郊购物中心,沪南路2420号,121.5638,31.1536
巴黎春天,真华路888号,121.4117,31.2706
壹街坊,上中西路280号,121.4256,31.1350
金桥大拇指广场,平度路和胶东路交口西侧,121.5915,31.2544
天格广场 Tango Plaza,灵石路718号C8栋,121.4391,31.2811
贝多芬广场,长宁路1158号,121.4146,31.2181
港城新天地,南汇新城镇茉莉路225弄,121.9061,30.8957
太平洋百货,天目西路218号,121.4570,31.2451
虹桥良华购物广场,申滨路990号,121.3085,31.2094
老码头购物中心,中山南路505弄,121.5057,31.2193
博隆商业广场,华腾公路和新府中路交叉口西北角,121.2294,31.2379
香港名都,河南南路489号,121.4899,31.2228
苏航生活广场,沪南公路5588号,121.5959,31.0351
嘉实生活广场,嘉松北路6130弄,121.2218,31.2880
星光耀广场,曹杨路1888号,121.4067,31.2572
