,mall_name,address,longitude,latitude,latitude 
0,新奥购物中心,湖景东路9-11号,116.3942,,40.0
1,华联商厦,通胡大街甲3号,116.7001,,39.9184
2,恒泰广场,丰台北路18号,116.3063,,39.866
3,王府中環,王府井大街269号,116.4097,,39.9122
4,金源新燕莎MALL,远大路1号,116.2891,,39.9585
5,北京apm,王府井大街138号,116.4119,,39.9148
6,龙湖北京大兴天街,永兴路七号院龙湖大兴天街,116.3195,,39.6862
7,BHG Mall购物中心,新顺南大街8号,116.6525,,40.128
8,乐成中心SPACE3,东三环中路22号,116.4625,,39.8945
9,国贸商城,建国门外大街1号,116.4584,,39.9112
10,北京SKP,建国路87号,116.4789,,39.9103
11,花乡奥莱村,南四环西路76号,116.3239,,39.8275
12,天虹百货,湖景东路9号,116.3963,,40.0015
13,华贸购物中心,建国路79号,116.4811,,39.9091
14,万达广场,丰科路与五圈路交叉口东100米路南,116.2987,,39.8242
15,龙湖北京长楹天街,朝阳北路常营地铁站F出口旁,116.598,,39.9248
16,凯德MALL,广顺北大街33号,116.4687,,39.9929
17,望京华彩商业中心,广顺北大街16号,116.4689,,40.0108
18,银泰百货,马家堡东路101号院10号楼,116.3856,,39.8444
19,五彩城,清河中街68号,116.3351,,40.0303
20,世贸天阶THE PLACE,光华路9号,116.4519,,39.9162
21,万达百货,新华西街58号,116.641,,39.9053
22,北京银泰中心in01,建国门外大街2号,116.4592,,39.9074
23,菜市口百货中心,广安门内大街306号,116.3594,,39.889
24,燕丰商场,西坝河南里17号楼,116.4391,,39.96
25,官舍,东方东路亮马桥外交公寓B区一号楼首层,116.464,,39.9519
26,三里屯太古里,三里屯北路11号,116.4545,,39.9385
27,温特莱中心,西大望路1号,116.4768,,39.9132
28,悠唐购物中心,三丰路三丰北里2号,116.439,,39.9218
29,中国红街,工体东路丙2号,116.4508,,39.9323
30,新中关购物中心,中关村大街19号,116.3153,,39.9783
31,欧美汇购物中心,中关村丹棱街甲1号,116.3141,,39.9795
32,侨福芳草地购物中心,东大桥路北巷9号,116.4488,,39.9192
33,西单大悦城,西单北大街131号,116.3728,,39.9108
34,凯德MALL,西直门外大街1号,116.3528,,39.9417
35,华熙LIVE,复兴路69-1号,116.2796,,39.9105
36,荟聚中心,欣宁街15号,116.3272,,39.7875
37,合生汇,西大望路甲22号,116.4794,,39.8939
38,首开福茂,宋庄路67号,116.4272,,39.8464
39,万达广场B座,新华西街58号院3,116.6407,,39.9057
40,亦庄创意生活广场,亦庄开发区文化园东路与荣华北路交叉东侧,116.5033,,39.8105
41,青春万达广场,府前西街1号院1号楼,116.6299,,40.3162
42,首航生活广场,丰北路甲79号,116.2938,,39.8668
43,四元桥购物中心,四元桥宜居南路2号楼,116.4609,,39.9788
44,京投港·长阳购物中心,长阳镇长政南街1号院1号楼,116.2133,,39.7631
45,中央公园广场商铺,六里屯朝阳公园南侧,116.4775,,39.9326
46,哇沃生活广场,学院南路南,116.3487,,39.9577
47,燕莎友谊商城,远大路1号金源新燕莎MALL东侧B1楼至3楼,116.2916,,39.9585
48,NTP新城广场,蒲黄榆路芳古园一区18号楼,116.4221,,39.8671
49,BHG Mall购物中心,迎宾街1号院22号楼,117.0946,,40.1463
50,百尚食工坊,兴华南街马驹桥百尚生活广场B1层,116.5451,,39.7531
51,万源广场,万源路和万源北路交叉口西南角,116.4236,,39.8021
52,金熙汇,古城地铁西南金融街长安中心负1层,116.1843,,39.906
53,陆港城,朝阳北路20号院,116.5926,,39.9249
54,融科天地中心,科学院南路2号,116.3265,,39.9832
55,荣祥广场,馨园一路2号院,116.5475,,40.0627
56,翠微百货,立汤路186号龙德广场1-4层,116.4156,,40.0605
57,双子座购物中心,建国门外大街乙12号,116.4486,,39.9076
58,西单购物中心,西单北大街132号,116.3746,,39.9114
59,龙湖星悦荟,颐和园路208号,116.2901,,39.9983
60,东环广场,东中街29号,116.4361,,39.9372
61,云影小镇,朝阳路28号,116.5926,,39.9111
62,鲁能美丽汇,合景香悦四季西区,116.6513,,40.1787
63,中骏·世界城,金汇路9号,116.4518,,39.9177
64,方庄市场,方庄芳星园一区15号,116.4322,,39.8619
65,中粮广场购物中心,建国门内大街8号,116.43,,39.9072
66,金宝汇购物中心,金宝街88号,116.4223,,39.9152
67,华贸广场,西大望路甲6号,116.4799,,39.91
68,华夏幸福创新中心·特色商街,汽车博物馆西路8号院华夏幸福创新中心内,116.3017,,39.824
69,燕莎友谊商城,亮马桥路52号,116.463,,39.9489
70,悠唐广场,三丰北里3号北京朝阳悠唐皇冠假日酒店附近,116.4392,,39.9221
71,居然之家体验mall,西三环南路甲27号,116.3098,,39.8719
72,潮驿178,北苑路28号,116.4157,,40.0403
73,财富购物中心,东三环中路7号财富购物中心F1层,116.4591,,39.9177
74,悦茂购物中心,后屯路文龙家园四里4号楼,116.3494,,40.0432
75,BHG Mall购物中心,东三旗路天通中苑F区,116.415,,40.0703
76,万象汇,水源路与顺密路交叉口东南角,116.8354,,40.3556
77,金隅嘉品Mall,东坝中路38号,116.5483,,39.9515
78,鸿坤购物中心,西红门欣旺北大街8号,116.3399,,39.7913
79,伊藤洋华堂,北四环东路108号,116.4208,,39.9882
80,北京市百货大楼,王府井大街255号,116.41,,39.9138
81,万达广场,建国路93号,116.4714,,39.9102
82,双安商场,北三环西路38号,116.3259,,39.9665
83,BHG Mall购物中心,育知东路30号院,116.3371,,40.0719
84,华威约饭街,西单北大街130号华威大厦7层,116.3746,,39.9115
85,天虹百货,广安门外大街168号,116.3412,,39.8887
86,BHG Mall购物中心,荣华中路8号院,116.502,,39.8053
87,麒麟新天地,阜通西大街11号,116.4778,,39.9972
88,那里花园,三里屯北街81号,116.4549,,39.9363
89,北京王府井银泰in88,王府井大街88号,116.4118,,39.9161
90,京通罗斯福广场,北苑南路九棵树地铁对面,116.6588,,39.889
91,BHG Mall购物中心,巴沟路2号,116.2951,,39.9731
92,通盈中心,南三里屯路与工体北路交叉处,116.4549,,39.9323
93,隆华购物中心,新顺南大街11号,116.6505,,40.1264
94,澳门中心,王府井东街8号,116.4133,,39.9149
95,世纪金源购物中心,远大路1号,116.2886,,39.9586
96,食宝街,中关村大街15号,116.3138,,39.9803
97,华润plus365购物中心,石龙西路润西山别墅区对面,116.1103,,39.9114
98,北京君太,西单北大街133号,116.3733,,39.9095
99,东安市场,王府井大街253-255号,116.4115,,39.9138
100,北京坊,煤市街廊房头条交叉口东北角,116.3967,,39.898
101,金地广场,建国路91号,116.4743,,39.9092
102,首创奥特莱斯,长阳镇悦盛路6号院,116.1867,,39.7633
103,昌发展万科广场,龙域中街龙域中心,116.3168,,40.0665
104,三里屯SOHO,工体北路8号,116.4533,,39.9331
105,凯德Mall,华佗路2号,116.319,,39.6723
106,住总万科广场,旧宫东西大街旧宫地铁对面,116.4594,,39.8056
107,银河SOHO购物中心,牌坊胡同甲7号,116.4335,,39.92
108,国瑞购物中心,崇文门外大街18号,116.4199,,39.8982
109,绿地缤纷城,金星西路金星公园斜对面,116.3341,,39.7645
110,华贸天地,清河营南街七号院,116.4323,,40.0465
111,合景·摩方购物中心,崇文门外大街1号,116.4177,,39.8996
112,老佛爷百货,西单北大街110号,116.3743,,39.9139
113,银座和谐广场,万丰路68号,116.2973,,39.8823
114,朝阳大悦城,朝阳北路101号,116.5185,,39.9239
115,悦荟万科广场,南环路10号院1号楼,116.2393,,40.2123
116,食寶街,羊坊店路18号光耀东方广场,116.322,,39.8991
117,龙湖北京房山天街,拱辰北大街与管委路交口西南角,116.1403,,39.7459
118,喜隆多新国际购物中心,阜石路300号,116.1717,,39.9228
119,东方新天地,东长安街1号,116.4144,,39.9091
120,蓝色港湾,朝阳公园路6号二十一世纪对面,116.4753,,39.9491
121,中粮祥云小镇,安泰大街9号,116.5377,,40.087
122,Hello Mart城市市集,亮马桥路48号,116.4669,,39.9504
123,八达岭奥莱,南口镇陈庄京藏高速公路陈庄出口北侧,116.1703,,40.2351
124,来福士中心,东直门南大街1号,116.4324,,39.94
125,赛特奥莱,香江北路28号,116.5056,,40.0354
126,中粮万科半岛广场,长阳路广阳新路9号院1号楼,116.2112,,39.7535
127,万达广场,北苑一路1号院,116.6406,,39.9049
128,环球贸易中心,北三环东路36号,116.4108,,39.9672
129,龙德广场,立汤路186号,116.4155,,40.0597
130,北京富力广场,广渠门外大街东三环南路1号院,116.4607,,39.8954
131,万达广场,石景山路乙18号,116.2262,,39.9059
132,颐堤港,酒仙桥路18号,116.4913,,39.9696
133,大族广场Mall&More,经济技术开发区荣华南路2号,116.5129,,39.7927
134,北京太阳宫爱琴海购物公园,七圣中街12号,116.4365,,39.9719
135,中海环宇荟购物中心,北土城路与安定路西北角,116.4064,,39.9779
136,新东郊商城二层,新东郊商城二层a-087a-088,116.5358,,39.8676
137,北京嘉里中心,光华路1号,116.4593,,39.914
138,永旺梦乐城,丰葆路88号院1号楼,116.2924,,39.8178
139,枫蓝国际购物中心,西直门北大街32号,116.3565,,39.9532
140,五道口购物中心,成府路28号,116.3393,,39.9917
141,三里屯太古里北区N8座,三里屯路19号三里屯太古里北区,116.4542,,39.9387
142,凯德MALL,太阳宫中路12号,116.4477,,39.9715
143,斯普瑞斯奥特莱斯,机场二高速西侧金盏乡森林公园东1号,116.5964,,40.0119
144,万达广场,南苑西路39号,116.368,,39.8142
145,远洋未来广场,北四环东路73号,116.4324,,39.9902
146,马家堡新荟城购物中心,马家堡路角门19号院,116.3785,,39.8363
147,汉光百货,西单北大街176号,116.3753,,39.9094
148,凤凰汇购物中心,京密路曙光西里甲5号院,116.457,,39.9629
149,新世界百货,新顺南大街18号,116.6523,,40.1261
150,金融街购物中心,金城坊街2号,116.3625,,39.9153
151,BHG,北三环安贞西里五区4号华联商厦F1层,116.4012,,39.9707
152,贪吃一番街,双清路88号华源世纪商务楼1-3层,116.3349,,39.9962
153,物美大卖场,新街口北大街1号新华百货B1层,116.3712,,39.9474
154,绿地缤纷城,天星街1号院,116.1609,,39.7564
155,凯德晶品购物中心,复兴路51号,116.2972,,39.9082
156,世界之花假日广场,久敬庄路与德贤路交叉口西南角,116.4224,,39.8194
157,万达广场,玉林西路145号,116.3557,,39.8608
158,银座mall,东直门外大街48号,116.4357,,39.9403
159,北京印象城,翠微路12号新华联商业大厦,116.3041,,39.9118
160,中昂时代广场,门头沟路9号博物馆对面,116.0966,,39.9437
161,方庄购物中心,蒲芳路24号,116.4288,,39.8655
162,上品折扣,回龙观西大街16号龙冠商务中心B座,116.3353,,40.0793
163,赛特购物中心,建国门外大街22号,116.4417,,39.9076
164,华创生活广场,林翠西里16号楼,116.3726,,40.0101
165,盛景国际广场,石景山路31号盛景国际大厦一层,116.2015,,39.9082
166,扑满山,宋庄路71号院扑满山大厦1-3层,116.4264,,39.8455
167,朝阳商业大楼,西坝河中里34号,116.4396,,39.9618
168,千禧商业街,靛厂路千禧商业街A-D座,116.2835,,39.89
169,百盛,复兴门内大街101号,116.3584,,39.9089
170,贵友大厦,云景东路1号,116.6668,,39.8841
171,甘家口百货,三里河路17号,116.3334,,39.9275
172,天键广场,枣园路印刷学院附属小学对面,116.3143,,39.7526
173,易事达购物休闲广场,秋实街1号,116.4219,,40.0423
174,越都荟,广安门外大街178号,116.3374,,39.8894
175,城乡世纪广场,科创五街38号,116.5328,,39.8021
176,天丰利市场,和平西街21号,116.4176,,39.9627
177,国华商场,宣武门西大街18号,116.364,,39.899
178,复兴商业城,复兴门外大街4号,116.3496,,39.9067
179,搜秀购物广场,崇文门外大街40号,116.4194,,39.8964
180,光耀东方广场,羊坊店路18号,116.3222,,39.8994
181,新世界百货,崇文门外大街3-5号,116.4176,,39.898
182,凯德MALL,南三环西路16号,116.367,,39.8548
183,苏宁生活广场,朝阳路与八里庄路交叉口西北角,116.4947,,39.9161
184,当代商城,阜石路165号,116.1967,,39.9254
185,中发百旺商城,圆明园西路18号,116.2767,,40.0292
186,燕莎奥特莱斯购物中心,东四环南路9号,116.4864,,39.878
187,工美大厦,王府井大街200号,116.4119,,39.9109
188,易事达,孙河康营中路康营家园,116.5436,,40.0353
189,西单觅食森林,西单北大街111号觅食森林,116.3734,,39.9134
190,新荟城,望京阜通西大街东园一区120号,116.4821,,39.9987
191,永旺梦乐城国际商城,北清路1号,116.29,,40.096
192,时代Life购物中心,蒲方路芳星园二区6号楼,116.4354,,39.8656
193,上品＋,北苑路甲13号,116.4171,,40.0318
194,合生广场,永外路果园8号,116.3978,,39.8562
195,华宇时尚购物中心,中关村南大街2号,116.3232,,39.965
196,百荣世贸商城,永定门外大街101号,116.3984,,39.8609
197,京粮广场,田村路43号,116.2539,,39.9311
198,新世界百货,广顺南大街16号,116.4805,,39.9866
199,乐多港奥特莱斯购物中心,旧西路与京藏高速交叉口西北角,116.1897,,40.2305
200,北京华联上地购物中心,农大南路1号硅谷亮城1号楼,116.3118,,40.0286
201,翠微百货,复兴路33号、29号,116.3039,,39.9084
202,当代商城,中关村大街40号,116.3211,,39.9704
203,方恒购物中心,阜通东大街6号院,116.4824,,39.9902
204,天通苑万优汇UNIT ONE,立汤路188号,116.4152,,40.057
205,3.3大厦,三里屯路33号,116.4546,,39.9367
206,金泉广场,北苑路与大屯路交叉口西北角,116.4156,,40.0052
207,王府井购物中心,白纸坊街道右安门内大街万博苑7号楼,116.3649,,39.8719
208,BHG Mall购物中心,朝阳北路17号,116.5975,,39.9263
209,城乡购物中心,复兴路甲23号,116.3075,,39.9088
210,西点mall购物中心,永定路88号,116.2652,,39.9052
211,华联商厦,成府路28号五道口商业中心,116.3394,,39.9921
212,翠微百货,花园路2号翠微百货,116.3664,,39.9773
213,泰华龙旗购物中心,黄平路19号,116.3474,,40.0669
214,BHG Mall北京华联公益西桥购物中心,公益西街与马家堡西路交口西南角,116.3694,,39.8343
215,太阳飘亮购物中心,安立路68号,116.4092,,39.9977
216,上品折扣,西翠路5号今日商业中心一层、二层,116.2804,,39.9005
217,新燕莎金街购物广场,王府井大街301号,116.4107,,39.9098
218,上品折扣,草桥东路1号,116.3583,,39.851
219,华联商厦,龙背村路99号院,116.2709,,40.0155
220,天虹,左家庄北里58号,116.4423,,39.9589
221,远洋未来汇,东四环中路58号,116.4922,,39.9161
222,比如世界购物中心,京顺路111号,116.4617,,39.9684
223,翠微百货,大成路8号,116.2653,,39.8881
224,北京台湾街,石景山路2号,116.2364,,39.9044
225,新街口百货商场,新街口南大街7号,116.3725,,39.9401
226,华冠购物中心,良乡秋树街38号,116.1393,,39.7349
227,尚街购物中心,甘露园南里25号,116.5175,,39.9169
228,丽都广场,将台路6号,116.4788,,39.977
229,SOHO尚都,东大桥路8号,116.4515,,39.9189
230,丰联广场,朝阳门外大街18号,116.4386,,39.9237
231,泰禾里,新源大街与兴华大街交汇处东北角,116.3206,,39.7131
232,京港城生活广场,光彩路京深海鲜市场对面,116.4146,,39.8406
233,万科时代中心,朝阳路十里堡甲3号院甲1号,116.5026,,39.9152
234,阳光新城市广场,朝阳路十里堡乙2号院,116.5054,,39.9152
235,第5大道精品休闲购物广场,慧忠北里309-6号,116.4075,,40.0029
236,国泰百货,双桥路2号,116.5777,,39.9083
237,护国新天地,护国寺街85号,116.3755,,39.9354
238,万科时代中心·望京,望京街9号望京新城B区,116.4833,,39.989
239,久隆百货,酒仙桥路39号,116.495,,39.9621
240,翠微广场,复兴路29号,116.3054,,39.9083
241,五道口购物广场,五道口新村4号,116.3399,,39.9854
242,百汇商城,建材城西路22号,116.3434,,40.0619
243,华联商厦,广顺北大街33号望京凯德MALL,116.4689,,39.9925
244,都汇天地,新源南路1号,116.46,,39.9497
245,BHG Mall购物中心,杨庄北里52号天时名苑小区14号楼,116.6363,,39.9038
246,北店时代广场,回龙观西大街D05区,116.3378,,40.0806
247,上品宜购,马连道路10号2-3层,116.3271,,39.883
248,铭泽生活广场,周庄村52号,116.4769,,39.8641
249,嘉茂购物中心·西直门,西外大街1号凯德MALL2层207,116.3528,,39.9411
250,乐家购物中心,京良路10号,116.3327,,39.7996
251,百联清城购物中心,兴华大街三段3号,116.3316,,39.7387
252,米兰life,西三环南路10号,116.3124,,39.8799
253,燕赛奥特莱斯,鼓楼南大街3号,116.8453,,40.3746
254,百尚生活广场,马驹桥兴华中街潼关三区9号楼,116.5449,,39.753
255,高和萃,东三环北路甲26号楼博瑞大厦,116.4624,,39.9284
256,阳光商厦,府学路29号,116.2442,,40.2213
257,华尚金泰广场,长阳镇怡和北路3号院1号楼,116.2126,,39.7615
258,顶秀美泉小镇欧洲风情商业街,雁栖镇范各庄村,116.6727,,40.3707
259,young街样街,西单北大街131号young街9层,116.3731,,39.9106
260,共享际,东四九条88号共享际内,116.4182,,39.9327
261,贵友大厦,远大路1号金源新燕莎MALL中部1-3楼,116.2873,,39.9583
262,国泰宏城生活购物广场,前进花园石门苑甲13号,116.6345,,40.1297
263,日购商城,慧忠北里309-6号第五大道精品休闲购物广场B1层,116.407,,40.0033
264,李老社区商业中心,通朝大街与怡乐中路交叉口东南角,116.6356,,39.8909
265,华联购物广场,永顺镇物资学院路18号,116.64,,39.9234
266,永安路百货商场,永安路143号,116.3886,,39.8864
267,新世纪商城,鼓楼南大街17号新世纪商城F2层,116.2333,,40.2191
268,国泰谊宾商城,义宾街与站前北街交叉口北150米,116.6464,,40.1331
269,共享际,建国门外大街1号,116.4592,,39.9118
270,华创生活广场,红坊路6号,116.4742,,39.8287
271,梦秀欢乐广场,望京西路歌华有线对面,116.457,,39.9936
272,米拉广场,新海东路1号楼,116.5456,,39.7602
273,资和信百货商场,西四环南路1号,116.2852,,39.838
274,道尔泰商城,小营路6号,116.4261,,39.9965
275,新华百货,新街口北大街1号,116.3715,,39.9474
276,华联商城,回龙观镇龙禧苑15号楼1至2层03号1层,116.3337,,40.0806
277,五棵松购物中心,复兴路69号中铁广场旁,116.2777,,39.9132
278,富贵园购物中心,广渠门内大街35-7号,116.4327,,39.8939
279,上品折扣,香宾路66-1号,116.4638,,40.0167
280,环球新意百货,妫水北街46号金锣湾商业中心,115.9756,,40.4615
281,阳光新生活广场,九棵树西路48号,116.6563,,39.8898
282,新年华购物中心,马连道路25号,116.3257,,39.8773
283,北京国海广场,复兴路17号国海广场,116.3137,,39.9083
284,华冠天地,昊天北大街48号,116.169,,39.7714
285,枫尚世纪奥特莱斯购物广场,顺义区后沙峪镇裕民大街45号院,116.5424,,40.1056
286,春平购物广场,工人体育场东路20号,116.4512,,39.9242
287,迪佳广场,万柳中路6号院,116.2975,,39.9689
288,k酷时尚广场,北苑路42号,116.4189,,40.0333
289,西宸广场,首经贸中街北,116.321,,39.8447
290,国泰百货,八里桥南街1号院北苑路口通典铭居底商,116.6352,,39.9069
291,活力东方购物广场,姚家园路甲1号,116.5222,,39.9405
292,富卓大厦,宣武外大街28号,116.3751,,39.894
293,贵友大厦,建国门外大街甲5号,116.4511,,39.9091
294,和美购物广场,文化北街7号,117.1101,,40.1433
295,隆华奥特莱斯,贯通路18号,116.6423,,40.129
296,佳亿·青年汇,青年路与朝阳北路交口南100米,116.5172,,39.9217
297,华冠天地,房山西大街2号,115.9838,,39.7021
298,佳运广场,东小口立水桥佳运园小区26号楼,116.404,,40.047
299,玉泉商业生活中心,茶棚路北坞嘉园南里北坞幼儿园东行100米,116.2516,,39.9761
300,中海环宇城,中意二路111号,112.986,,28.0683
301,泊富ICITY美好生活中心,芙蓉中路一段416号,112.9846,,28.2088
302,长沙IFS国金中心,解放西路188号,112.9799,,28.1917
303,保利广场,湘龙街道湘龙西路与龙塘路交汇处,113.0513,,28.2669
304,通程商业广场,溁湾镇枫林路2号,112.9525,,28.1951
305,万象汇,星沙大道178号,113.0865,,28.2489
306,王府井Family PARK购物中心,金星中路383号,112.9333,,28.2188
307,友阿奥特莱斯,芙蓉南路三段27号,112.9937,,28.071
308,CFC富兴时代,芙蓉中路一段303号,112.9879,,28.2143
309,悦方ID MALL,坡子街216号,112.9751,,28.1897
310,国金街,五一大道,112.9759,,28.1939
311,步步高梅溪新天地,枫林三路1099号,112.8628,,28.2004
312,乐和城,黄兴中路188号,112.9766,,28.199
313,万家丽广场,荷花路与万家丽中路交叉口,113.0316,,28.1905
314,运达中央广场购物中心,长沙大道567号,113.043,,28.1701
315,平和堂百货,黄兴中路88号,112.977,,28.1945
316,新世界百货,五一西路153号,112.9782,,28.1947
317,九龙仓,解放西路,112.9788,,28.1923
318,凯德壹中心,潇湘北路与茶子山路交叉口西北角,112.9566,,28.2415
319,万达广场,湘江中路589号,112.9706,,28.1996
320,叮叮mall,劳动西路337号,112.9823,,28.1754
321,海信广场,湘江中路二段36号,112.9695,,28.1902
322,喜盈门范城,万家丽路中段,113.0348,,28.1334
323,德思勤四季汇,湘府中路18号,113.0138,,28.1114
324,王府井百货,黄兴中路27号,112.9758,,28.1926
325,砂之船奥莱,月亮岛路与金星北路交叉口东北角,112.9191,,28.2886
326,中茂城,星沙一桥南侧,113.076,,28.2288
327,凯德广场,韶山中路421号,112.9953,,28.1543
328,7mall购物美学中心,五一大道635号,112.9758,,28.1947
329,步步高广场,金星中路428号,112.9358,,28.2186
330,天虹,芙蓉南路358号,112.9868,,28.1351
331,世纪金源购物中心,金泰路199号,112.9795,,28.2511
332,华远悠优港,湘江中路与坡子街交口,112.9697,,28.191
333,长沙五矿live,长沙开福区福元西路,113.0121,,28.2512
334,时代奥特莱斯,金洲新区工业集中区欧洲北路168号,112.6887,,28.2691
335,友谊商城,劳动中路2号,112.9952,,28.1684
336,梅澜坊商业街,环湖路与连湖二路交叉口,112.8974,,28.1911
337,德思勤城市广场,湘府中路18号,113.0114,,28.1117
338,百联奥特莱斯,大元西路,113.205,,28.1987
339,东方悦邻mall,曙光中路56号,113.0025,,28.1768
340,庙街,五一大道868号,112.976,,28.1957
341,华远·facemore,湘江中路二段62号,112.9711,,28.1895
342,弘坤花样汇,枫林三路与沐风路交界处东南角,112.8756,,28.1965
343,保利MALL,沙湾路89号,113.0467,,28.1562
344,吾悦广场,东四路松雅湖新城吾悦广场内,113.1012,,28.2526
345,华创国际广场,芙蓉中路一段113号,112.9884,,28.224
346,金茂览秀城,梅溪湖环湖路1177号,112.9024,,28.1964
347,奥克斯广场,岳麓大道57号,112.9544,,28.2231
348,环球奥特莱斯购物中心,雷锋大道668号,112.8601,,28.3222
349,2751 YOLO城市广场,定王台街道黄兴中路92号,112.9767,,28.1959
350,友谊商店,袁家岭,112.9975,,28.1953
351,河马公园购物中心,福元西路万科城,112.995,,28.2513
352,正荣·财富中心,唯罗克路与望府路交叉口南150米,112.8329,,28.3482
353,春天百货,黄兴中路63-65号,112.9759,,28.194
354,万国城MOMA,福元西路199号,112.9973,,28.2523
355,麓南青年街,清水路金纳斯酒店西北,112.9322,,28.163
356,通程名品金色家族,劳动西路589号,112.9943,,28.1699
357,天虹购物中心,君悦城,113.6262,,28.1574
358,高升时代广场,中意一路798号,113.012,,28.0952
359,平和堂百货,岳麓大道57号奥克斯广场1层,112.9543,,28.2234
360,粉巢,吉祥街安妮公主意大利冰淇淋旁,112.9761,,28.1965
361,平和堂百货,韶山北路498号,112.9945,,28.1707
362,芙蓉广场,芙蓉中路238号,112.9848,,28.1958
363,悦荟广场,黄兴南路445号,112.975,,28.191
364,通程奥特莱斯,长沙大道华晨世纪广场居然之家旁,113.0291,,28.1677
365,步步高生活广场,含浦大道与西二环交口王家湾,112.9256,,28.1608
366,天虹CC MALL,劳动东路260号京武浪琴山裙楼1-3楼,113.0427,,28.1573
367,通程商业广场,板仓路154号,113.0792,,28.2441
368,佰能商城,金泰路199号世纪金源购物中心B1层佰能数码城,112.9795,,28.2511
369,好润佳,长沙大道与白沙湾路交叉口旁,113.0441,,28.1686
370,阿波罗商业广场,车站中路345号,113.0103,,28.1967
371,龙湾商业广场,福元西路108号,112.9934,,28.2513
372,通程商业广场喜乐汇,香樟路819号,113.0302,,28.1382
373,华润置地广场,开元东路与东六线交汇处东北角,113.1087,,28.2459
374,开鑫商城,长开元路17号,113.0826,,28.2461
375,德智园商场,麓山南路501号音乐学院对门,112.9391,,28.1657
376,大米,城南东路117号,113.0067,,28.175
377,新世界商贸城,犁头后街126号,112.9783,,28.1937
378,丽发国际广场,万家丽南路与汇金路交叉口东100米路南,113.0187,,28.0631
379,魅力之城万科里,劳动东路1299号,113.0673,,28.1594
380,欧亚达国际广场项目,劳动东路和万家丽路交汇处西北角,113.028,,28.1586
381,通程商业广场,金沙中路1号,113.6275,,28.1335
382,万佳惠,劳动东路与南二环一段交叉口,113.0169,,28.1553
383,财富广场,一环路与八一西路交口东南100米,112.5445,,28.2529
384,平和堂,银双路大官米线旁,112.9548,,28.2234
385,G58智趣MALL,万家丽中路柒桌老火锅旁,113.039,,28.1144
386,步步高,枫林三路长沙西中心底商,112.9137,,28.2087
387,梅西百货,宁夏路禾田麦香旁,112.8612,,28.1982
388,方圆荟,玉兰路长沙西中心底商,112.9128,,28.2082
389,恒生购物广场,北津城路滨江·海棠湾底商,112.9515,,28.2581
390,中南·麓南商业广场,清水路59号,112.9328,,28.1626
391,新南天古汉国际广场,马王堆北路18号,113.0253,,28.2036
392,宇成朝阳广场,车站中路与人民中路交汇处,113.0102,,28.1868
393,浏阳比一比,淮川街道车站西路1号,113.6254,,28.144
394,高桥现代商贸城,马王堆南路258号,113.0243,,28.1737
395,红星商业广场,中意一路478号,113.0147,,28.1097
396,通程商业广场,湘府东路二段517号,113.0161,,28.1094
397,新大陆银座,黄兴路步行街南端-南门口广场西南角,112.9757,,28.1829
398,和家生活广场,长镇街黄花镇中心广场1号,113.1896,,28.2302
399,湖南宁乡义乌小商品批发城,玉潭东路18号,112.5692,,28.2476
400,城南优品道广场,白衣上街177号,103.913,,30.5957
401,伊藤洋华堂,红星路三段大科甲巷8号,104.0786,,30.655
402,王府井百货,总府路15号,104.0794,,30.6581
403,银泰中心in99,天府大道北段1199号,104.0697,,30.5858
404,凯德天府,天仁路388号,104.0692,,30.6031
405,新世纪环球中心,天府大道北段1700号,104.0631,,30.5686
406,伊藤洋华堂,逸都路6号,104.0212,,30.6461
407,首开·龙湖成都西宸天街,金牛大道与中环路交汇处,104.0312,,30.6968
408,永立星城都,二环路与府青路交汇处,104.0998,,30.6896
409,仁和新城,府城大道西段505号,104.0532,,30.5877
410,万象城,双庆路8号,104.1156,,30.6494
411,群光广场,春熙路南段8号,104.0768,,30.654
412,龙湖金楠天街,晋阳路与晋吉北路交汇处西侧,103.9963,,30.6485
413,成都远洋太古里,纱帽街8号,104.0835,,30.6532
414,悠方购物中心,交子大道300号,104.0572,,30.5831
415,IFS国际金融中心,红星路步行街3段1号,104.0814,,30.6548
416,仁恒置地广场,人民南路2段1号,104.0678,,30.652
417,伊藤洋华堂,光华大道三段1666号,103.864,,30.6857
418,龙湖成都时代天街,合作路89号,103.9215,,30.7511
419,中海国际购物公园,蜀西路399号,103.9793,,30.7228
420,汇融广场,大丰街道方元路55号,104.063,,30.7664
421,成都大悦城,大悦路518号,104.011,,30.6258
422,来福士,人民南路四段3号,104.0676,,30.6316
423,新尚天地·尚街,柳台大道东段与学府路交叉口,103.814,,30.6812
424,珠江广场,光华大道三段1588号,103.8635,,30.6851
425,伊藤洋华堂,二环路东二段426号,104.1093,,30.6715
426,水璟唐,锦官驿街1号,104.0859,,30.6442
427,龙湖三千集天街,建设北路三段2号,104.1097,,30.675
428,中粮鸿云·悦街,汇源北路333号,104.1138,,30.6397
429,世豪广场,剑南大道中段998号,104.0459,,30.5495
430,金科星耀天都,驷马桥西林一街19号,104.0961,,30.7003
431,汇锦广场,盛华北路199号附201号,104.0528,,30.557
432,海滨城购物中心,蛟龙大道21号,103.9095,,30.6033
433,伊势丹,天府大道北段1199号,104.0693,,30.585
434,伊藤洋华堂,二环路东五段29号,104.0971,,30.6221
435,银石广场购物中心,红星路三段99号,104.0798,,30.6531
436,城西优品道广场,青羊大道99号,104.0072,,30.6643
437,COSMO财富中心,大业路6号,104.0703,,30.6523
438,凯德广场,盛和一路99号,104.063,,30.6018
439,BHG Mall购物中心,锦华路172号,103.9872,,30.5713
440,银泰城,益州大道1999号,104.0581,,30.541
441,苏宁广场·城市奥特莱斯,天府大道北段8号,104.0662,,30.6016
442,优客城市奥特莱斯,建设路55号,104.0995,,30.6676
443,卓锦曼购中心,枫树街2号,104.1362,,30.5955
444,佛罗伦萨小镇成都名品奥特莱斯,银杏路888号,103.8404,,30.8104
445,伊势丹,大科甲巷6号,104.0793,,30.6548
446,万达广场,赵镇瑞居绿岛,104.4168,,30.853
447,万达广场,二环路东五段68号,104.0965,,30.6209
448,万达广场,日月大道一段978号,103.9733,,30.6759
449,伊藤洋华堂,天府二街999号,104.0443,,30.5502
450,王府井购物中心,科华中路2号,104.0759,,30.6188
451,恒大广场,提督街99号,104.0743,,30.6614
452,连卡佛LaneCrawford,红星路步行街3段1号ifs国际金融中心3，4层,104.081,,30.6551
453,万达广场,一环路北三段1号,104.0745,,30.6866
454,UPARK公园+,富华北路666号,104.0398,,30.5549
455,天虹百货,锦城大道666号奥克斯广场西区B1-4层,104.0615,,30.5762
456,仁和春天广场,石羊场街道仁和村,104.0525,,30.5871
457,奥克斯广场,锦城大道666号,104.0615,,30.5763
458,百伦广场,小北街老百姓花园,103.8863,,30.8105
459,吾悦广场,桃都大道888号,104.2407,,30.578
460,凯德广场,交大路183号,104.0446,,30.7031
461,茂业百货,总府路12号天桥下边,104.0786,,30.6577
462,今站购物中心,天府广场负一楼,104.066,,30.6574
463,万达广场,望从东路347号,103.9063,,30.8079
464,鹏瑞利青羊广场,光华大道一段光华北三路55号,103.9621,,30.6703
465,东航中心,临港路一段32号,103.9756,,30.5653
466,建发·鹭洲里,天府二街1033号,104.0431,,30.5503
467,上古天地,龙潭路33号,104.1657,,30.7042
468,龙湖成都北城天街,五块石路1号,104.0656,,30.7099
469,SM城市广场,二环路东二段29号,104.1123,,30.6685
470,时代·奥特莱斯,双楠大道99号,103.9446,,30.6027
471,伊藤广场,喜树街35号,104.1561,,30.6047
472,西村大院商场,苏坡东路33号,104.002,,30.6713
473,成都339购物中心,猛追湾街94号,104.0935,,30.6615
474,新世界百货,顺城街8号,104.0716,,30.656
475,凯德广场,万科路9号,104.1529,,30.6268
476,华润广场,二环路东五段239号,104.0904,,30.62
477,华熙528艺术村,成龙大道与银木街交汇处,104.146,,30.5887
478,九方购物中心,天府大道88号,104.065,,30.5899
479,银海中心,一环路北四段108号,104.0869,,30.6799
480,玉林生活广场,玉林南路15号,104.0578,,30.6204
481,旭海时代广场,雄州大道南段389号,104.5414,,30.4063
482,益州国际广场,益州大道南段588号,104.0554,,30.5275
483,花样年·福年广场,高新区天府三街吉泰路666号,104.0648,,30.5477
484,懿润百货,新中路77号,104.1611,,30.8249
485,晶融汇,东大街99号,104.0817,,30.6518
486,莱蒙都会,二环路南四段51号,104.0341,,30.6319
487,建设路第五大道,建设路26号,104.1025,,30.6693
488,茂业天地,东御街19号,104.0702,,30.657
489,泛悦mall,长荣路66号,104.0788,,30.6127
490,中环广场,顺城街8号,104.0717,,30.6563
491,仁和春天百货,二环路西二段19号,104.0205,,30.663
492,春熙village,东大街上东大街段111号,104.0728,,30.6556
493,世茂大厦,猛追湾横街99号,104.0945,,30.6702
494,华宇广场,上沙河铺街789号,104.1216,,30.6235
495,万达广场,东升街道星空路二段399号,103.9268,,30.5962
496,未来中心,东风路26号,104.0954,,30.6509
497,万达广场,永安路与创业北街交叉口旁,104.27,,30.5663
498,乐天百货,天府大道北段1700号新世纪环球中心-1层到4层,104.0649,,30.5681
499,中国铁建广场,十里店路31号,104.1431,,30.6801
500,新天泽国际广场,松青路1099号,106.4805,,29.4748
501,万达广场,经纬大道,106.4752,,29.5435
502,重百商场,小龙坎新街77号,106.4632,,29.5581
503,重庆星光68广场,洋河一路68号,106.5314,,29.5783
504,解放碑英利大融城,解放碑民权路26号八一广场对面,106.5751,,29.5563
505,融汇泉里小镇,梨树湾汇泉路1号,106.4399,,29.5434
506,大融汇商城,新华路88号,106.5854,,29.5618
507,CITY城市广场,南坪惠工路13号,106.5645,,29.5254
508,新世界百货,观音桥步行街6号,106.533,,29.574
509,重庆砂之船奥特莱斯,奥特莱斯路1号,106.5651,,29.6303
510,街头艺术广场,新华路玉兔北30米,106.5755,,29.5534
511,泽科星泽汇,群慧路7号,106.592,,29.5843
512,茂业天地,建新北路16号,106.5312,,29.5774
513,龙湖西城天街,杨家坪步行街珠江路48号,106.5175,,29.5108
514,凯德广场,西郊三村2号,106.5123,,29.5004
515,鎏嘉码头,北滨路一号,106.5603,,29.5705
516,N37·月光之城,金开大道1218号,106.5614,,29.6654
517,解放碑商业大厦,八一路168号,106.577,,29.5561
518,大洋百货,西郊路3号,106.5147,,29.5078
519,远东百货,北城天街6号北城天街购物广场4层,106.5338,,29.5783
520,新光天地,龙溪街道红锦大道89号,106.5217,,29.5947
521,协信星光广场,五一路大都会旁,106.5808,,29.5585
522,重庆时代广场,邹容路100号,106.5772,,29.5581
523,新世纪百货奥特莱斯,建新北路一支路3号附2-3号,106.5348,,29.5754
524,弹子石万象汇,腾龙大道洋人街转盘西行200米路北,106.5997,,29.6018
525,凯德广场,小新街29号,106.4629,,29.5568
526,万达广场,江南大道8号星光时代广场对面,106.5691,,29.5259
527,新世纪百货,石油路174号,106.5127,,29.5378
528,协信星光时代广场,江南大道28号,106.5714,,29.5226
529,八一广场,八一路238号,106.5766,,29.555
530,CIC天和里购物中心,观音桥步行街10号新上海商业广场旁边,106.5343,,29.5741
531,商社汇巴南购物中心,新市街80号,106.5242,,29.3837
532,融恒·盈嘉中心,观音桥步行街2号,106.5337,,29.573
533,龙湖重庆U城天街,大学城北路97号,106.2935,,29.606
534,爱琴海购物公园,金开大道1003号,106.5483,,29.641
535,龙湖重庆时代天街,长江二路174号,106.5119,,29.5356
536,万达百货,南城大道8号万达广场1-4层,106.5689,,29.526
537,永辉广场,盘溪路教科院华渝实验学校对面,106.4801,,29.5896
538,重庆IFS,江北嘴庆云路一号,106.5735,,29.5763
539,财信广场,江北嘴金沙门路56号,106.5716,,29.5715
540,东原1891,南滨路80号,106.5888,,29.545
541,王府井百货,沙坪坝小新街49号,106.4641,,29.5569
542,仁安N+,新溉大道881号,106.5585,,29.5993
543,大坪英利大融城,大坪正街19号,106.5164,,29.5398
544,金辉铜元道,南滨路12-18号,106.5426,,29.5372
545,炫地购物中心,天陈路1号,106.46,,29.5573
546,江北大融城,建新北路8号,106.5324,,29.5753
547,万达广场,北滨大道二段998号,108.3842,,30.8112
548,星天广场,观音桥东环路59号附2号,106.5339,,29.5766
549,英利国际金融中心,民权路26号英利·大融城1层底商,106.5751,,29.5563
550,重庆天地,化龙桥瑞天路156号,106.5096,,29.5533
551,棕榈MALL,万年路,106.5422,,29.6371
552,万象城,谢家湾街道谢家湾正街51号,106.518,,29.5166
553,万达广场,冯时行路与安礼路交叉口东南侧,106.3901,,29.7977
554,熙街,景苑路8号,106.3036,,29.6055
555,万达广场,龙洲大道5号,106.5442,,29.3985
556,大都会东方广场,邹容路68号,106.5793,,29.5577
557,亿象城,南坪商圈南坪广场UG亿象城数码商业街,106.5676,,29.5284
558,悦地购物中心,通江大道186号,106.6427,,29.4889
559,时代天街D馆,长江二路121号,106.5133,,29.5339
560,时代天街C馆,时代大道龙湖时代天街内,106.5119,,29.5363
561,鲤鱼池42号艺术公园商业,观音桥街道鲤鱼池路鲤鱼池三村42号,106.5454,,29.5786
562,新世纪百货,青年路18号解放碑步行街,106.5756,,29.5575
563,龙湖北城天街,洋河路6，8，10号,106.5334,,29.5779
564,华宇广场,渝碚路15号,106.4623,,29.5555
565,WFC环球购物中心,民族路188号,106.5778,,29.5591
566,新光里,嘉州路92号,106.5206,,29.5947
567,新世纪百货·凯瑞商都,双巷子街6号煌华·新纪元购物广场1-5层,106.4618,,29.5582
568,重百大楼,民权路2号,106.5763,,29.5572
569,龙湖源著天街,福康路25号,106.4891,,29.5995
570,印象汇,小龙坎新街029号华宇广场1号,106.463,,29.5566
571,新世纪百货世纪新都店,观音桥步行街9号苏宁电器南行100米,106.5322,,29.573
572,爱融荟城,龙山一路冉家坝地铁站2号/3号出口,106.4996,,29.6003
573,洪崖洞商业街,嘉陵江滨江路88号洪崖洞风景区,106.579,,29.5622
574,新世纪百货,南坪街道南坪北路8号,106.5656,,29.5302
575,PARK108国泰优活城市广场,五四路国泰艺术中心前面,106.5761,,29.5585
576,重庆财富购物中心,洪湖东路1号,106.5087,,29.6087
577,长嘉汇购物公园,南滨路泰昌路69号,106.5878,,29.5805
578,SM广场,松石大道148号,106.495,,29.5829
579,水木天地都会广场,双湖路1号,106.6176,,29.6959
580,N37品质生活中心,黄山大道中段6号星汇两江艺术商业中心6区6楼,106.504,,29.6175
581,金港国际,滨港路49号,106.6327,,29.7167
582,动力国际购物广场,泰山大道东段62号,106.5535,,29.6033
583,协信星光天地,经纬大道776号,106.5015,,29.5455
584,金科美邻汇,斑竹路与红竹路交叉口东南150米,106.4754,,29.6221
585,恒大中渝广场,新溉大道与红锦大道交口东南角,106.5218,,29.5982
586,圣名世贸城,两港大道与银梭大道交叉口南200米,106.6228,,29.6568
587,不夜九街,北城天街桃花园小区B区底商,106.5434,,29.5797
588,天琴座,北部新区黄山大道中段6号5、6区N37天琴座,106.5039,,29.6174
589,远东百货,解放碑邹容路68号,106.5787,,29.5576
590,KLand小时代梦想艺术乐园,袁家岗奥体路1号,106.5115,,29.5285
591,中新城上城,奥体路1号,106.5114,,29.5288
592,石桥Style广场,渝州路59号,106.4914,,29.5347
593,万汇中心,北城天街38号,106.5417,,29.5795
594,协信星光天地,金开大道70号,106.5327,,29.628
595,金源时代购物广场,北滨一路368号,106.525,,29.5571
596,沙磁巷,沙滨路,106.4548,,29.5804
597,龙湖星悦荟,北滨一路258号,106.5477,,29.5697
598,蘭亭新都汇,兴科大道331号,106.6016,,29.689
599,东原悦荟新新Park,大石坝红石路37号,106.4971,,29.571
600,金月湾广场,世博北路与东源路交叉口北150米,113.7821,,23.031
601,万达广场,东纵路208号,113.7807,,23.035
602,万达广场,体育路8号,113.6728,,22.9423
603,天河城百货,东莞大道第一国际财富中心七区1、2楼,113.7559,,23.0096
604,第一国际,南城图书馆行政中心国际会展中心对面鸿福东路,113.755,,23.0087
605,汇一城,鸿福路200号第一国际附近,113.7547,,23.0068
606,嘉荣SPAR购物广场,东升路229号星河城2层嘉荣超市,113.7915,,23.0217
607,民盈·国贸城,东城街道火炼树社区鸿福东路1号,113.7629,,23.0124
608,万达广场,虎门镇连升北路388号,113.6835,,22.8341
609,星河城,东晟路229号,113.7905,,23.0221
610,万科城市广场,旗峰路与东城西路交叉口东侧,113.7656,,23.0244
611,君尚百货,东纵大道111号愉景威尼斯广场内,113.7726,,23.0386
612,万科广场,长青南路1号,113.8001,,22.8008
613,天虹,虎门镇金洲社区地标广场天虹1楼,113.6874,,22.8093
614,南城印象汇,鸿福路90号,113.745,,23.0149
615,家汇生活广场,万江大道与银龙路交汇处,113.7164,,23.0347
616,汇勝城,莞太路与三元路交汇处,113.7395,,23.0104
617,汉邦66广场,兴隆路66号,113.6635,,22.9327
618,海雅百货,东城路283号世博广场A区,113.7768,,23.0317
619,蜂汇广场,宏二路与宏图路交叉口,113.7215,,22.9825
620,世博广场,东城路283号,113.778,,23.032
621,万润广场,香市路,113.8694,,22.9979
622,百花时代广场,常平镇市场路1号,113.9947,,22.9746
623,海雅百货,鸿福西路曼哈顿时代83号,113.7416,,23.0173
624,华阳湖创客坊,古梅北路古梅体育馆对面,113.5745,,23.0581
625,万科生活广场,迎宾大道1号,114.0794,,22.8097
626,莱蒙商业中心,鸿福路88号,113.7443,,23.0154
627,喜悦里购物广场,茶山镇茶兴中路与吉祥北路交汇处东北侧,113.8799,,23.0707
628,AEON永旺,朗东路与常朗路交叉口,113.9476,,22.9544
629,万科生活广场,科技产业园区新竹路7号,113.8931,,22.9306
630,天虹,德政中路222号,113.8048,,22.8132
631,汇星商业中心,裕兴路聚龙湾城建办公楼三楼,113.8698,,23.1079
632,地王广场,长青路303号,113.8005,,22.812
633,万达广场,东门中路1号,113.8214,,22.8089
634,常平供销社购物城,东兴路168号,113.9986,,22.9771
635,嘉荣SPAR购物广场,温塘学前路新世纪星城广场一二层,113.8007,,23.0383
636,益田假日天地,凤岗镇龙平南路1号,114.2076,,22.7192
637,华南MALL,万江路3号,113.7262,,23.035
638,艺展98休闲广场,众利路与艺展路交叉口东100米,113.7251,,22.9901
639,领尚天地,大岭山镇玉屏路11号,113.8284,,22.9067
640,嘉荣SPAR购物广场,汀山经济合作社商贸广场百悦商业中心二楼,113.7058,,22.931
641,明丰广场,康乐南路23号,113.6626,,22.9274
642,天虹,常平大道南埔路口,113.999,,22.9683
643,KKv,东莞大道火炼树民盈·国贸中心一楼,113.7619,,23.0123
644,黄河百货,雁田镇田南路,114.172,,22.6926
645,濠丰百货广场,溪头西路与下村六巷交叉口,113.6552,,22.8906
646,新世纪长盛广场,美景中路与长和街交叉口东北50米,113.931,,22.9313
647,嘉荣SPAR购物广场,安泰路与彩虹路交汇处龙珠广场,113.8676,,23.0718
648,万家福购物广场,望牛墩镇望联管理区聚福路文化广播中心3楼,113.6567,,23.0521
649,信华购物中心,长青南路6号,113.8019,,22.8013
650,嘉荣SPAR购物广场,中心北部板湖村环城路与北环路交界处中惠郡庭,114.0148,,22.9222
651,福嘉百货,上江城东路1号,113.7428,,23.0683
652,礼加诚购物广场,常平镇土塘村王氏港建大道,114.0339,,22.9589
653,景湖湾畔商业街商铺,富民步行街东莞南宏远新基管理区沿河路,113.7257,,23.0072
654,嘉荣,吉祥北路宏宇陶瓷旁,113.8783,,23.0692
655,万达百货,东纵路208号,113.7806,,23.0354
656,地王商业城,吉祥路与新兴街交叉口东南100米,114.0724,,22.9053
657,万国购物广场,科技路与丽海路交叉口,113.6333,,22.8461
658,万信佳购物广场,牛山工业园山湖路120号,113.7718,,22.9592
659,嘉荣SPAR购物广场,环市东路1号东港城花园裙楼,114.0993,,22.826
660,南铭购物中心,富康路46-48号,113.9264,,22.9508
661,星光城,莞樟路与环城路交汇处,114.0126,,22.9154
662,喜乐福购物广场,振兴东七路与景福一横路交叉口西50米,113.678,,23.0074
663,新天地,王屋向西路信德堂药房旁,113.6857,,22.8265
664,时代城百货,塘厦镇花园新街1号,114.1026,,22.8095
665,联大家私商场-A馆,莞樟路辅路87号附近,113.813,,23.0296
666,嘉荣SPAR购物广场,中山路383号,113.9647,,23.0219
667,好永百货,虎门镇路长元二路1号铺,113.7108,,22.7694
668,上悦汇,桥头镇桥光大道桥头段165号,114.0983,,23.019
669,悦港汇,塘厦镇环市西路2号,114.0813,,22.8102
670,嘉荣SPAR购物广场,业东兴大道北东浦农贸市场,114.0948,,22.8028
671,大和名店城,美景中路216号,113.9388,,22.935
672,东港城商业中心,中堂镇新兴路,113.6627,,23.0959
673,万和百货,振兴南路78号,113.723,,23.0754
674,家丰时装购物广场,长安镇沙头南区猫山北路50号,113.7598,,22.7757
675,彩怡百货,宏伟路1号,113.7541,,22.9953
676,嘉荣SPAR购物广场,堂镇中麻路中新商贸广场后面,113.6509,,23.0891
677,中孚商业中心,绿色路28号,113.7474,,22.9778
678,南博商业中心,樟木头镇樟木头南博商务写字楼,114.0772,,22.9036
679,星汇置地广场商铺,常平大道与东征路交汇处,114.0125,,22.981
680,嘉荣购物广场,万江区万福路都会广场C座首层,113.7353,,23.0486
681,君汇时代广场,会展东路与家具大道交叉口东200米,113.6624,,22.9025
682,雅园综合市场,南城区雅园村,113.7579,,22.9731
683,新高购物广场,永盛大街51号,114.1388,,22.7432
684,现代广场,绿化中路2号,113.8542,,23.1097
685,新世纪颐龙湾,新区大道与颐龙东路交叉口西北200米,113.7566,,23.0864
686,卡布斯国际广场商铺,东莞大道东侧百安居对面,113.7565,,23.0051
687,黄河百货,商业大街昌盛路与永昌路交口近永盛大街,114.1398,,22.7461
688,嘉荣SPAR购物广场,美景大道新市场二楼,113.9387,,22.9347
689,地王广场,东纵大道8号,113.7643,,23.0386
690,百家乐购物广场,虎门镇白沙五村创兴路与白沙连升北路,113.6703,,22.8494
691,华城百货,嘉宾路,113.9756,,22.8332
692,东港城商业中心,沙田大道粤港花园西南,113.6189,,22.9054
693,嘉荣SPAR购物广场,长泰路东泰花园泰和商业街109号,113.7651,,23.001
694,大和百货,桥光大道162号,114.0973,,23.019
695,悦华百货,人民中路10号,113.6758,,22.826
696,名汇城,新芬路34号东北,113.7556,,23.0402
697,天和百货,永宁路1号樟罗商业城,114.0672,,22.9049
698,虎门国际购物中心,连升中路11号,113.6841,,22.8141
699,嘉怀百货,虎门镇怀德路大坑村5号,113.7279,,22.8317
700,凯德广场云尚,云城西路890号,113.2694,,23.181
701,保利时光里,建设大马路18号,113.2819,,23.1369
702,K11购物艺术中心,珠江东路6号,113.3264,,23.1181
703,ifc国金天地,珠江西路5号广州国际金融中心,113.323,,23.1185
704,天环广场,天河路218号,113.3247,,23.1323
705,高德置地广场,珠江新城花城大道85号,113.3218,,23.1203
706,百信广场,机场路1399号,113.2618,,23.1946
707,正佳广场,天河路228号,113.327,,23.1322
708,基盛万科中央公园,兴泰路296号,113.3871,,22.9318
709,万菱汇,天河路230-232号,113.329,,23.1327
710,永旺梦乐城,沙凤三路1号金沙洲商业中心,113.1946,,23.1499
711,花城汇,珠江东路30号花城广场,113.3242,,23.1205
712,花城汇,黄埔大道西74号,113.3247,,23.1264
713,天河城百货,天河路208号天河城2-7层,113.3231,,23.1323
714,时尚天河商业广场,天河路299号,113.3252,,23.134
715,骏壹万邦广场,曙光大道81号,113.2267,,23.4059
716,侨鑫国际商场,华夏路与华明路交口东北角,113.3218,,23.1226
717,同和金铂天地,广州大道北同和大街1号,113.3257,,23.1964
718,东方宝泰购物广场,林和中路63号,113.3247,,23.1476
719,天汇广场igc,兴民路222号,113.3318,,23.1158
720,粤海仰忠汇,北京路168号,113.2701,,23.1196
721,奥园广场,桥南街福德路281号,113.3583,,22.9242
722,友谊商店,环市东路369号,113.2874,,23.1376
723,广州天河城购物中心,天河路208号,113.3226,,23.1324
724,天河城百货,中山大道中437号天银商贸大厦,113.4047,,23.122
725,友谊商店,珠江西路5号,113.3227,,23.1189
726,5号停机坪购物广场,云霄路353栋旧白云机场候机楼内,113.2654,,23.1808
727,广州来又来时尚购物广场,新华龙珠路39号,113.2321,,23.3982
728,Hi百货,天河路228号正佳广场4层,113.3271,,23.1321
729,丽柏广场,环市东路367号,113.2865,,23.1376
730,太古汇,天河路383号,113.3326,,23.134
731,祈福缤纷世界,福怡路38号,113.3324,,22.9696
732,太阳新天地购物中心,马场路36号,113.3441,,23.1237
733,广百百货,北京路295号,113.2684,,23.1234
734,万国奥特莱斯,前进路40号,113.2733,,23.102
735,GOGO新天地,大学城中大东一路与贝岗村大街交叉口东北角,113.3919,,23.0622
736,江燕路·万科里,江燕路99号,113.2793,,23.0824
737,丽影广场,新港中路352号,113.3202,,23.0958
738,中华广场,中山三路33号,113.2831,,23.1256
739,亚运城广场,石楼镇康体路43号,113.4767,,22.9419
740,漫广场,中山大道中1242号,113.4249,,23.1125
741,奥园城市天地,汉溪路163号,113.3337,,22.9924
742,天娱广场,天河路621-625号,113.34,,23.1357
743,万达广场,双山大道3号,113.5324,,22.7946
744,广州融创茂广场,平步大道与凤凰北路交叉口,113.2331,,23.4253
745,高德置地冬广场,珠江东路11号,113.327,,23.12
746,万达广场,增城大道69号,113.8154,,23.276
747,白云汇广场,黄石东路88号,113.2691,,23.2027
748,荔胜广百广场,花地大道中66号,113.2329,,23.0786
749,嘉裕太阳城广场,广州大道北1811号,113.3268,,23.1875
750,尚品天河,石牌西路1-7号,113.3381,,23.1333
751,五月花商业广场,中山五路68号,113.2668,,23.1259
752,时尚天河店,天河路299号时尚天河商业广场B2层,113.3252,,23.134
753,海印又一城,番禺大道北383号,113.3492,,22.9986
754,广百百货,天河路200号,113.3211,,23.1331
755,万胜广场,新港东路1236号,113.3828,,23.0972
756,文立方,二沙岛晴波路9号,113.3022,,23.1079
757,佳兆业广场,体育西路191号,113.3209,,23.1403
758,西城都荟,黄沙大道8号,113.2402,,23.11
759,保利时光汇·克洛维,华强路9号,113.3198,,23.1264
760,安华汇,白云大道北756号,113.296,,23.2169
761,六元素·体验天地,新港东路1088号,113.3725,,23.0964
762,钻汇广场,富华西路2号,113.3626,,22.9478
763,新塘万达广场,新塘镇章陂工业大道西侧,113.6174,,23.1522
764,中信广场,天河北路233号,113.3248,,23.1421
765,天河又一城,体育西路54号南段,113.3221,,23.1335
766,江南新地,江南西路46号,113.2709,,23.095
767,动漫星城广场,中山五路吉祥路1号,113.2651,,23.1257
768,永旺梦乐城,亚运大道1号,113.3881,,22.9371
769,天河城百货,迎宾路万博中心内,113.3419,,23.0088
770,永旺,凤妍苑二街1号,113.5767,,23.1253
771,东山百货,花地大道北200号,113.2332,,23.0912
772,摩登百货,天河路611号,113.3391,,23.1355
773,天河城百货,奥体南路12号优托邦1层,113.4161,,23.1296
774,VT101维多利广场,体育西路101号,113.3211,,23.1348
775,新大新,中山五路4号,113.2686,,23.1257
776,万象购物街,地铁一号线芳村站D出口,113.2354,,23.0964
777,友谊商店,天河路228号正佳广场1层到4层,113.3276,,23.1318
778,缤纷天地,云城西路880号,113.2688,,23.1802
779,广百百货,龙珠路41号广百新一城,113.2329,,23.3983
780,新光百货,东晓南路1290号新光百货1楼C09室铺,113.2924,,23.0725
781,东山百货大楼,署前路3号,113.2947,,23.1225
782,广百黄金珠宝大厦,中山四路395号广百黄金珠宝大厦1层,113.2693,,23.1253
783,上下九广场,下九路92号,113.2483,,23.1147
784,荔园新天地,西环路1500-1520号,113.3456,,22.9196
785,芳村万象,荣兴路与花地大道北交叉口,113.2358,,23.0976
786,珠影星光城,新港中路354号,113.3214,,23.0946
787,东方文德广场,文德北路68号,113.272,,23.1233
788,保利广场,新港东路10号保利广场,113.3836,,23.0987
789,高志大厦,黄埔大道西120号,113.3398,,23.1257
790,广百百货,广州大道北1419号佳润广场1-3层,113.3208,,23.1813
791,新大新,市桥街繁华路易发商业中心1-4层及东宝商业楼1-4层,113.3629,,22.941
792,聚味珠江道美食广场,珠江新城猎德大道30号,113.3343,,23.1201
793,万达广场,云城东路501号,113.2669,,23.1725
794,流花展贸中心,流花路117号,113.2585,,23.1411
795,惠润广场,丰乐南路446号黄埔花园旁,113.4564,,23.1006
796,富力海珠城ICON,江南大道中180号,113.2739,,23.0954
797,天河城百货,北京路一街238号,113.2702,,23.1226
798,白云绿地中心,云城西路与齐心路交叉口,113.2693,,23.1808
799,万菱广场,解放南路39号,113.2625,,23.1146
800,海珠新都荟广场,东晓南路1290号,113.2926,,23.0724
801,优托邦,科学大道195号,113.4519,,23.1694
802,雄峰城,钟村街锦绣生态园西侧,113.3045,,22.9711
803,万达广场,兴南大道320号,113.3492,,23.007
804,乐峰广场,都会路7号,113.259,,23.0888
805,天河万科广场,华观路1932号,113.4045,,23.1669
806,云门 NEW PARK,百顺北路1号,113.2924,,23.2357
807,诺德天街,万博商业区汉溪大道万达广场北100米,113.3523,,23.0099
808,富邦中心,中山七路51号,113.2527,,23.1251
809,广百百货,机场路1399号,113.2621,,23.1939
810,五羊新城广场,寺右新马路111-115号,113.313,,23.1203
811,润汇大厦,江南西路66号,113.2698,,23.0947
812,名店城,江南西路海洋石油大厦附近,113.2734,,23.0963
813,圣地新天地广场,南岸路45号,113.2294,,23.1326
814,四季天地,赤岗北路118号,113.3277,,23.1003
815,海港城购物中心,沿江东路418号,113.2827,,23.1138
816,东晓胜汇里,南洲北路5号,113.2952,,23.0717
817,光明广场,西湖路63号,113.2674,,23.1221
818,地王广场,较场西路26号,113.2836,,23.1256
819,广百新一城,宝岗大道498号,113.2663,,23.0935
820,保利大都汇,汉溪路163号,113.335,,22.9949
821,万达广场,科丰路89号,113.4666,,23.1686
822,恒宝广场,宝华路133号,113.2414,,23.1175
823,国茶荟,新港东路1066号负一层、首层至三层,113.3694,,23.0979
824,合生广场,广州大道南与叠景路交汇处,113.3139,,23.086
825,同乐汇,江南大道中99号,113.2715,,23.1041
826,优托邦,奥体南路12号四期,113.4152,,23.1302
827,龙洞美食广场,龙洞牌坊入来10米(金牛旁)大食袋自助火锅二楼,113.3662,,23.1941
828,捷登都会,中山五路70号,113.2658,,23.126
829,岭南购物城,健康路21号,113.317,,23.0384
830,曜一城,天河北路721号,113.343,,23.142
831,燕汇广场,江燕路108号,113.2776,,23.0822
832,星座广场,中山大道中284号,113.4039,,23.1211
833,萝岗奥园广场,开创大道与香雪八路交汇处,113.4979,,23.1738
834,龙归金铂广场,龙岗路1号龙归,113.2941,,23.2675
835,广纸天地荟,工业大道广纸路40号,113.2684,,23.0741
836,王府井百货,农林下路40号王府井百货内,113.2984,,23.1296
837,海珠·合生生活天地,昌岗中路188号,113.2753,,23.0887
838,时代广场,天河北路28号,113.3172,,23.1404
839,龙洞商业广场,环村南街1号,113.3672,,23.1933
840,东汇城,荔城街府佑路98号,113.8196,,23.2846
841,佳润广场,广州大道北1419号,113.3205,,23.1814
842,摩登百货,大沙地黄埔东路1-9号,113.4493,,23.1011
843,西门口广场,中山七路50号,113.2529,,23.1269
844,万达百货,云城东路501号万达广场B1-4层,113.2672,,23.1729
845,梅花园广场,广州大道北28号,113.3211,,23.1786
846,百福广场,体育东路112号,113.329,,23.1353
847,寰城海航广场,天河北路365号,113.3286,,23.1421
848,中天购物城,天河北路233号,113.3247,,23.1422
849,纵横广场,新港中路456号,113.3306,,23.0959
850,金海岸城市广场,港口大道北与汇太西路交叉口旁,113.6027,,23.127
851,永福购物广场,106国道旁,113.2722,,23.2306
852,广州友谊OUTLETS购物中心,天河北路28号时代广场1-5层,113.3172,,23.1403
853,夏茅商业广场,石夏路自编8号,113.255,,23.2213
854,中旅商业城,中山五路217-255号,113.263,,23.125
855,永泰站生活广场,同泰路118号,113.3052,,23.2199
856,闲鱼创客美食港,天河路518号,113.3369,,23.1335
857,金佰利广场,文明路63号,113.2709,,23.1224
858,时代TIT广场,东圃大马路8号,113.4009,,23.1198
859,新光百货,康王中路666号新光城市广场内,113.2478,,23.1244
860,喜悦天地,光明北路223号,113.3613,,22.9478
861,奥园广场购物中心,福德路281号奥园广场4层403号商铺,113.3573,,22.9243
862,福乐多百货,黄村东路29号,113.4156,,23.122
863,天河城尚品荟,北京路粤海仰忠汇B1楼,113.27,,23.1196
864,摩登百货,广州大道北1420号,113.3222,,23.1815
865,番禺友谊商店,市桥繁华路38号，62号,113.3633,,22.9422
866,广百百货,农林下路37号,113.2971,,23.1292
867,城投地产花城·金沙汇,金沙洲路110号,113.206,,23.1579
868,海印缤纷广场,起义路1号,113.2649,,23.1154
869,新港商业城,新港中路304号,113.3257,,23.0955
870,中鼎名汇,丰乐北路与沙边东街交叉口东南150米,113.454,,23.1069
871,丰兴广场,天河路242号,113.3333,,23.1327
872,人人佳购物城,南华路国美电器旁,113.3891,,23.005
873,祈福缤纷乐园,市广路8号祈福缤纷世界内,113.3356,,22.9712
874,新光城市广场,康王中路600号,113.2479,,23.1245
875,合生骏景广场,天河中山大道190号,113.3821,,23.1249
876,富丽城购物广场,105国道大石路段257-259号,113.3111,,23.0262
877,兴发广场,石榴桥路109号东梯801兴发广场边上,113.2638,,23.1642
878,东风广场,越秀东风东路787号,113.3101,,23.1331
879,恒泰汇,太营路286号,113.3454,,23.2962
880,蓝天商场,江南大道中254-270号,113.2757,,23.0926
881,广州大学商业中心,大学城中环西路230号广大商业中心内,113.3731,,23.0415
882,花城汇中区,花城大道89号高德置地广场·秋,113.3242,,23.1206
883,广州科学城商业广场,高新技术开发区科学大道181号,113.4509,,23.168
884,中华百货,中山三路33号中华广场,113.2826,,23.1257
885,乐嘉商业广场,乐嘉路106号,113.2552,,23.1679
886,海印都荟城,冼村街道花城广场珠江东路30号东花城汇南区B1层,113.3244,,23.1174
887,和业广场,康王中路486号,113.2476,,23.1221
888,东圃购物中心,东圃大马路1号,113.4029,,23.1208
889,105新地广场,大石街105国道大石段474-480号,113.312,,23.0209
890,滨江宏岸,怡趣街与滨江东路交叉口西北50米,113.2935,,23.1036
891,中环广场北区,建设中马路2-4,113.2819,,23.1373
892,金港湾购物广场,城区大道283号,113.4062,,22.9373
893,万达百货,增城大道69号万达百货3楼办公区,113.8154,,23.2765
894,合生广场-北区,广州大道南249号,113.3141,,23.0858
895,嘉仕百货商场,滨江东路嘉仕花园2楼,113.2958,,23.1026
896,丽莎广场,金狮大道东与阳光南路交叉口东南100米,113.167,,23.4658
897,今洲新天地,进港大道与金沙路交叉口,113.5454,,22.8012
898,潮流站,体育东路39-45号潮流站底商负1到3楼,113.3278,,23.1306
899,天河新天地,天源路米兰公寓斜对面,113.3435,,23.1767
900,海荟城,黄沙大道粤南大街26号1-4层,113.2289,,23.1231
901,新大新,先烈中路63号东山广场裙楼1-4层,113.2937,,23.136
902,五山广场,岳洲路19、21号,113.3527,,23.1524
903,天鸿百货,王园路与黄村路交叉口北50米,113.4099,,23.1247
904,致业商城,黄埔东路2791号,113.5163,,23.0828
905,花地城广场,花地大道北93-103号,113.2343,,23.0933
906,东方汇,下九路59-60号,113.2479,,23.1142
907,永喜百货,赤沙路30号,113.3568,,23.0865
908,石井城市广场,石槎路3号,113.243,,23.2063
909,钟福广场,钟屏岔道45号,113.3229,,22.969
910,雄洲同和广场,同园中路与广州大道北交叉口南50米,113.3257,,23.1983
911,海印自由闲名店城,中山三路11号,113.2858,,23.1262
912,吉盛商贸城,荷光路43号,113.3729,,23.1319
913,万和购物广场,嘉禾街嘉禾文化广场,113.2747,,23.2316
914,嘉禾广场,风光路291号,113.6137,,23.2852
915,富山商业广场,富山北路与大涌路交叉口北行50米路东,113.3268,,23.0251
916,东方商场,流花路120号东方宾馆内,113.2592,,23.1403
917,金城广场,秀全大道31号,113.2087,,23.3781
918,汇太广场,港口大道北332号,113.6013,,23.1275
919,阳光都会广场,新陶北街与石牌东路交叉口南150米,113.3434,,23.129
920,大西购物广场,大西路22号,113.3645,,22.9364
921,富力广场,中山八路20号,113.2392,,23.1243
922,金骊城,永泰新村永康路1号,113.3035,,23.2216
923,利足国际商贸城,环市西广园西路新濠畔万豪鞋材广场,113.249,,23.1494
924,TIT润政广场,江燕路37号,113.2789,,23.0836
925,丽日广场,江南大道中185号,113.2735,,23.0978
926,集耀广场,297县道正新鸡排旁,113.3781,,22.9636
927,时代商厦,迎宾路221号,113.3326,,23.0229
928,达森广场,大岗镇兴业路31号,113.4061,,22.8024
929,骏唐广场,中山大道西777号棠下丰乐路,113.3835,,23.126
930,天虹广场,人和镇鹤龙六路189号,113.295,,23.3357
931,左文右艺心街区,汉兴中路保利大都汇C1栋113号铺,113.335,,22.9937
932,奥园城市广场,如意路以东,113.3066,,23.0415
933,天河新天地,元岗路18-自编5号,113.3438,,23.1719
934,236广场,天河路236号,113.3321,,23.1329
935,合汇·中央广场,府佑路与荔景大道交汇处,113.8192,,23.2826
936,洋光商贸广场,翠城花园翠宝路168号,113.2697,,23.0836
937,优托邦,珠江新城花城大道中86号,113.3296,,23.1181
938,越富广场,人民北路833-835号,113.2546,,23.1299
939,阳光城市广场,大岗镇兴业路118号,113.4007,,22.7952
940,乐都汇购物广场,中山大道中1116号,113.4203,,23.1161
941,汇坊,天河东路75号,113.3334,,23.1353
942,喜来时代广场,太和镇106国道旁边,113.2942,,23.2665
943,万民百货,鸦岗大道自编2号,113.1987,,23.2314
944,人山人海商业广场,龙珠路32号,113.2313,,23.3971
945,金浚海广场,岗贝路3-3号,113.252,,23.18
946,盛悦广场,逢源路151号,113.2387,,23.1205
947,正佳购物中心,环市东路370-372号正佳东方国际广场,113.2877,,23.1356
948,悦尚城,中山四路199号悦尚城,113.2736,,23.1261
949,天河购物中心,中山大道西8号天河商贸大厦,113.3434,,23.1356
950,万和百货,河东北路1号附近,113.5958,,23.5448
951,家信商业中心,工业大道北88号,113.2578,,23.091
952,庆丰商业广场,石沙路181~183号,113.2286,,23.212
953,飞晟文汇广场,科学城开创大道荔红二路18号,113.5045,,23.1708
954,龙骏广场,增槎路1068号,113.2269,,23.1776
955,百脑汇,天河路598号,113.3395,,23.1341
956,东方宜安广场,建设六马路33号宜安广场1C100号铺,113.2848,,23.1344
957,新天地广场,蟹岗北路6号,113.3267,,23.1933
958,江南西人商场,江南西路26号,113.2723,,23.0956
959,车陂文化广场,东圃大马路2号,113.4022,,23.1203
960,创荣时代广场,榕环南路与春晖四街交叉口,113.5459,,23.1094
961,都得利广场,河沙桥中北路2-4号,113.2198,,23.1347
962,东福百货广场,狮岭大道中1号,113.1806,,23.4525
963,淘商城,桥南路南新大街2号,113.3668,,22.9311
964,汇锦新天地,松南路1号,113.2219,,23.1494
965,东平时代都荟广场,东平中路5号,113.3094,,23.2481
966,华汇国际广场,珠电路4号,113.5558,,22.7996
967,可逸倾城,宝岗大道396号,113.2645,,23.0967
968,华苑商业广场,花地大道北25-6号,113.2352,,23.0961
969,华通广场,鹤龙六路187号,113.2958,,23.3342
970,星力壹号购物广场,繁华路2号,113.3658,,22.9415
971,广氮商业广场,车陂北街29号,113.3969,,23.1272
972,粤信广场观景楼,石榴岗路2号,113.3326,,23.0951
973,新新商场,西滘南大街8号附近,113.3051,,23.0673
974,保利天悦·叁悦广场,宸悦路9号,113.385,,23.1022
975,星汇广场,嘉禾街鹤鳌公路501号星汇广场3楼,113.2731,,23.2291
976,名盛广场,北京路一街238号天河城百货内,113.2702,,23.1225
977,摩登百货,新华街建设北路72号星光汇广场,113.2045,,23.3862
978,百汇广场,中山五路193-215号,113.2638,,23.1251
979,新地购物广场,洛溪新城如意三马路193号,113.3018,,23.0429
980,骐利广场,西槎路99号,113.2349,,23.1558
981,世贸新天地,环市东路371-375号,113.2875,,23.1367
982,城投·保利金沙大都会,沙凤一路与环洲二路交叉口东北角,113.2103,,23.1506
983,摩登百货,江南大道中219号,113.2757,,23.0943
984,流行前线,中山三路25-27号流行前线内,113.2836,,23.1266
985,大壮国际广场,开创大道与科丰路交汇处以南45米处,113.4688,,23.1642
986,时代城,荔联街宏明路263号,113.5434,,23.1117
987,广贸时代广场,白云大道北86号,113.2886,,23.203
988,骏和广场,桥街捷进二路1号,113.3602,,22.9505
989,康王商业城,中山七路282-304号,113.2471,,23.1262
990,石井国际广场,石沙路86号,113.2335,,23.2105
991,潮楼,北京路182号,113.2695,,23.1208
992,友谊购物广场,竹料镇新胜南街14号,113.3551,,23.3661
993,黄埔·潮楼名店城,大沙地西路311号,113.4466,,23.1039
994,优托邦,长湴村长兴路13号,113.3478,,23.1705
995,欣荣宏,从城大道111号,113.5908,,23.5321
996,太和购物中心,太和中路134号,113.3563,,23.293
997,盈熙广场,江南大道南689-709号,113.2874,,23.0735
998,百德商业广场,西槎路111号,113.2348,,23.1565
999,柏德来商业城,康王北路903号柏德来商业城香港街2区2233铺,113.2471,,23.1263
1000,万象汇,金城路927号,120.2688,,30.1816
1001,欧美中心商业街,西湖街道教工路18号,120.1373,,30.2738
1002,银泰百货,海达南路与下沙路交叉口西南角,120.3256,,30.2989
1003,银泰百货,延安路98号,120.1655,,30.2436
1004,龙湖杭州滨江天街,江南大道与江汉路交叉口,120.2048,,30.201
1005,银泰百货,西湖文化广场18号,120.163,,30.2776
1006,天阳D32时尚购物街区,小河路306号,120.1373,,30.3148
1007,星光国际广场,江南大道228号,120.2086,,30.2082
1008,千岛湖广场,新安南路2-58号,119.0523,,29.6023
1009,西湖天地,南山路147号,120.16,,30.2472
1010,西溪银泰城,余杭塘路与弘德路交叉口东北角,120.0748,,30.293
1011,龙湖杭州金沙天街,金沙大道560号金沙湖地铁站A出口,120.3272,,30.3102
1012,宝龙城,滨盛路3867号,120.1674,,30.1878
1013,恒隆广场,山阴路688号,120.2621,,30.1781
1014,旺角城新天地,彩虹大道顺发旺角底商,120.2653,,30.1694
1015,平安金融中心悦坊商场,民心路280号,120.2127,,30.2513
1016,印象城,五常大道1号,120.0505,,30.2479
1017,永旺梦乐城,古墩路1888号,120.0583,,30.3606
1018,银泰百货,景昙路18-26号,120.2052,,30.2601
1019,西田城购物中心,金家渡路8号,120.0948,,30.3407
1020,水晶城购物中心,上塘路458号,120.1518,,30.3044
1021,杭州大厦501城市广场,景昙路庆春广场对面,120.2036,,30.2598
1022,世茂缤谷,江南大道4756号,120.1481,,30.1873
1023,城西银泰城,丰潭路380号,120.1076,,30.2995
1024,万象城,富春路701号,120.2156,,30.2517
1025,国大城市广场,延安路609号,120.1625,,30.2696
1026,天虹,新塘路108号,120.2098,,30.2647
1027,地铁东城广场,九沙大道399号,120.2781,,30.3109
1028,来福士,新业路228号,120.2131,,30.2487
1029,皇后公园,武林路277号,120.1602,,30.2651
1030,大悦城,莫干山路与隐秀路交汇处,120.1297,,30.3018
1031,福雷德广场,文泽路99号,120.3471,,30.3167
1032,东站西子国际,环站东路火车东站东广场东200米,120.2178,,30.2966
1033,金地广场,古墩路1333号,120.082,,30.3398
1034,EFC LIVE 欧美广场,杭州市余杭区景兴路896号,120.003,,30.2813
1035,宝龙广场,2号大街与25号大街交叉口东北角,120.3853,,30.3117
1036,工联CC,延安路292号,120.1646,,30.2547
1037,杭州大厦中央商城,环城北路与展览西路交口西南角,120.1614,,30.2724
1038,华元欢乐城,迎宾路和汀城街交叉口西北角,120.3011,,30.3958
1039,银泰城,东新路822号,120.1759,,30.3273
1040,银隆百货,市心中路288号,120.2681,,30.1708
1041,星耀城,江陵路1916号,120.2163,,30.2114
1042,远洋乐堤港,丽水路58号,120.1439,,30.3055
1043,下沙奥特莱斯,启潮路199号,120.3836,,30.3444
1044,余之城生活广场,迎宾路与临东路交界处东南角,120.3044,,30.3944
1045,新天地购物中心,长浜路与新天地街交口,120.1806,,30.3225
1046,亲橙里,常二路阿里巴巴西溪园区,120.03,,30.2817
1047,东方茂,金桥北路1号,119.9329,,30.0485
1048,星光大道商场,星光大道步行街4号楼,120.2087,,30.2085
1049,临平银泰城,南苑街道世纪大道西1号临平银泰城,120.3031,,30.4053
1050,坤和万科·黄龙万科中心,学院路77号,120.1294,,30.2761
1051,嘉里中心,延安路385号,120.1632,,30.26
1052,银泰百货,萍水街丰潭路380号,120.1087,,30.3004
1053,杭州湖滨银泰in77,延安路258号,120.164,,30.2536
1054,银泰百货,延安路530号,120.1641,,30.2688
1055,杭州大厦购物城,环城北路47号武林广场21号,120.1612,,30.2728
1056,和平广场,下绍兴路158号,120.1763,,30.2903
1057,中赢国际,滨和路998号,120.2109,,30.1997
1058,华元西溪欢乐城,五常大道与华丰路口,120.0134,,30.241
1059,复地壹中心活力广场,花园岗街,120.1103,,30.3174
1060,运河七区,小河路500号,120.1374,,30.3262
1061,解百新元华,延安路179号,120.1632,,30.2496
1062,物美购物中心,文一路298号,120.1227,,30.288
1063,万宝城,荷禹路与北沙西路交叉口西南角,120.2842,,30.4325
1064,新天地G193广场,长浜路与新北街交叉口东南角,120.1798,,30.3252
1065,衣之家百货,庆春路227号,120.1616,,30.2574
1066,滨河商业广场,建国北路471号滨河商业广场,120.1801,,30.2683
1067,汇和城,文一路296号,120.1233,,30.2881
1068,萧山宝龙广场,建设一路与金鸡路交叉口,120.2533,,30.1952
1069,星光百货,泰安路9号,120.2105,,30.2068
1070,汇金星座标,金城路168号,120.2457,,30.1818
1071,江南时代广场,余杭街道凤新路与荆余路交叉口,119.95,,30.2596
1072,印象城,古墩路588号,120.0992,,30.2939
1073,首创奥特莱斯,江滨东大道889号,120.0291,,30.0781
1074,金街美地,云河路与洙泗路交叉口西北角,120.0786,,30.1475
1075,解百购物广场,解放路251号,120.1648,,30.2497
1076,衣之家百货,天城路86号,120.2002,,30.2873
1077,创意设计中心,艮山西路102号,120.2057,,30.2775
1078,银泰百货,东湖街道北大街132号,120.3034,,30.4228
1079,303生活广场,三墩镇厚仁路313号,120.0784,,30.3327
1080,上亿广场,崇贤街道崇杭路与塘康路交汇处,120.1635,,30.3821
1081,砂之船奥特莱斯,解放东路8号,120.2149,,30.2445
1082,运河上街购物中心,金华路80号,120.1436,,30.3188
1083,华荣城,博卡路16号华荣城缤果广场区1层,120.2847,,30.3446
1084,盒座社,浦沿路773号,120.1468,,30.1728
1085,利星名品广场,平海路124号,120.1626,,30.2545
1086,万达广场,杭行路666号,120.1191,,30.33
1087,天阳亲子广场,婺江路217号,120.1967,,30.2307
1088,LSE城市生活广场,金城路333号,120.2519,,30.1827
1089,和达城,2号大街与5号交叉口西南角,120.3477,,30.3089
1090,金沙印象城,金沙大道,120.3362,,30.3085
1091,西城广场购物中心,文二西路551号,120.0947,,30.2806
1092,衣之家城市广场,机场路119号,120.1923,,30.2852
1093,西溪天堂栖悦城·文旅奥莱,紫金港路21号,120.0894,,30.2655
1094,西湖D11,武林路163号武林夜市旁,120.1609,,30.2622
1095,赛银国际,溪望路与高教路交叉口南100米,120.0218,,30.2753
1096,黄龙世纪广场,杭大路1号,120.1404,,30.2681
1097,万华广场,钱王街855号,119.7058,,30.2223
1098,星光城,文三路500号,120.1212,,30.2771
1099,中南乐游城,长河路与江南大道交汇处西南角,120.192,,30.1947
1100,柏联广场,三市街6号,102.7107,,25.0353
1101,云纺东南亚商城,环城南路668号,102.7088,,25.0194
1102,万达广场,前兴路688号,102.71,,25.0075
1103,顺城购物中心,东风西路11号,102.7075,,25.0356
1104,金鹰B座,青年路威远街168号金鹰购物广场B座2楼,102.7142,,25.0403
1105,南亚风情第壹城,滇池路569号南亚风情第一城阳光酒店旁,102.6835,,25.0096
1106,同德昆明广场购物中心,北京路928号,102.7237,,25.0685
1107,七彩云南第一城,呈贡区朝云街,102.8247,,24.8786
1108,大悦城,环城南路与南坝路交叉口西行200米路南,102.7136,,25.0227
1109,王府井百货,沿河路7号,102.7068,,25.0355
1110,公园1903,海宏路与前卫西路交叉口北侧,102.6763,,24.9855
1111,金鹰购物中心,青年路418号,102.7154,,25.0394
1112,正义坊购物中心,正义路100号,102.7096,,25.0404
1113,云纺国际商厦购物中心,环城南路668号内,102.7094,,25.0212
1114,万达百货,前兴路688号,102.7097,,25.0076
1115,百大新天地,东风西路2号,102.7097,,25.0367
1116,世纪金源购物中心,金源大道一号,102.7623,,24.9774
1117,爱琴海购物公园,广福路488号,102.685,,24.9924
1118,欣都龙城VCpark购物中心,北京路与北辰大道交叉口,102.733,,25.0799
1119,大都摩天购物中心,彩云北路与珥季路交叉口东北200米,102.7687,,24.9708
1120,美辰百货,人民中路富春街98号,102.702,,25.0432
1121,版筑后街,虹山东路9号版筑翠园小区,102.692,,25.054
1122,百利家购物中心,中营段205号,102.7402,,24.946
1123,西城COHO购物中心,滇缅大道2553号,102.6545,,25.0639
1124,新螺蛳湾商贸城,彩云北路5151号,102.7761,,24.9328
1125,新西南,人民中路21号,102.7148,,25.0421
1126,玫瑰天街,广福路426号,102.684,,24.9929
1127,金格奥特莱斯购物中心,前卫西路19号,102.6765,,24.9858
1128,悦云天地购物公园,人民西路,102.682,,25.044
1129,百盛,三市街6号柏联广场1层,102.7108,,25.0352
1130,砂之船,太平新城奥特莱斯大道181号砂之船(昆明)奥莱A馆1楼,102.5754,,24.9185
1131,南亚new mall,滇池路569号,102.6858,,25.0099
1132,昆明五华吾悦广场,王筇路,102.658,,25.09
1133,七彩ME TOWN购物中心,白塔路399号,102.7266,,25.0484
1134,嘉誉商业广场,昆阳中和路73号住宿区,102.5963,,24.6647
1135,奥特莱斯购物中心,东寺街,102.7094,,25.0292
1136,昆百大新都会,春融街东段2956号,102.8456,,24.8912
1137,伊皇购物中心,百花西路22号,102.4858,,24.9215
1138,星天地商业广场,星休路新亚洲体育城,102.7655,,24.9474
1139,昆明百货,三市街与顺城街交叉口西50米,102.7094,,25.0358
1140,北大门商业街,金忠巷与金洲北路交叉口西100米,102.7184,,25.0617
1141,金方购物广场,金方超市斜对面清远街十味饺子馆旁边童装店童真阁,103.143,,24.9168
1142,康盛商贸城,广福路6829号,102.7647,,24.9417
1143,海伦城市广场,金源大道3188号,102.7423,,24.9669
1144,学府协信天地星光180,建设路180号,102.6924,,25.0592
1145,时尚女人广场,人民中路21号新西南旁边,102.7154,,25.0425
1146,百盛,人民中路17号,102.7148,,25.0418
1147,金泰国际广场,滇缅大道黄土坡公交车场对面,102.6693,,25.064
1148,明通商场,明通路,102.7181,,25.0228
1149,段家商场,大板桥G320,102.8775,,25.0458
1150,中铁云时代广场,王筇路与科普路交叉口南150米,102.6605,,25.087
1151,置信银河广场,谊康北路与春融街交汇处,102.8225,,24.8839
1152,嘉利达购物中心,船房村1742号,102.6853,,25.0178
1153,和谐商城,红兴路与红康路交叉口东侧,102.7299,,25.1032
1154,金碧辉煌大厦,金碧路与正义路交叉口东北角,102.7099,,25.0393
1155,滨江俊发广场,白云路跟万华路交叉口滨江俊园,102.7171,,25.0669
1156,中豪.螺蛳湾国际商贸城,新昆洛路宏仁片区、彩云北路5151号,102.7761,,24.9328
1157,滨河购物广场,黄龙街滨河苑旁,103.0464,,25.3388
1158,金格百货,白塔路131号,102.7263,,25.0361
1159,实力花千坊,春融街779号,102.8245,,24.8808
1160,双龙商场,环城南路985号,102.719,,25.0236
1161,瑞鼎城购物公园,新春巷与白云路交叉口东150米,102.7399,,25.0553
1162,新世界百货,青年路432号,102.7158,,25.0374
1163,中央商业广场,滇池路569号,102.6841,,25.0094
1164,嘉年华购物公园,霖雨路288号,102.7356,,25.0951
1165,宝奢购物中心,金瓦路8188号,102.7897,,25.054
1166,世纪广场,南屏街88号,102.7124,,25.0375
1167,金色时代广场,安宁中学斜对面,102.4653,,24.9125
1168,实力花千集,教兴路与教场东路交叉口西200米,102.7084,,25.0751
1169,愿景城市广场,人民路32号,103.1469,,24.9199
1170,新螺狮湾国际商贸城,彩云北路5151号,102.7761,,24.9328
1171,百汇商业广场,昆师路1号,102.697,,25.0466
1172,朗悦湾商场,德润朗悦湾,102.7418,,25.119
1173,羊甫商业中心,云大西路113号,102.788,,24.977
1174,现代广场,长青路94号,102.7159,,25.0684
1175,人民路壹号广场,西园北路375号,102.6798,,25.046
1176,七彩俊购物中心,人民东路与环城东路交叉口北100米,102.7323,,25.0447
1177,嘉悦购物公园,假日城市小区营销中心1层,102.6572,,25.063
1178,喜家乐购物中心,广福路宏仁村康盛19号,102.7659,,24.9393
1179,汇都国际,白塔路131号,102.7271,,25.036
1180,世纪城,世纪金源购物中心B1层,102.7611,,24.9773
1181,益龙万象城,白龙路与环城东路交叉口,102.7318,,25.047
1182,景煌百货商场,北京路162号,102.7205,,25.0238
1183,山文校园淘宝城,大学路1号附近,102.7931,,24.9773
1184,五里多农博广场,民航路183号,102.7382,,25.0235
1185,集大广场,人民东路289号附1号,102.732,,25.0432
1186,振兴百货,迎宾路85号盛世豪庭二楼,103.1482,,24.9185
1187,华一广场,青年路387号,102.7167,,25.0371
1188,星耀购物广场,新亚洲体育城星天地商业广场S11幢1-003室,102.7642,,24.947
1189,星光天地,杨家路西150米,102.6839,,25.0087
1190,奥斯迪购物广场,万宏路与联盟路交汇处,102.7264,,25.0597
1191,坂茂广场,世博路14号,102.7603,,25.0795
1192,万佳购物中心,花谷路与太安路交叉口东20米,102.5867,,24.9483
1193,大观儿童村乐购商城,西安马路6号,102.6965,,25.0428
1194,新都昌商业广场,云兴路与老海埂路交叉口,102.7081,,25.017
1195,福万家购物中心,清远街178号,103.144,,24.9169
1196,瑞丰商场,望丰公路昆明丰成云岭商贸有限公司附近,102.7021,,25.0093
1197,禄劝财富中心,秀屏路111号,102.47,,25.5555
1198,旺角商城,人民中路95号,102.7066,,25.0423
1199,宜良百货大楼,清远街174号,103.1446,,24.9169
1200,雨花客厅EPARK,软件大道109号,118.7639,,31.9788
1201,金鹰世界,应天大街888号,118.7403,,32.0232
1202,金鹰天地广场,双龙大道1688号,118.8205,,31.9328
1203,九霄梦天地,学衡路1号,118.9168,,32.0923
1204,慕斯荟购物中心,浦珠南路26号,118.6464,,32.074
1205,苏宁广场,江东北路88号,118.7409,,32.0445
1206,万谷·慧生活,华电路1号,118.8135,,32.1018
1207,万达广场,竹山路68号,118.8438,,31.9514
1208,环亚凯瑟琳广场,北京东路1号,118.7889,,32.0594
1209,金鹰湖滨天地,学海路1号,118.9265,,32.1025
1210,吾悦广场,湖北路51号狮子桥步行街对面,118.7765,,32.0675
1211,金鹰国际购物中心,汉中路89号,118.7807,,32.0414
1212,花园城购物中心,中山门大街699号,118.8944,,32.0509
1213,文鼎广场,格致路99号体育馆对面,118.8995,,31.914
1214,紫荆广场·花漫里,雨花东路158号,118.7938,,31.9923
1215,紫峰购物广场,中山北路6号,118.7828,,32.0607
1216,招商花园城,栖霞大道与燕城大道交汇处,118.8339,,32.1219
1217,仁恒江湾新天地,乐山路209号,118.7099,,31.9926
1218,南京国际金融中心,汉中路1号南京国际金融中心负一楼,118.7831,,32.041
1219,21世纪太阳城,双龙大道1539号,118.8218,,31.9274
1220,金鹰特惠中心,汉中门大街1号,118.7637,,32.0408
1221,中央商场,中山南路79号,118.7853,,32.0388
1222,虹悦城,应天大街619号,118.7659,,32.0094
1223,华采天地,江东中路258号,118.7219,,31.9977
1224,荔枝广场,北京东路4号,118.7855,,32.0577
1225,德基广场,中山路18号,118.7848,,32.0441
1226,大洋百货,大桥北路48号,118.724,,32.1388
1227,苏宁生活广场,淮海路68号,118.7871,,32.0371
1228,新世纪广场,中山东路288号,118.7953,,32.0405
1229,大观天地MALL,热河路静海寺旁,118.7435,,32.0927
1230,万达百货,竹山路68号,118.8438,,31.9512
1231,万达百货,江东中路98号,118.7375,,32.0325
1232,百联奥特莱斯,汤山街道圣汤大道99号,119.0527,,32.0282
1233,金奥国际购物中心,江东中路329号,118.7254,,31.9987
1234,友谊广场,汉中路27号,118.7819,,32.0415
1235,森林摩尔商业街区,中山门大街301号,118.8666,,32.0385
1236,欢乐港,棠城广场与龙津路交叉口西北150米,118.8365,,32.336
1237,美利购物广场,葛关路818号,118.7496,,32.2428
1238,环宇城,清凉门大街1号,118.7524,,32.045
1239,金鹰天地广场,双龙大道1680号,118.8209,,31.9318
1240,澳林广场,浦珠北路126号,118.6991,,32.1126
1241,金茂汇广场,中央路201号,118.7833,,32.0726
1242,砂之船奥特莱斯,秣周东路18号,118.8284,,31.8668
1243,南京商厦,龙蟠路1号,118.7849,,32.0909
1244,水平方,建康路3号,118.7872,,32.0235
1245,金奥·缤润汇,楠溪江东街83号,118.7299,,31.9934
1246,新城市广场,草场门大街99号,118.7413,,32.0558
1247,景枫KINGMO,双龙大道1698号,118.8209,,31.9297
1248,印象汇,大桥北路58号,118.7222,,32.1406
1249,金鹰国际购物中心,珠江路1号,118.7848,,32.0511
1250,万达茂,仙林大道181号,118.9877,,32.1216
1251,金盛田广场,龙华路8号,118.6396,,32.0694
1252,先锋奥特莱斯商场,中央路417号,118.7835,,32.0877
1253,新百,中山南路1号,118.7849,,32.0406
1254,艾尚天地,中山路100号,118.7849,,32.0466
1255,金轮新天地,汉中路8号,118.78,,32.0426
1256,游坊城,友谊街36号,118.7196,,31.9662
1257,苏宁环球购物中心,湖南路18号,118.7779,,32.0693
1258,House of Fraser 东方福来德,中山南路2号,118.7836,,32.0403
1259,新世界百货,珠江路88号新世界百货,118.7883,,32.0495
1260,鹏欣水游城,建康路1号,118.7857,,32.0235
1261,绿地缤纷广场,中央北路与幕府东路交汇处,118.7791,,32.1114
1262,弘阳广场,大桥北路48号,118.7262,,32.1371
1263,万达广场,江东中路98号,118.7357,,32.0328
1264,大洋百货,中山南路122号,118.7834,,32.0391
1265,茂业天地,建康路2号,118.7855,,32.0224
1266,曙光天地,来燕路1号,118.7888,,32.0174
1267,际华国际广场,大光路142号,118.804,,32.0267
1268,万尚城,双龙大道1355号,118.8222,,31.9425
1269,海乐城,望京街与交通西路交叉口,119.0268,,31.6569
1270,羲和商业广场,薛家巷8号羲和销售中心,118.7856,,32.0544
1271,宇业天赋广场,麒麟街道东麒路与悦民路交汇处,118.9273,,32.0495
1272,托乐嘉乐尚天地,将军大道9号,118.7852,,31.9432
1273,南方时代广场,润发路9号,118.8791,,31.9981
1274,大成名店,文苑路3号,118.9221,,32.1017
1275,瞻园奥特莱斯商场,瞻园路9号,118.787,,32.0191
1276,弘阳生活➕,双龙大道1222号,118.8205,,31.944
1277,中央商场,江东中路237号,118.7319,,32.0073
1278,曼度广场,碑亭巷杨将军巷9号,118.794,,32.0455
1279,花生唐商业,板桥新城新湖大道花生唐,118.6606,,31.9076
1280,印象汇,洪武路88号,118.7868,,32.0379
1281,华润苏果购物中心,新安江街78号苏瑞沁园村,118.7333,,32.0024
1282,淘淘巷,新街口淮海路,118.788,,32.0374
1283,中央城市奥莱,中山北路86号,118.775,,32.0678
1284,保乐荟,双龙大道与兰台街交汇处,118.8293,,31.9023
1285,天悦城,百润路9号地铁天润城站1号出口旁边,118.7334,,32.1514
1286,同曦假日百货,胜太路8号,118.8224,,31.9437
1287,东城汇,仙林大学城文苑路8号,118.9082,,32.0973
1288,雨花世茂52+,宁双路与安德门大街交叉口西南150米,118.7625,,31.9712
1289,乐基广场,云锦路169号,118.7415,,32.0248
1290,常发广场,红山路88号,118.8107,,32.0857
1291,新城市·虹桥中心,中山北路281号虹桥新城市广场,118.7625,,32.0768
1292,楚翘城,安德门大街61号,118.7644,,31.9709
1293,招商花园里,建康路地铁三号线夫子庙站3号口,118.7912,,32.0238
1294,环亚广场,石鼓路33号,118.782,,32.0386
1295,华润苏果清凉门购物中心,清凉门大街18号,118.7515,,32.0463
1296,湖滨天地,苏源大道清华启迪科技园 修,118.8107,,31.9127
1297,玉桥商业广场,建宁路8号,118.7811,,32.0912
1298,万达广场,幸庄路与秦淮大道交叉口,119.0475,,31.6266
1299,老浦口1914商业街,江山路威尼斯水城一街区对面,118.7452,,32.1368
1300,恒一广场,丽园南路606号,121.5145,,29.851
1301,环球银泰城,天童南路1088号,121.546,,29.797
1302,来福士,大庆南路99号,121.5574,,29.8825
1303,莱迪广场,药行街169号颐高莱迪时尚广场1-3楼,121.5516,,29.8671
1304,集盒广场,徐戎路39号,121.5737,,29.8734
1305,博地影秀城,人民北路与泰山西路交汇处,121.8099,,29.9008
1306,酷购商城,药行街152号天一广场6号门,121.5525,,29.8685
1307,银泰百货,中山东路238号,121.558,,29.8699
1308,国际购物中心,中山东路166号,121.5541,,29.8708
1309,银泰百货,浒山街道青少年宫南路99号,121.2487,,30.1701
1310,银泰百货,中山东路188号,121.5555,,29.8708
1311,五彩城,金型路519号,121.1801,,30.0667
1312,爱琴海购物公园,北三环东路1888号,121.2761,,30.1949
1313,1844·和义,和义路100号,121.5534,,29.8763
1314,银泰城,中河路399号,121.8313,,29.8958
1315,世纪金源购物中心,金源大道19号,121.2307,,30.3284
1316,万达广场,四明西路855号,121.1332,,30.028
1317,慈溪新城吾悦广场,南三环路与新城大道交汇处西北角,121.2595,,30.1415
1318,吾悦广场,望海南路与永乐路交汇处,121.6006,,29.949
1319,杉井奥特莱斯广场,秋实路555号,121.4502,,29.8582
1320,和义大道购物中心,和义路66号,121.5554,,29.8737
1321,明州里,四明西路7号万达对面,121.5425,,29.8257
1322,月湖·盛园,镇明路与仓桥街交叉口,121.5463,,29.8632
1323,1902万科广场,庄市大道1088号,121.6242,,29.9282
1324,天一广场,中山东路188号,121.5538,,29.8696
1325,宁波东银泰城,中山东路2266号,121.6207,,29.8542
1326,高鑫广场,新星路111号,121.5258,,29.8955
1327,宁波文化广场,文化广场商圈,121.6173,,29.8587
1328,世纪东方广场,中山东路1083号,121.5948,,29.8614
1329,万达广场,四明中路999号,121.5452,,29.8263
1330,印象城,钱湖北路288号,121.5667,,29.8333
1331,东鼓道,中山东路地铁鼓楼站至东门口站,121.553,,29.8719
1332,海港城,天童南路与北大路交口,121.5448,,29.7727
1333,新世界百货,黄山路857号富邦广场新世界百货,121.8445,,29.893
1334,银泰百货,中山东路1083号世纪东方广场F1,121.5961,,29.8612
1335,新华联商厦,中山东路181号,121.5557,,29.8717
1336,宏泰广场,宁穿路1222号,121.6128,,29.8603
1337,港隆广场,沧海路1号,121.6048,,29.8857
1338,万达广场,江北大道188号,121.5305,,29.9159
1339,万达广场,中山东路与斗门路交汇处,121.4227,,29.6652
1340,天伦商业广场,天福街家乐福南侧,121.5856,,29.8746
1341,亚细亚75mall,药行街169号5-7楼,121.5519,,29.8672
1342,利时城市奥特莱斯,四明中路688号,121.5535,,29.8278
1343,东岸里,规划二路与江东北路交叉口旁,121.572,,29.8835
1344,西子国际广场,桃源中路168号,121.4418,,29.3034
1345,钱湖天地,钱湖北路399号,121.5692,,29.8311
1346,江北恒一商业广场,长兴东路392号,121.5038,,29.9305
1347,银泰百货,四明中路909号,121.5477,,29.8264
1348,宁波第二百货商店,中山东路220号,121.5572,,29.8704
1349,银泰百货,天童南路1008号环球银泰城1层底商,121.5453,,29.7965
1350,金·东岸,星海北路与光华路交叉口,121.6287,,29.8765
1351,环球航运广场,宁东路269号,121.6116,,29.8662
1352,涌金广场,新华路与丹南路交叉口旁,121.8879,,29.4624
1353,三江购物,仓基街76号,121.5475,,29.861
1354,三江购物曙光商场,曙光路104号,121.5713,,29.8767
1355,保利悠悦汇,舒波路355号,121.6128,,29.8498
1356,银泰城,南山路150号,121.4124,,29.6636
1357,世贸中心,桃源中路161号,121.4403,,29.3064
1358,巴丽新地商业广场,钱湖北路553号,121.569,,29.8297
1359,星街坊广场,新马路288弄,121.5511,,29.8917
1360,现代商城,江东区兴宁路226号,121.5746,,29.8473
1361,金沙码头奥莱公园,扬帆路亿嘉商业广场,121.6551,,29.8934
1362,聚亿商业中心,宁南北路367号,121.5453,,29.8415
1363,银亿时代广场,冷静街8号,121.549,,29.8636
1364,嘉恒广场,中山东路1888号,121.616,,29.8555
1365,万达百货,江北大道188号宁波江北万达广场内,121.5305,,29.9159
1366,银泰城,新建北路181号,121.1605,,30.0735
1367,保利MALL,三北西大街与西三环交界处,121.2093,,30.1793
1368,洛兹商业广场,石碶镇雅戈尔大道,121.5079,,29.8276
1369,亿彩购物中心,药行街42号,121.5566,,29.8677
1370,镇海银泰城,镇海大道与望海南路交汇处西北角,121.6005,,29.9678
1371,博浪海港城,丹峰路与巨鹰路交叉口东150米,121.9005,,29.4775
1372,银亿四明广场,舜水南路150号,121.1555,,30.0402
1373,滨江商业广场,桃源街420号,121.555,,29.8489
1374,申菱广场,石浦玉泉路金山路277号,121.9344,,29.1975
1375,富邦世纪广场,黄山路857号,121.8439,,29.8938
1376,博洋智谷广场,慈百路276号,121.2322,,30.1687
1377,铂澜大象城,联丰中路235号,121.5044,,29.8692
1378,恒茂商业广场,丽园北路860号,121.5204,,29.8913
1379,新江厦,集仕港镇商贸路利时购物广场一层,121.4441,,29.8655
1380,金钟广场海鲜排档,金钟路金钟广场,121.4285,,29.6654
1381,太平洋国际购物中心,中山中路1号太平洋国购,121.4278,,29.2978
1382,石浦海峡广场,日月潭旁,121.9475,,29.2087
1383,嘉润国际广场,观海卫路580号,121.3987,,30.1675
1384,横河商贸城,龙泉西路,121.2375,,30.1289
1385,方圆中心广场,永达路1462号,121.5925,,29.844
1386,月湖银座,南站东路16号,121.5396,,29.862
1387,新都汇,新市路36-41号,121.2444,,30.1705
1388,民和扬帆广场,扬帆路与院士路交叉口东北100米,121.6292,,29.8804
1389,嘉悦购物广场,周巷镇兴业北路485号,121.1344,,30.1818
1390,太平洋百货,人民大道9号宁海大厦,121.4304,,29.2966
1391,世茂繁花里,湖西路与环城北路交叉口,121.561,,29.8982
1392,慈溪财富中心,金一路与新城大道南路交汇处东北角,121.2643,,30.1647
1393,江南一品广场,杨木碶路329弄29号,121.6134,,29.8983
1394,镇海利时广场,镇骆西路1号,121.5872,,29.9857
1395,宁海大厦商城,人民大道15号,121.4304,,29.2965
1396,浙海商业广场,联丰中路1038号,121.4827,,29.8701
1397,银泰城,中山东路188号,121.553,,29.869
1398,华联金泰百货,南滨江路168号华联商厦F1,121.1565,,30.046
1399,银泰西选杉,秋实路555号奥特莱斯广场11300铺位,121.4511,,29.8577
1400,北方国贸大厦,向阳路50号,120.4222,,36.1575
1401,城市传媒广场,珠江路588号,120.2045,,35.9529
1402,金茂湾购物中心,四川路23号,120.3008,,36.0664
1403,吾悦广场,滨海大道2888号,120.164,,35.9284
1404,丽达购物中心,秦岭路18号,120.4694,,36.103
1405,诺德广场,敦化路328号,120.3814,,36.092
1406,万科生活广场,黑龙江南路2号,120.3934,,36.1112
1407,和谐广场,向阳路116号,120.4246,,36.1619
1408,银海大世界,东海中路30号,120.4231,,36.0577
1409,麦凯乐,香港中路69号,120.403,,36.0658
1410,新业广场,辽阳西路100号,120.3885,,36.0965
1411,凯德MALL新都心,黑龙江南路18号,120.396,,36.1142
1412,奥克斯广场,书院路37号,120.4209,,36.1567
1413,海上嘉年华澳乐购,漓江西路1138号,120.1697,,35.933
1414,丽达购物中心,秦岭路18号,120.4693,,36.1033
1415,万象城,山东路6号甲,120.3777,,36.0673
1416,乐客城,夏庄路7号,120.4261,,36.1605
1417,利群金鼎广场,海尔路83号,120.4632,,36.0935
1418,城中城购物中心,兴阳路702号北后楼旁,120.3879,,36.2876
1419,利群商厦,台东三路77号利群商厦1层,120.3563,,36.0819
1420,永旺东部购物中心,香港中路72号,120.397,,36.0636
1421,Lion Mall金狮广场,香港东路195号乙,120.464,,36.0957
1422,融创茂购物广场,滨海大道2777号,120.1013,,35.9052
1423,万达广场,巨峰路178号,120.4339,,36.167
1424,华润万象汇,正阳中路157号,120.4143,,36.3064
1425,卓越大融城,龙城路31号,120.3795,,36.0906
1426,万达广场,延吉路116号,120.3791,,36.0881
1427,海信广场,澳门路117号,120.3956,,36.061
1428,家佳源购物中心,正阳路136号,120.4152,,36.3046
1429,万佳广场,和兴路59号,120.3581,,36.0854
1430,四方利群购物广场,重庆南路1号,120.3626,,36.1045
1431,丽达购物中心,铜川路216号,120.4519,,36.1773
1432,利客来购物中心,京口路58号,120.4229,,36.1596
1433,家佳源,长江中路308号,120.1855,,35.9524
1434,东方城购物中心,黑龙江中路2111号,120.4277,,36.2361
1435,青岛悦荟广场,人民路269号,120.3615,,36.1054
1436,万达百货,延吉路118号,120.3793,,36.0876
1437,中防商街,书院路1号,120.4227,,36.1573
1438,鲍岛农贸市场,乐陵路88号,120.3307,,36.0827
1439,百盛,香港东路195号乙金狮广场1层百盛,120.464,,36.0957
1440,崂山百货,向阳路65号,120.4229,,36.159
1441,中联创意广场,宁夏路与金湖路交叉口东100米,120.3846,,36.0826
1442,永旺购物广场,合肥路672号,120.4142,,36.1112
1443,永旺黄岛购物中心,长江中路419号,120.1885,,35.9552
1444,星光里商业街,秦岭路与梅岭东路交叉口西北角,120.4693,,36.0997
1445,海航万邦,香港中路2号,120.3752,,36.061
1446,银座商城,香港中路31号,120.3912,,36.0664
1447,华联商厦,费县路6号,120.3142,,36.0627
1448,安泰广场,连云港路76号,120.3815,,36.0888
1449,中铁·青岛中心广场,香港中路8号乙,120.3802,,36.0639
1450,巴黎春天时尚商城,台东三路步行街交汇处,120.3558,,36.0838
1451,百盛,中山路44-60号,120.3183,,36.0661
1452,悦喜客来购物广场,中山路67号,120.3188,,36.0673
1453,宝龙城市广场,振华街88号,120.4574,,36.3918
1454,远洋广场,香港中路61号,120.3984,,36.066
1455,妇女儿童用品批发市场,威海路191号,120.3566,,36.086
1456,银座商城,向阳路116号,120.4245,,36.162
1457,丽达生活广场,延安三路188号,120.3658,,36.0734
1458,家佳源,鹤山路999号,120.4198,,36.3978
1459,利群长江购物广场,香江路67号,120.1808,,35.9692
1460,万达广场,台东三路63号,120.3553,,36.0825
1461,证大大拇指广场,同安路880号,120.4476,,36.1094
1462,上流汇购物广场,武夷山路7号,120.1965,,35.9478
1463,庆客隆购物广场,延河路252号天河公寓内1号网点,120.1233,,36.0085
1464,百盛,山东路6号LG层L1-L2层,120.3789,,36.0662
1465,康大凤凰广场,长江西路157号,120.1709,,35.9459
1466,漫玉湾农贸综合市场,九水东路352号,120.4716,,36.1709
1467,山科大购物广场,前湾港路579号山东科技大学,120.1198,,36.0045
1468,爱购时尚百货,古田路18号,120.4039,,36.0673
1469,富地商城,临清路35号,120.3247,,36.0746
1470,纪念日百货,李村街道向阳路94号步行街,120.4224,,36.1601
1471,青岛市商城路综合市场,开平路6-52号,120.381,,36.1385
1472,第九街区,崇阳路274号,120.4009,,36.2986
1473,维客运海城购物中心,香江路127号,120.1707,,35.9732
1474,利群前海购物广场,贵州路40号,120.3087,,36.0581
1475,青岛香格里拉中心商场,香港中路9号青岛香格里拉大酒店,120.3779,,36.0643
1476,汇融广场,香港西路63号65号,120.3701,,36.0588
1477,福泰广场,奥帆基地百丽广场商圈香港中路20号,120.3849,,36.0652
1478,香港中路地下商城,佳世客至远洋广场地下通道,120.3987,,36.0647
1479,麦凯乐,长江中路228号麦凯乐B1层,120.19,,35.9543
1480,青岛国货,崇阳路491号国货汇海丽达购物中心2层,120.3829,,36.2998
1481,利客来购物广场,城阳街道正阳路388号,120.379,,36.3052
1482,维客沧口购物中心,振华路161号,120.3876,,36.174
1483,百丽广场,澳门路88号,120.3949,,36.0599
1484,中山商城,中山路113号甲,120.3189,,36.0696
1485,千川百货商厦,台东三路114号,120.3576,,36.0818
1486,利群城阳购物广场,正阳路与靖城路交叉口旁,120.4172,,36.3063
1487,汀town潮玩百货,香港中路93号,120.4097,,36.0667
1488,青岛李沧宝龙广场,九水路227号,120.4187,,36.1486
1489,青岛邻里中心,泰山路99号,120.3346,,36.0835
1490,丽达奥特莱斯,中山路149号,120.3188,,36.0716
1491,利群海琴购物广场,商丘路28号,120.389,,36.1429
1492,利群胶州购物广场,澳门路298号,120.0353,,36.2551
1493,万达百货,黑龙江中路1138-8号,120.4334,,36.1674
1494,万达广场,同江路3号,120.2527,,36.0146
1495,大信东港超级农鲜市场,山东路36号,120.3758,,36.079
1496,柯露广场,城阳街道185号,120.4053,,36.3064
1497,利群莱西商厦,水集街道烟台路28号,120.5235,,36.8548
1498,利群金海岸商场,长江东路696号,120.2182,,35.9611
1499,富安商城,富安商城A1区3排+13号,119.922,,36.7734
1500,万达广场,广富林路658弄,121.243,,31.0577
1501,湖滨道购物中心,湖滨路150号,121.479,,31.221
1502,LCM置汇旭辉广场,张杨路2389号,121.5555,,31.2421
1503,虹桥天地,申长路688号,121.3153,,31.1925
1504,上海爱琴海购物公园,吴中路1588号,121.373,,31.1745
1505,长风大悦城,大渡河路196号,121.3953,,31.2228
1506,世博源,上南路168号,121.4927,,31.1828
1507,浦江城市生活广场,江月路1850号,121.5051,,31.0834
1508,新天地时尚,马当路245号,121.4752,,31.2174
1509,上海万象城,吴中路1599号,121.3692,,31.1702
1510,中海环宇荟,黄陂南路838弄中海环宇荟,121.4768,,31.2117
1511,太平洋森活天地,淞沪路199号,121.5128,,31.3068
1512,新世界大丸百货,南京东路228号,121.4855,,31.2383
1513,上海来福士广场,西藏中路268号,121.4766,,31.2325
1514,港汇恒隆广场,虹桥路1号,121.4373,,31.1944
1515,金桥国际商业广场,金桥路和张杨路交叉口旁,121.5795,,31.2557
1516,龙湖虹桥天街,申长路869号,121.3133,,31.1922
1517,上海新天地南北里,太仓路181弄,121.4752,,31.2192
1518,百联嘉定购物中心,仓场东路384号,121.2783,,31.3865
1519,开元地中海商业广场,新松江路925弄,121.2196,,31.038
1520,嘉定大融城,宝安公路3386号,121.2797,,31.3304
1521,兴业太古汇,南京西路789号,121.4631,,31.2288
1522,龙之梦购物中心,西江湾路388号,121.4772,,31.2713
1523,世茂商都,南京西路258号,121.4708,,31.2324
1524,环贸iapm商场,淮海中路999号,121.4581,,31.2154
1525,上海商城,南京西路1376号,121.4519,,31.2267
1526,徐汇日月光,漕宝路33号,121.4326,,31.169
1527,美罗城,肇嘉浜路1111号,121.4399,,31.1928
1528,奕欧来奥特莱斯,申迪东路88号,121.6795,,31.1405
1529,七宝万科广场,漕宝路3366号,121.3504,,31.1543
1530,尚嘉中心,仙霞路99号,121.4071,,31.2057
1531,张园·丰盛里,茂名北路与南京西路交叉口,121.4592,,31.2279
1532,东鼎购物中心,新松江路1255弄1-10号,121.2114,,31.0377
1533,长宁来福士,长宁路1123号,121.4145,,31.2165
1534,三林印象城,永泰路1058弄1-26号,121.5259,,31.1428
1535,上海环球金融中心,世纪大道100号,121.5075,,31.2343
1536,创智天地,淞沪路234号-303号,121.5116,,31.306
1537,芮欧百货,南京西路1601号,121.4475,,31.2232
1538,上海高岛屋百货,虹桥路1438号,121.4031,,31.1974
1539,老外街商业中心,虹梅路3338弄,121.3877,,31.1913
1540,百联又一城购物中心,淞沪路8号,121.5156,,31.3014
1541,金茂时尚生活中心,世纪大道88号金茂大厦裙楼内,121.5055,,31.2352
1542,上海世茂广场,南京东路829号,121.4755,,31.2346
1543,万达广场,淞沪路77号,121.5139,,31.3002
1544,晶品CrystalGalleria,愚园路68号,121.4464,,31.2255
1545,上海陆家嘴中心 L+MALL,浦东南路899号,121.5153,,31.2313
1546,长泰广场,金科路2889号,121.6017,,31.2059
1547,阳光天地,高科东路777弄,121.6564,,31.2144
1548,洛克·外滩源 ROCKBUND,虎丘路146号光陆大楼,121.4876,,31.2434
1549,中庚·漫游城,闵虹路与万源路交叉口,121.3986,,31.1311
1550,上海国际时尚中心,杨树浦路2866号,121.5584,,31.2705
1551,百联川沙购物中心,川沙新镇川沙路5398号,121.6981,,31.1853
1552,合生汇,翔殷路1099号,121.5179,,31.2998
1553,静安大悦城,西藏北路166号-198号,121.4721,,31.244
1554,LuOne凯德晶萃广场,徐家汇路268号,121.4772,,31.2106
1555,正大广场,陆家嘴西路168号,121.4989,,31.2367
1556,环球港,中山北路3300号,121.4125,,31.2333
1557,佛罗伦萨小镇上海名品奥特莱斯,卓耀路58弄,121.7641,,31.1964
1558,第一百货商业中心,南京东路800-830号,121.4747,,31.2352
1559,幸福里,番禺路381号,121.4301,,31.2043
1560,瑞虹天地,瑞虹路188号,121.4987,,31.2644
1561,158坊,巨鹿路158号,121.4665,,31.2231
1562,益丰·外滩源,北京东路99号,121.4888,,31.2406
1563,BFC外滩金融中心,中山东二路600号,121.4983,,31.226
1564,新天地广场,淮海中路333号,121.4742,,31.2227
1565,建业里,建国西路480号建业里1层,121.451,,31.2031
1566,百盛优客城市广场,天山路789-889号,121.4034,,31.2106
1567,百联世纪购物中心,世纪大道1217号,121.5273,,31.2301
1568,尚悦湾,银城路66号,121.5106,,31.2417
1569,金虹桥国际中心,茅台路179号,121.4026,,31.209
1570,国金中心商场,世纪大道8号,121.5023,,31.2362
1571,虹桥南丰城,遵义路100号,121.4079,,31.2074
1572,疁城新天地,塔城路295号,121.2554,,31.3824
1573,久光百货,南京西路1618号,121.4462,,31.2238
1574,恒隆广场,南京西路1266号,121.4538,,31.2276
1575,世纪汇广场,世纪大道1192号,121.5272,,31.2274
1576,上海K11购物艺术中心,淮海中路300号,121.4735,,31.2234
1577,东方渔人码头,杨树浦路1088号,121.5315,,31.2528
1578,SOHO复兴广场,复兴中路与马当路交叉口西南角,121.4746,,31.2151
1579,大上海时代广场,淮海中路99号,121.4787,,31.2245
1580,香港广场,淮海中路282号-283号,121.4749,,31.223
1581,松江万达,广富林路658弄,121.2428,,31.0579
1582,外滩十八号Bund18,中山东一路18号,121.4897,,31.2384
1583,龙湖宝山天街,丹霞山路与黄海路交叉口,121.3633,,31.3571
1584,上海中心 ·上海之品商场,陆家嘴环路479号,121.5059,,31.2341
1585,夏都小镇,沪青平公路1583号靠近高径路夏都艺术小镇,121.2932,,31.1721
1586,上海老佛爷百货,浦东南路899号,121.5152,,31.2315
1587,船厂1862,滨江大道1777号,121.5143,,31.2443
1588,绿地缤纷城,东安路562号,121.4567,,31.1836
1589,浦东嘉里城,花木路1378号,121.5635,,31.2125
1590,上生新所,延安西路1262号,121.4271,,31.2099
1591,上海白玉兰广场,东长治路588号,121.4978,,31.2491
1592,静安嘉里中心,南京西路1515号,121.4497,,31.2238
1593,永新坊,天钥桥路131号,121.4422,,31.192
1594,龙之梦购物中心,沪闵路6088号,121.3783,,31.1077
1595,中信泰富广场,南京西路1168号,121.4558,,31.2282
1596,大宁国际商业广场,共和新路1878-2008号,121.4524,,31.274
1597,宝龙城市广场,临港新城鸿音路3155弄,121.8157,,30.9063
1598,96广场,东方路796号,121.5247,,31.2275
1599,南方友谊商城,沪闵路7250号,121.4,,31.1312
1600,亚繁亚乐城,莘松路1266号,121.3499,,31.0975
1601,静安大融城,沪太路1111弄,121.426,,31.2801
1602,万达广场,年家浜路518号,121.5701,,31.1144
1603,宝山U天地,美健路829、979号,121.3356,,31.3901
1604,古北1699商业广场,古北路1699号,121.4028,,31.1882
1605,百盛,莘庄都市路5001号仲盛世界商城,121.3876,,31.1072
1606,嘉里不夜城企业坊,梅园路277号,121.4581,,31.245
1607,万达广场,一二八纪念路988弄,121.447,,31.3238
1608,汇金百货,肇嘉浜路1000号,121.4403,,31.1952
1609,中房金谊广场,上南路4467号,121.5133,,31.1409
1610,龙盛国际商业广场,都市路3759号,121.3989,,31.0853
1611,189弄购物中心,长寿路189号,121.4407,,31.2421
1612,O'MALL华侨城商业中心,陈行公路2688号,121.5039,,31.0952
1613,浦东世纪大都会,福山路312号,121.5274,,31.2297
1614,滨江世茂52+,浦城路680号,121.5152,,31.2227
1615,大华光启城时尚购物中心,宜山路455号,121.4284,,31.1841
1616,第一八佰伴,张杨路501号,121.517,,31.2282
1617,仲盛世界商城,莘庄都市路5001号,121.3871,,31.1072
1618,宝龙城市广场,航南公路5639号,121.4627,,30.9299
1619,阿拉城,先锋街66号,121.3738,,31.1767
1620,上滨生活广场,周家嘴路887-917号,121.5037,,31.26
1621,龙之梦购物公园,长宁路1018号,121.4165,,31.2189
1622,新华·红星国际广场,虹井路188号,121.3723,,31.1735
1623,KING88商业广场,长宁路88号,121.4269,,31.2287
1624,上海湾生活时尚中心,浦东南路1138号,121.5148,,31.2271
1625,大宁中心广场,万荣路700号,121.4419,,31.2808
1626,MORE MEE时尚生活中心,张杨路588号,121.519,,31.2277
1627,凯德七宝购物广场,七莘路3655号,121.3413,,31.1644
1628,恒基名人购物中心,南京东路155号,121.4842,,31.2376
1629,东方商厦,真光路1288号百联购物广场内,121.3834,,31.2456
1630,联洋广场,芳甸路226号,121.5579,,31.2264
1631,BFC南区商场,中山东二路600号,121.4984,,31.2254
1632,乐尚天地生活广场,南乐路456号,121.2961,,31.0254
1633,美陈广场,新郁路904-906号,121.3632,,31.2526
1634,中原城市广场,国和路777号,121.5217,,31.3158
1635,万达广场,华江路988号,121.3229,,31.2395
1636,宝龙广场,阿克苏路1099号,121.2606,,31.3458
1637,特力时尚汇,邯郸路600号万达商业广场内,121.5128,,31.3021
1638,泛乐城,墨玉南路1080号,121.1637,,31.2878
1639,复地四季广场,宁国路503号,121.5336,,31.2676
1640,嘉汇国际广场,天钥桥路325号,121.4429,,31.1888
1641,东方商厦,公园路700号,121.1123,,31.1484
1642,百联南桥购物中心,百齐路588号,121.4838,,30.9159
1643,无限极荟购物中心,湖滨路168号,121.4778,,31.2205
1644,三湘商业广场,横港公路37-45号,121.26,,31.1173
1645,隆德丰汗麦邻里中心,北中路与沪南路交叉口东南150米,121.5555,,31.1823
1646,中展璞荟,光星路1599号,121.2405,,31.0574
1647,金桥购物中心,碧云路555号,121.5811,,31.239
1648,井亭大厦,虹泉路1000号,121.375,,31.1705
1649,凯德星贸 Capital Square,恒通路318号,121.458,,31.2413
1650,万达广场,颛兴东路1559号,121.4062,,31.0711
1651,新邻生活站,陆家浜路1100号,121.487,,31.2115
1652,豫园商城,福佑路288号,121.492,,31.227
1653,紫叶广场,紫星路488弄129号,121.4648,,31.0208
1654,虹桥万科中心,申长路988弄,121.3153,,31.1966
1655,浦商百货,博山东路88号,121.5608,,31.2477
1656,外滩十六铺水岸,中山东二路531号,121.4984,,31.2276
1657,SOHO天山广场,天山路1717号,121.4084,,31.2094
1658,悦荟广场,南京东路353号,121.4836,,31.2367
1659,1933购物中心,沙泾路10号,121.4922,,31.2546
1660,湟普汇,吴江路269号,121.4593,,31.2291
1661,缤谷文化休闲广场,天山路345号,121.387,,31.2143
1662,丰尚国际广场,运乐路569弄,121.282,,31.2033
1663,上海协信星光广场,江场路1228弄,121.4574,,31.2975
1664,太平洋百货,衡山路932号,121.4385,,31.1951
1665,久金广场,张杨路与中环路交叉口旁,121.5812,,31.2556
1666,平高广场,荣乐中路与九峰路交汇处,121.2309,,31.0166
1667,嘉亭荟城市生活广场,墨玉南路1033-1099号,121.1618,,31.2875
1668,览海国际广场,世纪大道160号,121.5085,,31.235
1669,力宝广场,淮海中路222号,121.4756,,31.2242
1670,梅龙镇广场,南京西路1038号,121.4567,,31.2289
1671,金桥股份碧云体育休闲中心,碧云路633号碧云体育休闲中心内,121.5828,,31.2402
1672,鹿都国际商业广场,松汇中路568号,121.2347,,31.0051
1673,新江湾城生活广场,国浩路与政和路交叉口东南角,121.5173,,31.3352
1674,大宁音乐广场,万荣路777号,121.4439,,31.2807
1675,百盛,淮海中路918号,121.4592,,31.2175
1676,百联中环购物广场,真光路1288号,121.3837,,31.2456
1677,吾悦广场,淀山湖大道218号,121.0954,,31.1445
1678,文峰广场,张杨北路801号,121.5874,,31.2722
1679,东航•云锦天地 MUPLAZA,龙兰路277号,121.4565,,31.1659
1680,巴黎春天,浦建路118号,121.52,,31.2085
1681,西云楼,洪德路202号-400号,121.2604,,31.3579
1682,悠方,殷行路1388号,121.5078,,31.33
1683,新世界城,南京西路2-68号,121.474,,31.2349
1684,中冶祥腾城市广场,真南路4368弄,121.3228,,31.2957
1685,富荟广场,樱花路80弄,121.5444,,31.2042
1686,宝乐汇生活时尚中心,牡丹江路1569号,121.4854,,31.3991
1687,贝尚坊,沪亭北路350弄,121.3177,,31.1455
1688,百联南方购物中心,沪闵路7388号,121.4011,,31.1317
1689,大华虎城嘉年华广场,大华路352号,121.4139,,31.2699
1690,恒基688广场,南京西路688号,121.4645,,31.2316
1691,三邻桥体育文化园,江杨南路485号,121.4686,,31.3176
1692,宝地广场,唐山路1018号,121.5116,,31.2612
1693,青浦宝龙广场,赵巷镇汇金路590号,121.153,,31.1614
1694,保利悦活荟,泗宝路41号,121.2606,,31.1162
1695,乐坊松汇生活广场,松汇中路568号鹿都国际商业广场内,121.2355,,31.0057
1696,融创精彩天地-上海浦兴,五莲路1333号,121.5978,,31.2766
1697,漫选·小马路,长宁路上海地铁2号线中山公园站3/4号口,121.4197,,31.2192
1698,陆家嘴1885广场,商城路665号,121.5183,,31.2315
1699,青浦万达茂广场,淀山湖大道首创禧悦旁,121.0828,,31.1334
1700,保利·悦活荟,长江西路380号,121.4758,,31.343
1701,宏伊国际广场,南京东路299号,121.4846,,31.2369
1702,维璟广场,七莘路1507号,121.3635,,31.1308
1703,汇智国际商业中心,金科路3057号,121.6016,,31.2034
1704,新理想广场,荣乐西路860号,121.1967,,31.017
1705,宝龙城市广场,金海路2505号,121.6534,,31.2664
1706,万达广场,龙皓路1088号,121.335,,30.7543
1707,滨江光合新座,浦东大道1559号,121.539,,31.2446
1708,百联奥特莱斯,沪青平公路2888号,121.2284,,31.1561
1709,乐荟天地,高科西路899号,121.5082,,31.1857
1710,近铁城市广场,真北路788、818号,121.3809,,31.2318
1711,禹洲商业广场,沪南公路9928号,121.7387,,31.0394
1712,中建广场,东明路高科西路地铁站4出口,121.5083,,31.186
1713,中信泰富万达广场,胜辛路447号,121.2546,,31.3308
1714,国家会展中心商业广场,盈港东路158号,121.3033,,31.1877
1715,南翔太茂商业广场,丰翔路3168号,121.3252,,31.2989
1716,紫荆广场,控江路1628号,121.5167,,31.275
1717,丁香国际商业中心,丁香路858号,121.551,,31.2251
1718,百联滨江购物中心,平凉路1399号,121.5377,,31.265
1719,碧江广场,鹤庆路900号,121.4042,,31.0064
1720,国和1000广场,国和路1000号,121.5264,,31.3186
1721,1088广场,浦东南路1088号,121.5151,,31.2281
1722,巴黎春天,成山路1993号,121.5357,,31.179
1723,唐人幸福里,陈春路109号,121.5546,,31.1735
1724,新华联购物中心,申滨路473号,121.3091,,31.2011
1725,龙湖北城天街,潘广路与陆翔路交叉口,121.3591,,31.3617
1726,日月光中心广场,徐家汇路618号,121.4684,,31.2063
1727,保利时光里购物中心,瑞平路230号,121.4559,,31.182
1728,永安百货,南京东路635号,121.4784,,31.2352
1729,梅龙镇伊势丹百货,南京西路1038号,121.4571,,31.229
1730,百联金山购物中心,卫清西路168弄99号,121.3477,,30.7318
1731,上海世贸商城,延安西路2299号,121.4007,,31.2018
1732,东方商厦,漕溪北路8号,121.438,,31.1932
1733,悠迈生活广场,四平路2500号,121.516,,31.2984
1734,北翼生活广场,水产路竹韵路,121.4434,,31.3665
1735,万科2049海上传奇,御桥路1949号4-404,121.5719,,31.1589
1736,星游城,天钥桥路580号地铁4号线上海体育场4号口出,121.4426,,31.1853
1737,淮海755,淮海中路755号,121.4642,,31.2187
1738,苏宁生活广场,南奉公路7500号,121.4887,,30.9183
1739,天物空间,杨高中路2108号,121.5572,,31.2321
1740,证大大拇指广场,芳甸路199弄28号B,121.5597,,31.227
1741,金桥太茂商业广场,金高路1882号,121.6087,,31.2667
1742,悦达889广场,万航渡路889号,121.4287,,31.2294
1743,东方商厦,卫清西路168弄99号百联金山购物中心内,121.3484,,30.7302
1744,百联西郊购物中心,仙霞西路88号,121.3703,,31.2089
1745,罗宾森购物中心,城中路138号,121.2455,,31.3845
1746,虹桥·食尚天地,沪青平公路1899号,121.2777,,31.1668
1747,城开YOYO,上海徐家汇天钥桥路123号,121.442,,31.1924
1748,东方商厦,城中路66号,121.2484,,31.3804
1749,锦绣坊,锦延路329号,121.5426,,31.2157
1750,七巧国,隆昌路588号,121.5436,,31.275
1751,中星城,钦州南路271号,121.4286,,31.1588
1752,正大乐城,中山南二路699号,121.458,,31.1866
1753,港陆广场,上海西藏中路18号,121.4786,,31.2294
1754,汇宝购物广场,漕宝路3509号,121.3497,,31.1561
1755,汇金百货,天山路900号,121.4048,,31.2114
1756,日月光中心,城北路338号,121.2374,,31.3906
1757,百脑汇,漕溪北路339号,121.4384,,31.191
1758,金鹰国际购物广场,陕西北路278号金鹰购物广场,121.4545,,31.229
1759,富都广场,东方路1369号,121.5291,,31.2122
1760,百联徐汇商业广场,华山路2038号,121.4373,,31.1971
1761,瑞虹生活广场,临平路133弄瑞虹新城内,121.4995,,31.2611
1762,汇金奥特莱斯,沪闵路9001-3号,121.4281,,31.1547
1763,万都商城,兴义路8号万都中心大厦内,121.4052,,31.205
1764,宝龙城,漕宝路3299号,121.3542,,31.1587
1765,太平洋生活广场,民星路378号,121.5393,,31.3123
1766,环龙商厦,闸北区梅园路330号中亚美爵酒店6楼,121.4562,,31.2473
1767,五彩城,宝翔路801号,121.3173,,31.3115
1768,松江商城,中山中路188号1楼,121.234,,31.007
1769,世博源5区,上南路168号世博源,121.4933,,31.1798
1770,宝龙城市广场,剑川路与尚义路交叉口北200米路西,121.4507,,31.0379
1771,新大陆广场,南泉北路528号,121.5188,,31.2297
1772,森兰商都,张杨北路2988号,121.5912,,31.3119
1773,世界广场,浦东南路855号,121.515,,31.2323
1774,旭辉mall,控江路2068号,121.5092,,31.2734
1775,场北商业广场,场北路704号,121.4246,,31.3319
1776,三鑫世界商厦,张杨路579号1-3F,121.5184,,31.2283
1777,IMAGO我格广场,武宁路101号,121.4234,,31.2379
1778,置地广场,南京东路409号,121.4819,,31.2361
1779,万辉国际广场,虹梅南路863号,121.4227,,31.1249
1780,南洋1931,裕德路165号,121.434,,31.1855
1781,万嘉商业广场,东靖路1881号,121.6109,,31.2936
1782,徐汇梅陇商业中心,龙州路995号,121.4225,,31.139
1783,诺亚新天地,牡丹江路318号,121.4949,,31.3813
1784,淞南购物中心,长江南路651号,121.4806,,31.3388
1785,百联东郊购物中心,沪南路2420号,121.5638,,31.1536
1786,巴黎春天,真华路888号,121.4117,,31.2706
1787,壹街坊,上中西路280号,121.4256,,31.135
1788,金桥大拇指广场,平度路和胶东路交口西侧,121.5915,,31.2544
1789,天格广场 Tango Plaza,灵石路718号C8栋,121.4391,,31.2811
1790,贝多芬广场,长宁路1158号,121.4146,,31.2181
1791,港城新天地,南汇新城镇茉莉路225弄,121.9061,,30.8957
1792,太平洋百货,天目西路218号,121.457,,31.2451
1793,虹桥良华购物广场,申滨路990号,121.3085,,31.2094
1794,老码头购物中心,中山南路505弄,121.5057,,31.2193
1795,博隆商业广场,华腾公路和新府中路交叉口西北角,121.2294,,31.2379
1796,香港名都,河南南路489号,121.4899,,31.2228
1797,苏航生活广场,沪南公路5588号,121.5959,,31.0351
1798,嘉实生活广场,嘉松北路6130弄,121.2218,,31.288
1799,星光耀广场,曹杨路1888号,121.4067,,31.2572
1800,新玛特,黄海路45号,123.3045,,41.7938
1801,大悦城c座,小什字街,123.4694,,41.8029
1802,鹿特丹万科生活广场,长白南路50号,123.3971,,41.7287
1803,商业城,中街路212号,123.4621,,41.802
1804,新玛特,小东路1号新玛特F5,123.465,,41.8021
1805,积家购物中心,道义南大街33号,123.4009,,41.9212
1806,韩百商场,西塔街方迪大厦C座斜对面,123.4106,,41.8068
1807,盛京豫龙城,北中街路116号,123.4558,,41.8038
1808,印象城,中华路15号,123.3988,,41.7923
1809,万象城,青年大街288号沈阳华润中心万象城,123.4346,,41.7765
1810,沈阳春天,中街168号,123.4576,,41.802
1811,花园城,浑南四路与营盘北街交叉口东北角,123.4547,,41.7444
1812,万达广场,北一中路1号,123.3808,,41.8136
1813,大悦城,小东路6号,123.4671,,41.8024
1814,沈阳天地,北陵大街17号,123.4311,,41.8256
1815,嘉里城,青年大街123号,123.4363,,41.7758
1816,沈阳K11购物艺术中心,博览路2甲1号,123.4405,,41.7502
1817,万达百货,营盘西街17号,123.4599,,41.7356
1818,万达广场,太原南街2号,123.3987,,41.7913
1819,兴隆大奥莱,营盘北街5号,123.4574,,41.7419
1820,市府恒隆广场,青年大街1号,123.4334,,41.8009
1821,星摩尔购物中心,北二中路6号,123.3758,,41.8083
1822,皇城恒隆广场,中街路128号,123.4553,,41.8021
1823,一方广场,文化路81号,123.4369,,41.7704
1824,万达广场,兴华南街58号,123.3593,,41.781
1825,佳兆业广场,青年大街173号,123.4366,,41.7658
1826,中兴商业大厦,太原街86号,123.4005,,41.7935
1827,玖伍文化城,太原北街95号玖伍文化城2层,123.402,,41.7929
1828,万象汇,建设东路158号,123.373,,41.7953
1829,沈北华强广场Living Mall,道义南大街8号,123.4077,,41.9081
1830,卓展购物中心,北京街7-1号,123.434,,41.8088
1831,五爱市场服装城东7门,小南街103号,123.4537,,41.7868
1832,新玛特,兴华南街37号新玛特(铁西店)B1层,123.3669,,41.7883
1833,尚柏奥特莱斯,蒲河路98号,123.4627,,41.955
1834,碧桂园银河商业广场,汪河路99号,123.3456,,41.751
1835,龙之梦购物中心,滂江街22号,123.4882,,41.8073
1836,百盛,中华路21号百盛太原街店5层,123.4003,,41.7918
1837,乐天百货,北陵大街9-4号,123.4294,,41.8225
1838,盾安新一城,中街路268号,123.464,,41.8032
1839,小商品大世界,滂江街22号,123.4869,,41.808
1840,兴隆大家庭,中街路115号,123.4551,,41.8002
1841,FTC金融中心购物广场,哈尔滨路168号,123.4353,,41.8117
1842,龙之梦大都汇MALL,建设西路18-17号第一城东区对面,123.3456,,41.8039
1843,益田假日世界,中街路268号,123.4636,,41.8016
1844,友谊购物中心,兴顺商业街50号,123.3607,,41.7963
1845,铁西百货,兴华南街16号铁西百货,123.3687,,41.7919
1846,国瑞购物中心,东北大马路392号,123.5175,,41.8363
1847,乐购生活购物中心,浑南新区金卡路16号,123.4656,,41.737
1848,茂业奥特莱斯,沈辽东路79号,123.3611,,41.7801
1849,欧亚联营,中华路63号,123.4056,,41.7894
1850,中信泰富又一城,塔湾街11号,123.3758,,41.8276
1851,百联购物中心,青年大街55号,123.4333,,41.7938
1852,大悦城b馆,大什字街197号,123.4685,,41.8035
1853,兴隆大天地,沈辽西路27号兴隆大天地购物中心1层,123.3329,,41.7781
1854,维华商业广场,沈辽中路5号,123.3576,,41.7801
1855,金谷购物中心,北二西路52甲号,123.3295,,41.8243
1856,维华商业广场,南京南街201号,123.4027,,41.7458
1857,温州城,民族南街68号甲1,123.3956,,41.7906
1858,潮汇店,中华路与民族北街交叉口北50米,123.3984,,41.7934
1859,华府天地购物中心,哈尔滨路118号,123.4326,,41.8132
1860,萃兮优客城市奥莱,市府大路188号,123.4226,,41.8053
1861,HK01流行馆,中街路205号HK01流行馆5层,123.4614,,41.8012
1862,华润置地广场,兴华北街49号,123.3744,,41.7976
1863,万象九宜城,浑南西路7-8号,123.4522,,41.7376
1864,新华天玺广场,金廊商圈北京街,123.4339,,41.8077
1865,千盛百货购物中心,长江街99号,123.4137,,41.8261
1866,荣信财富广场,沈辽西路116号,123.2485,,41.7434
1867,中兴方城,太原北街86号中兴商业大厦8楼,123.4002,,41.7939
1868,福瑞佳购物广场,道义南大街正义四路3号,123.4024,,41.9193
1869,大悦城,小东路9号,123.4671,,41.8026
1870,兴隆生活广场,赤山路38号,123.3985,,41.8722
1871,恒大都市广场,怒江北街230号,123.3966,,41.8811
1872,浑河天地,长白二街3-2号,123.3895,,41.7502
1873,西都商业城,新华街小六路30号,123.3678,,41.7918
1874,华邑世纪城,千山西路58号,123.3869,,41.8784
1875,碧塘休闲购物广场,辽宁沈阳长江街15号碧塘公园西,123.4143,,41.8206
1876,华苑商场,海棠街39号,123.3463,,41.6623
1877,北约客广场,同泽北街35-1号,123.4048,,41.7922
1878,万达广场B组团,南十二路与景星南街交叉口东南100米,123.3554,,41.7831
1879,新加坡广场,民族南街20号,123.397,,41.792
1880,新生活广场,长青街121号,123.4896,,41.7697
1881,东站商场,东站街东北大马路240号,123.4979,,41.8272
1882,地一大道,长江街15号碧塘公园,123.4133,,41.8208
1883,古城子镇综合市场,东湖街道古城乙433号,123.581,,41.7433
1884,林韵商场,观泉路,123.5157,,41.8407
1885,三隆商场,沈辽路232号,123.303,,41.7627
1886,茂业百货,青年大街185号,123.4362,,41.7646
1887,五爱国际商贸城-城北1门,热闹路65号,123.4513,,41.7874
1888,兴隆大家庭,东陵西路201号,123.509,,41.8133
1889,唐轩城市广场,道义南大街5号,123.4051,,41.9164
1890,五爱市场服装城西4门,热闹路77号,123.4522,,41.7866
1891,荣业·中央广场,新区路北100米,122.8454,,41.9957
1892,西窑市场,鸭绿江街68号,123.4567,,41.8489
1893,上亿广场,沈营大街587号,123.4228,,41.6902
1894,阳光百货,友好街10号,123.4373,,41.8144
1895,环宇城购物中心,昆山西路75号,123.3759,,41.8281
1896,亿丰时代广场,金卡路16号,123.4642,,41.7366
1897,邻里广场,朗月街6甲号,123.4811,,41.7447
1898,tanni卓展购物中心店,北京街7-1号卓展购物中心4层,123.4336,,41.8088
1899,中国·食品城,南一马路与民族南街交叉口西南,123.396,,41.7906
1900,深业上城,皇岗路5001号,114.0702,,22.5579
1901,新沙天虹购物中心,新沙路与西环路交汇处,113.8002,,22.7296
1902,天安云谷,坂田街道坂雪岗大道以西，五和大道以东，雪岗北路以北,114.068,,22.659
1903,中心城广场,福华一路3号,114.0598,,22.5358
1904,海岸城,文心五路33号,113.9355,,22.5172
1905,AEON永旺,深南中路1095号新城市广场B1楼,114.0988,,22.5395
1906,太阳广场·太阳百货,东门解放路2001号二楼,114.1185,,22.5453
1907,卓悦INTOWN购物中心,金田路与福华三路交界处,114.0644,,22.5325
1908,平安金融中心,福华三路与益田路交汇处西北角,114.0557,,22.5331
1909,万科广场,龙翔街道中心城龙翔大道7188号,114.2436,,22.7147
1910,万象天地,深南大道9668号,113.9543,,22.5411
1911,京基百纳广场,沙井路180号,113.8061,,22.7281
1912,华强北九方购物中心,中航路1号,114.0831,,22.5425
1913,卓悦汇购物中心,中康路与梅林路交叉口东北角,114.06,,22.5693
1914,皇庭广场,福华三路118号,114.0599,,22.5332
1915,深圳湾科技生态园,沙河西路1809号附近,113.954,,22.5282
1916,深圳湾万象城,科苑南路2888号,113.9467,,22.5163
1917,诚品生活深圳,深南大道9668号万象天地NL133，NL150,113.9571,,22.5426
1918,茂业百货,东门中路2047号,114.1212,,22.5471
1919,花园城,南海大道1090号,113.9232,,22.5022
1920,1234space,建设路3018号,114.1161,,22.5446
1921,观澜湖新城MH MALL,观澜街道高尔夫大道8号,114.0759,,22.7227
1922,茂业百货,华强北路2009号,114.0862,,22.5457
1923,AEON永旺,太宁路百仕达花园第四期东郡商业楼地面1-2楼,114.1383,,22.569
1924,欢乐海岸,白石路东8号,113.9892,,22.5255
1925,壹方天地,龙华人民路与建设路交叉口东侧,114.0273,,22.6497
1926,芮欧百货,宝安南路1881号万象城B1F-3F楼,114.1114,,22.5396
1927,壹方城购物中心,新湖路99号,113.8873,,22.5531
1928,KKMALL京基百纳空间,深南东路5016号,114.1069,,22.5438
1929,海上世界,望海路1128号,113.9165,,22.483
1930,壹方天地B区,八一路与龙华人民路交叉口东南150米,114.0285,,22.6464
1931,龙华九方购物中心,人民路2020号,114.0213,,22.6277
1932,龙岗星河iCO,清林路愉园新苑对面,114.2374,,22.7192
1933,AEON,新洲路中城天邑花园商铺1-2楼,114.048,,22.5215
1934,保利文化广场,文心五路海岸城对面,113.9376,,22.5169
1935,益田假日广场,深南大道9028号华侨城威尼斯酒店旁,113.9759,,22.5371
1936,万象汇,布吉街道翔鸽路2号,114.1324,,22.5927
1937,AEON,N5区创业一路1004号宏发大厦1-2楼,113.8883,,22.5548
1938,金光华广场,人民南路2028号,114.1201,,22.5396
1939,龙城万科里,龙城大道49号附近,114.2516,,22.7174
1940,KK ONE mall,滨河大道9289号,114.027,,22.528
1941,深圳万象城,宝安南路1881号,114.1111,,22.5396
1942,海雅缤纷城,建安一路99号,113.9061,,22.5595
1943,福田星河COCO Park,福华三路与民田路交叉口东北角,114.0539,,22.5333
1944,来福士广场,南海大道2163号,113.9258,,22.512
1945,东海缤纷天地,深南大道7888号,114.0199,,22.5363
1946,购物公园,民田路127号,114.0538,,22.5357
1947,东门中心城,东门中路2088号东门中心城晒布地铁A2出口,114.123,,22.5491
1948,星河WORLD·COCO Park,坂田五和大道与雅宝路交汇处,114.0592,,22.6039
1949,佐阾虹湾购物中心,北环大道6098号,114.0393,,22.5607
1950,云城万科里,仙茶路与打石二路交汇处东南角,113.9423,,22.5743
1951,马成时代广场,石厦北二街89号,114.0534,,22.521
1952,星河COCO City,梅龙路2号,114.0467,,22.6026
1953,连城·新天地,福华路B1楼连城新天地商业街,114.0593,,22.5352
1954,南山京基百纳广场,白石路与深湾二路交汇处,113.9693,,22.5311
1955,中洲·π mall,创业二路89号,113.9063,,22.5714
1956,宝能·all city,中心路2233号,113.9391,,22.5004
1957,喜荟城,太宁路8号,114.14,,22.5681
1958,龙岗星河COCO Park,爱南路666号,114.2282,,22.691
1959,世纪汇购物中心,深南中路3018号,114.0836,,22.5411
1960,万科里街,龙翔大道8028号,114.2486,,22.7172
1961,壹海城,海山路与深盐路交叉口西行150米路南,114.2386,,22.5546
1962,AT MALL上塘荟,民塘路521号,114.0133,,22.6373
1963,缤果空间,民塘路深圳北站东广场1-2楼,114.0318,,22.6117
1964,茂业百货,文心二路与海德路交叉口西北角,113.9304,,22.5191
1965,汇港购物中心,蛇口工业三路1号,113.916,,22.4857
1966,君尚3019,中心路3019号,113.9408,,22.5068
1967,iCity麟恒中心广场,龙岗大道横岗段2999号,114.1872,,22.6375
1968,布吉佳兆业广场,龙岗大道1号,114.131,,22.6064
1969,益田假日世界,深汕路168号,114.3397,,22.6931
1970,上河坊购物乐园,金龙路5号,114.0473,,22.5993
1971,益田假日天地,福永街道怀德社区广深路福永段77号,113.8279,,22.6684
1972,天虹,中航路与振中路交汇处鼎诚国际大厦1-4层,114.0839,,22.5432
1973,天虹,吉华路与五和大道交汇处,114.0597,,22.634
1974,佐阾香颂购物中心,民治大道佐阾香颂广场,114.0366,,22.6304
1975,天虹,福民路127号星河明居大厦1-5层,114.053,,22.5226
1976,摩尔城购物中心,龙岗大道龙岗段6002-10号,114.268,,22.7224
1977,侨城坊九方荟,侨香路4080号,113.9805,,22.5521
1978,宝能·all city,建设路28号宝能城市广场,114.2485,,22.7247
1979,华盛奥特莱斯购物广场,平湖华南城1号交易广场,114.1229,,22.6781
1980,大浪商业中心,华旺路与华繁路交叉口旁,113.9949,,22.6746
1981,8号仓,民康路1号,114.0552,,22.6188
1982,龙华星河iCO,东环二路8号,114.0372,,22.6562
1983,华润欢乐颂购物中心,南新路3030号,113.92,,22.5351
1984,茂业百货,和平路3009号,114.1143,,22.5442
1985,时代城购物广场,海城路与宝源路交汇处,113.8684,,22.5666
1986,彩生活时代广场,坂雪岗大道4033号,114.0701,,22.6558
1987,福安购物广场,金稻田路2001号,114.1196,,22.5847
1988,华强广场,华强北路1019号,114.0861,,22.5439
1989,大梅沙奥特莱斯,环梅路1号,114.309,,22.597
1990,君胜百货,宝安80区宝民二路111号,113.8808,,22.5822
1991,天虹,创业一路1018号,113.894,,22.56
1992,天虹,横岗街道龙岗大道与保康路交汇处,114.2109,,22.6492
1993,新城市广场,深南中路1095号,114.0985,,22.5394
1994,鹏润达环球服贸广场,腾龙路152号,114.0218,,22.625
1995,岁宝百货,龙珠大道33号桃源村三期商业裙楼,113.9844,,22.5576
1996,IBC Mall,布心路3008号,114.1249,,22.5745
1997,欧洲城,北环大道8188号,113.9656,,22.5572
1998,万科生活广场,宝安大道与裕安一路交界处,113.8899,,22.5613
1999,嘉熙业广场,民治大道328号,114.0399,,22.6231
2000,天虹,桃园路与常兴路交汇处（南山医院斜对面）地铁罗宝线桃园站B出口,113.922,,22.5328
2001,熙璟城购物中心,富安大道与平安大道交汇处,114.1357,,22.6826
2002,天虹,龙华街道龙观东路花园新村门楼侧1-5楼,114.0196,,22.6624
2003,天虹,白石路168号京基百纳广场B1-2楼,113.9692,,22.5307
2004,印力中心,农林路69号,114.0122,,22.5447
2005,天虹,观澜街道南部新工业大道与大和路交汇处，中航格澜郡商业楼A栋,114.0491,,22.695
2006,天虹,新园路17号迎宾商业大厦1-6楼,114.1182,,22.548
2007,天虹,民治街道民治大道与民丰路交汇处东南角,114.0455,,22.6099
2008,天玑城商业广场,龙岗大道6001号,114.2665,,22.7239
2009,天虹,文心五路文心五路30-2号保利文化广场C区1-4层,113.9375,,22.5167
2010,新洲,新洲路中城天邑裙楼吉之岛商场T-111商铺,114.0471,,22.5215
2011,宝安天虹购物中心,西乡大道与新湖路交叉口西北角旁,113.8645,,22.5747
2012,海雅缤纷广场,南海大道2746号,113.9292,,22.5187
2013,家乐福,梅林街梅林一村一区裙楼,114.0412,,22.5662
2014,天虹,人民南路3002号1-5楼,114.1192,,22.5412
2015,彩虹城 广场,西乡大道和前进二路交汇处81区,113.8819,,22.5904
2016,东门印象城,人民路二横街21号3楼,114.1207,,22.5458
2017,天虹,梅林路69号海康大厦1-6层,114.0614,,22.5678
2018,一乐会·音乐潮流广场,流塘路泰华明珠花园1～3楼,113.8859,,22.5815
2019,信兴商业广场,深南东路5002号地王信兴广场1层,114.1104,,22.5426
2020,天虹,沙井中心路与创新路交汇处32号1-5楼,113.8297,,22.7206
2021,西荟城购物广场,新沙路529号,113.8174,,22.7319
2022,星光城,清泉路9号,114.0346,,22.6643
2023,嗨您HiRunning,香蜜湖街道安托山七路3号,114.0126,,22.551
2024,OKmall潮流广场,海滨路3019号,113.9394,,22.518
2025,特发文创广场,侨香路1010号,114.0296,,22.5534
2026,天虹,公明振明路122号,113.893,,22.7821
2027,宝安益田假日天地,福永街道怀德社区广深路福永段77号,113.8276,,22.6699
2028,天利名城购物中心,海德三道85号,113.9352,,22.5183
2029,天虹,中兴路38号,114.1242,,22.6087
2030,优城购物中心,民治大道567号,114.0366,,22.628
2031,爱联万乐福购物广场,爱联余岭西路144号,114.2273,,22.6956
2032,星都里,大芬地铁站A1出口附近,114.138,,22.6131
2033,岁宝百货,地铁3号线(龙岗线)益田地铁站益田大厦,114.0511,,22.5156
2034,天虹,中山大道与锦龙大道交汇处深业东城国际1-3层,114.3295,,22.6794
2035,华南城2号交易广场,华南三道东200米,114.1316,,22.6777
2036,万科里购物中心,环城南路万科里购物中心1层底商,114.0732,,22.6174
2037,纷享城,华旺路大浪商业中心H栋,113.9944,,22.6757
2038,大运城邦益田假日天地商场,大运城邦益田假日天地,114.2113,,22.719
2039,新马商贸城,深惠路与力嘉路交汇处,114.2033,,22.643
2040,HALO广场,笋岗街道桃源路和梨园路交汇处,114.107,,22.5583
2041,泛海城市广场,前海路与兴海大道交汇东北侧,113.8927,,22.4957
2042,联升百货,固戍宝安大道4710号联昇商务大厦1层,113.8496,,22.5969
2043,金色广场,莲花路2016号,114.045,,22.5539
2044,岁宝百货,民治大道与布龙路交汇处牛栏前大厦1至4层,114.0378,,22.6348
2045,地王购物中心,深南东路5002号地王大厦,114.1106,,22.5428
2046,景雅居商城,景田路109号,114.0408,,22.5559
2047,方大城,龙珠四路2号,113.9728,,22.556
2048,十亩地,泰然九路21号,114.0235,,22.5332
2049,宝立方中心,新安四路与前进二路交汇处,113.8923,,22.5799
2050,万科红生活广场,布吉锦龙路89号,114.1272,,22.5981
2051,连城新天地2期,会展中心地铁站A出口,114.0628,,22.5343
2052,时尚mego商业广场,红荔路3008号华新地铁站C出口旁,114.0869,,22.5487
2053,联投东方PARK,松岗镇东方大道与松岗大道交汇处,113.8591,,22.7601
2054,华盛奥特莱斯购物中心,华南大道1号,114.1235,,22.679
2055,玖龙荟,民塘路白石龙地铁站B/C口,114.0415,,22.6013
2056,天虹,龙岗大道龙岗段6068号,114.2778,,22.7281
2057,天虹,龙岗中心城清林中路与吉祥中路交汇处愉园新苑1-4层,114.2375,,22.7201
2058,世贸中心,龙翔大道社保大厦对面,114.2461,,22.7168
2059,天虹,深南大道与前海路交汇处西南角,113.9139,,22.5406
2060,天虹,留仙大道5028号天虹商场西丽店2层,113.9551,,22.5813
2061,万科城,坂雪岗大道4001号,114.0668,,22.6456
2062,东门町购物广场,永新街7号,114.1188,,22.5442
2063,联美新天地,龙岗大道2290号,114.1319,,22.6073
2064,天虹,前进一路329号,113.894,,22.5786
2065,ddmmall商业广场,深南东路3020号百货广场大厦,114.1188,,22.5437
2066,佳兆业假日广场,大鹏镇岭澳社区岭南路67号,114.4747,,22.5939
2067,国贸时代广场,人民南路3002号国贸大厦A区1-5楼,114.1196,,22.5407
2068,群星广场购物中心,红荔路38号,114.088,,22.5483
2069,百易广场,民福路2号,114.0359,,22.6187
2070,悦方广场,留仙大道2188号,113.9454,,22.5812
2071,同泰时代广场,宝安大道6259号,113.8043,,22.6786
2072,茂业百货,深南中路2020号,114.0926,,22.5409
2073,华丰时代广场,宝安25区前进一路213号,113.9018,,22.5695
2074,叮梆小镇,深南东路3020号ddm百货广场1层,114.1188,,22.5437
2075,世贸百货,龙翔大道世贸中心C区二层,114.2459,,22.7167
2076,星城购物中心,石岩宝石东路与羊台山路交汇处星城购物中心,113.9472,,22.6802
2077,人人购物广场,三角街1-10号,114.151,,22.612
2078,银信荣恒广场,松柏路与龙岗大道交叉口,114.2092,,22.6453
2079,佳宁娜购物广场,人民南路2002号,114.1196,,22.5369
2080,天虹,东环一路1号,114.0483,,22.6413
2081,君胜前海天街,前海路3005-29号,113.9146,,22.5317
2082,宝地利商场,龙华区环观南路96号仁山智水花园,114.0643,,22.691
2083,财富广场,深南大道7002号,114.0266,,22.5376
2084,乐淘里商场,华强北路1019号,114.0864,,22.5437
2085,罗湖商业城,广场路25号,114.1191,,22.5302
2086,爱购时尚百货,西丽塘朗村塘兴路塘朗商务公寓朗景楼,113.9863,,22.5892
2087,易生园购物中心,凤塘大道521号,113.8035,,22.7008
2088,万福来百货,盛华路23号,114.2573,,22.732
2089,康之宝超级广场,德丰路与政丰北路交叉口西南角,113.821,,22.6721
2090,形色城,沙井街道中心路34-1号,113.8295,,22.722
2091,汇海广场C座,和平路弓村,114.0274,,22.6578
2092,石厦新港商城,石厦北路二街89号,114.0531,,22.521
2093,精茂城,海景二路1018号,114.2439,,22.5575
2094,kkpark,光翠路南10号,113.9431,,22.758
2095,嘉域荟,光明区松白路与马田路交叉口西南100米,113.8782,,22.782
2096,Ucity,东门街道东门中路新风花园鸿基商业中心B101,114.1204,,22.5465
2097,盛大百货,茂盛路98号,114.2035,,22.6506
2098,新亿佳,黄田路18号,113.8461,,22.6267
2099,恒科商业广场,民治大道435号,114.0396,,22.6213
2100,深华商业大厦商铺,嘉宾路与南湖路交汇处嘉宾路2018号,114.1213,,22.5406
2101,吉祥商场,布吉街华浩源b栋景芬路,114.1265,,22.6233
2102,粤丰百货兴围,兴围村兴业一路85号(D371)美宜佳,113.831,,22.6381
2103,沃客商场,公明街道星湖路a栋,113.9061,,22.7072
2104,同得利购物城,观澜镇大布巷村,114.0487,,22.7182
2105,金田湾世贸百货,光明区公明街道田湾路59号,113.9037,,22.7289
2106,百佳华商场,公明街道长春南路西1号,113.8943,,22.7794
2107,康之乐购物广场,荣华路87号,114.1244,,22.5935
2108,华城百货,坂田市场黄君山社区,114.0622,,22.64
2109,华凯百货,劳动村二队名优大厦1层,113.8667,,22.569
2110,大鹏广场,大鹏镇中山路5附近,114.4757,,22.5961
2111,万盛百货,光明新区公明新围南庄旧村,113.9068,,22.7698
2112,逸海百货,石厦路龙洲百货对面,113.8263,,22.675
2113,顺平百货,平湖辅城坳平龙西路75号,114.1132,,22.6945
2114,惠丰购物广场,光明办事处凤新路165号,113.9481,,22.7926
2115,榕兴购物广场,塘家大道25-3号,113.9374,,22.7329
2116,卓业星光广场,川安路步行街与裕安一路交叉口东北角,113.8899,,22.5633
2117,华盛奥特莱斯购物中心,华南城1号交易广场,114.1246,,22.6772
2118,ONCELIVE一乐会,建安二路89-11号,113.8854,,22.5816
2119,万荟城,凤凰岗路与宝田一路交叉口东150米,113.8815,,22.5962
2120,盛妆百货,宝石南路119号,113.9319,,22.6774
2121,彩德城CBD购物中心,彩田路3030号,114.0693,,22.543
2122,惠家乐百货,燕川朗西路1号1层,113.8605,,22.7968
2123,和平商业广场,福永镇和平村,113.7941,,22.6889
2124,天源隆商场,沙井镇共和村西环路,113.8033,,22.7583
2125,荟食广场,创维半导体设计大厦裙楼B1层,113.953,,22.537
2126,华城百货,莲花二村惠民街市2楼,114.0709,,22.5516
2127,东部市场,汕头街与香山东街交叉口,113.9922,,22.5382
2128,宝润万家购物广场,观澜镇大水坑三村桔坑27号,114.0136,,22.7301
2129,万盛百货,华旺路69-28号,113.9959,,22.6752
2130,老街商业广场,龙岗街道龙平东路56号,114.2786,,22.7307
2131,岁宝百货,龙翔大道吉祥中路交口西南角,114.2364,,22.7101
2132,宏达商场,黄贝岭华丽路1041号华丽花园2层,114.1345,,22.5504
2133,百世广场,龙平东路190号,114.2729,,22.7304
2134,华城百货,龙井路14龙井庭院1-2层,113.9755,,22.5588
2135,保利天街,龙观东路与清龙路交汇处龙华汽车站对面,114.0321,,22.67
2136,东方建富时尚广场,振华路97号,114.0903,,22.5443
2137,永佳福购物广场,桥头社区桥荣二区15号,113.8065,,22.6894
2138,南塘商业广场,永新街1-9号,114.1184,,22.5446
2139,百盛佳购物广场,余岭西路与爱华路交叉口东南50米,114.2292,,22.6977
2140,中海商城,新园路3号,114.1167,,22.5457
2141,千色新城购物广场,宝业路80号,114.0784,,22.6843
2142,UCT 东门韩国城,人民路二横街12号,114.1207,,22.5465
2143,红日子购物广场,泥岗西村59号,114.099,,22.5673
2144,宝地利百货,观平路40号,114.0903,,22.7009
2145,岁宝百货,巴登街14号滨江大厦,114.1031,,22.5377
2146,河滨商场,宝石南路188号,113.9341,,22.6791
2147,岁宝百货,景田路香蜜三村5栋天健名苑1-4裙楼,114.0484,,22.5461
2148,华南城港台馆,平新北路华南城1号交易广场海峡两岸商品交易物流中心,114.1229,,22.679
2149,蔚蓝海岸商城,华明路1-12号,113.933,,22.5075
2150,岁宝百货,沙井街道民主大道濠景城东侧,113.7926,,22.736
2151,岁宝百货,聚福路金色年华家园1楼,114.1715,,22.5617
2152,金宝元购物广场,五联社区同心工业区3号综合楼a楼3楼,114.2335,,22.7457
2153,天和百货,明安路39号,113.8908,,22.7848
2154,唐美商场,凤塘大道523号,113.8012,,22.7005
2155,景马商业城,万兴街2-7号,113.9506,,22.5574
2156,万胜易购,布吉街道联北北路2A号,114.1168,,22.6255
2157,兴城百货,红湖路25号,113.8628,,22.8032
2158,江南百货,大浪南路1层,114.0147,,22.6721
2159,栢丽广场,南湖路2046号,114.1214,,22.5393
2160,东海城市广场,红荔西路8099号,114.0209,,22.5405
2161,hicity购物中心,黄贝岭凤凰路193号海珑华苑,114.1325,,22.5469
2162,科技园文化广场,科兴路10号汇景豪苑群楼,113.9434,,22.5405
2163,京基凤凰印象商场,凤凰路181号,114.1334,,22.5474
2164,皇御商城,福田南路7-44号,114.0766,,22.5259
2165,人人购物广场,龙平东路143号,114.274,,22.7294
2166,福到来购物广场,桃源村67栋综合楼2楼,113.9805,,22.5588
2167,华联街,深南中路2006-2号,114.0933,,22.5408
2168,赛格ECO广场,布吉街道布龙路18号,114.1143,,22.62
2169,世界贸易广场,福虹路9号深南中路华强地铁口旁,114.0834,,22.5389
2170,新世界广场,龙岗大道(横岗段)5017号,114.2076,,22.6483
2171,星河中心,中心5路星河中心1-3层,114.0614,,22.5338
2172,彩虹缤纷城,福永白石厦大道188号,113.8249,,22.6742
2173,曼哈数码广场,华强北路2022号曼哈数码广场1-5楼,114.087,,22.5456
2174,西丽百货,西丽北路50号,113.9558,,22.5787
2175,海滨商业中心,兴华路9号,113.916,,22.4841
2176,大芬商城,布吉街道汇福花园商场201,114.1381,,22.6148
2177,中信地铁商场,上步南路1093号,114.096,,22.54
2178,昌盛百货,龙岗大道2001号,114.2335,,22.6971
2179,星港城,松白路7038号,113.848,,22.77
2180,尖莎咀购物中心,宝荷路与沙荷路交叉口南100米,114.2667,,22.6882
2181,世纪假日广场B座,深南大道9030-14号,113.9724,,22.5384
2182,九龙城购物广场,东门中路2013号,114.1213,,22.5459
2183,百佳华商场,新湖路佳华名苑4楼,113.8778,,22.5636
2184,观澜商业广场,龙华北环观南路101号,114.0531,,22.6906
2185,康之宝百货,光明大街新地中央花园东南50米旁,113.9439,,22.7588
2186,华强南商业中心,华强南路2002号,114.0874,,22.5358
2187,万佳广场,园岭中路园中花园C/D/E裙楼,114.0996,,22.5523
2188,盛世华联购物广场,桥新路17号,113.7983,,22.6745
2189,乐福购物广场,竹子林七路益华大厦B栋1楼,114.0136,,22.5359
2190,丰滢世纪广场,东滨路4026-4030号,113.9228,,22.5061
2191,荟港城,平湖大街330号,114.1404,,22.6872
2192,大新百货,坑梓镇人民西路22号,114.3731,,22.7437
2193,中威商业广场,人民北路1008-10号中威大厦,114.1192,,22.545
2194,万福佳购物广场,建设路54号香港金六福珠宝镇府旁,114.3464,,22.69
2195,理家购物广场,南山村西巷1号,113.9106,,22.5139
2196,大新休闲广场,关口下街与桃园路交叉口西南50米,113.916,,22.532
2197,金鹏百货,金鹏路26号金利商业广场1-6楼,114.1182,,22.6061
2198,金岸商业广场,桃园路122号,113.9181,,22.5328
2199,金龙华广场,龙观东路3号,114.0166,,22.6615
2200,新光天地,工业园区苏州大道东456号,120.7121,,31.3232
2201,湖滨新天地,星港街158号,120.6819,,31.3161
2202,绿宝步行街,狮山街道长江路436号,120.5494,,31.3012
2203,大运城购物中心,中山东路88号,120.5346,,31.2574
2204,泉屋百货,长江路211号,120.5492,,31.2832
2205,奕欧来奥特莱斯,阳澄环路969号,120.7613,,31.3778
2206,华琨新苏购物中心,东吴北路98号,120.6287,,31.2697
2207,旧街坊,平江路与狮林寺巷交叉口东南50米,120.6324,,31.3202
2208,星悦汇,苏州中心步行街星州街北,120.6778,,31.3195
2209,新湖广场,江陵西路1688号,120.6382,,31.1785
2210,西城永捷生活广场,广济南路19号,120.6001,,31.3052
2211,绿宝广场购物中心,邓尉路与长江路交口东北角,120.5494,,31.3011
2212,星海国际广场,星海街200号,120.6709,,31.3187
2213,邻瑞广场,西华林街88号,120.7188,,31.2972
2214,方洲邻里中心,方洲路528号,120.7421,,31.3143
2215,天虹百货,木渎镇金山路39号,120.5186,,31.2625
2216,长发商厦,临顿路108号,120.6298,,31.3126
2217,东门町商业广场,木渎镇珠江南路788号,120.5373,,31.2615
2218,万宝财富商业广场,中山南路1088号,120.6454,,31.1304
2219,天虹,苏雅路388号,120.6646,,31.3163
2220,万达广场,青阳北路与中环路交汇处,120.9918,,31.4134
2221,圆融购物中心,南天成路111号,120.6371,,31.4216
2222,双湖广场,企鸿路18号,120.6719,,31.2831
2223,吾悦广场,南二环路与金港大道交叉口,120.5432,,31.8383
2224,圆融星座,旺墩路269号,120.715,,31.3183
2225,万亚购物中心,永康路商业步行街199号,120.6451,,31.1617
2226,昆城广场,人民南路1128号,120.9545,,31.364
2227,丰隆汇购物中心,钟园路788号,120.7162,,31.3168
2228,万科美好广场,中新大道西229号,120.6529,,31.3048
2229,久光百货,旺墩路268号,120.7152,,31.3196
2230,文星广场,林泉街621号,120.7417,,31.2763
2231,繁花商业中心,人民路4555号,120.6074,,31.3616
2232,舞台国际时尚品牌城,现代大道后戴街9号,120.8216,,31.342
2233,苏州城市生活广场,平泷路251号,120.6101,,31.3432
2234,悠方,竹园路与金枫路交汇处,120.5286,,31.2753
2235,八佰伴,方塔东街步行街9号楼,120.7559,,31.6435
2236,超华城市广场,白马泾路46号,120.9408,,31.3797
2237,万达广场,石湖西路176-1号,120.607,,31.2537
2238,九方购物中心,萧林路666号,120.9567,,31.4048
2239,街角七号,星悦汇商场L3-L4,120.6777,,31.319
2240,金鹰国际广场,狮山路298号,120.5508,,31.2936
2241,永旺梦乐城,越溪苏震桃路188号,120.6127,,31.1939
2242,金鸡湖商业广场,苏州大道199号,120.7185,,31.319
2243,美罗百货,观前街245号,120.6221,,31.3102
2244,苏州湾水秀天地,吴江太湖新城开平路与风清街交汇处,120.5931,,31.1366
2245,爱琴海购物公园,清禾路888号,120.7035,,31.2451
2246,泰华商城,人民路383号,120.6239,,31.2901
2247,翰林邻里中心,林泉街598号,120.7457,,31.2757
2248,景城邻里中心,九华路65号,120.7248,,31.3271
2249,星海生活广场,星海街199号（星海街西侧与苏州大道西交汇处）,120.6703,,31.3148
2250,旗袍小镇,太湖新城中山南路与笠泽路交汇处,120.6435,,31.152
2251,美罗百货,长江路211号,120.5493,,31.2823
2252,苏悦广场,苏州大道西119号,120.669,,31.3155
2253,金鹰国际购物中心,珠江中路199号,120.9729,,31.3757
2254,印象城,海虞南路88号,120.7589,,31.6495
2255,石路国际商城,石路步行街18号,120.6022,,31.3117
2256,圆融时代广场,旺墩路268号,120.7124,,31.3208
2257,苏州人民商场,北局22号,120.6242,,31.3099
2258,木渎影视城,金山路288号,120.5181,,31.2789
2259,星光天地,闽江东路9号,120.7761,,31.6663
2260,曼巴特购物广场,河西南路1号,120.5451,,31.8609
2261,李公堤国际风情商业水街,金鸡湖大道金鸡湖景区内李公堤,120.6858,,31.3022
2262,易生活购物公园,邓蔚路201号,120.5543,,31.3003
2263,龙湖狮山天街,高新区狮山路与塔园路交汇处,120.5565,,31.2939
2264,永旺梦乐城,苏州高新区城际路19号,120.5301,,31.3695
2265,天虹CCMall,广济路219号,120.5993,,31.3095
2266,苏州高新区文体中心,太湖大道999号,120.4172,,31.3389
2267,苏州中心商场,苏绣路苏州中心内,120.678,,31.3168
2268,永旺梦乐城,钟南街238号,120.758,,31.3234
2269,印象城,现代大道1699号,120.6569,,31.3175
2270,华润万象汇,太湖新城镇开平路与冬梅路交叉口,120.6175,,31.1364
2271,奥体中心商业广场,苏州工业园区中新大道东999号,120.747,,31.3075
2272,NUZZON韩国购物城,观前街碧凤坊41号,120.6285,,31.3106
2273,天虹购物中心,相城大道1168号,120.6386,,31.3688
2274,诚品生活苏州,月廊街8号,120.7107,,31.3221
2275,世茂生活广场,宝带西路1177号,120.5972,,31.2635
2276,万达广场,上海东路188号,121.1374,,31.4595
2277,曼哈顿广场,唯华路3号,120.7112,,31.3614
2278,东沙湖邻里中心,东沙湖路100号,120.7575,,31.3334
2279,凤凰广场,苏州大道西158号,120.6667,,31.3154
2280,阳光天地购物中心,环湖路1688号,120.6982,,31.2455
2281,奥特莱斯,石路步行街8号,120.603,,31.3131
2282,百盛,前进西路300号,120.954,,31.3823
2283,首创奥特莱斯,东城大道501号,121.0619,,31.3649
2284,万达广场,珠海路8号新都汇对面,120.7326,,31.6834
2285,万达百货,人民路3188号,120.6144,,31.3415
2286,新城吾悦广场,长江南路99号,120.967,,31.3328
2287,君地联合广场,唯正路16号,120.7115,,31.3659
2288,梦之城购物中心,武夷山路66号,120.4193,,31.3426
2289,新江南生活荟,前进路2200号,120.896,,31.3826
2290,独墅湖邻里中心,启月街198号,120.7242,,31.2521
2291,汇邻广场,南环东路758号,120.6361,,31.2828
2292,万达广场,春分街10号,120.6148,,31.3425
2293,环球188广场,苏惠路88号,120.67,,31.3137
2294,SM城市广场,吴中大道1109号,120.5928,,31.2158
2295,太阳广场,上塘街175号,120.6009,,31.3131
2296,吾悦广场,开平路2188号,120.6157,,31.1378
2297,永旺梦乐城,东南大道与常昆路交界处,120.7797,,31.6004
2298,星汇生活广场,博览中心和众街,120.7087,,31.3295
2299,世茂广场,前进东路199号,121.054,,31.3828
2300,天河城,赤峰道与和平路交叉口旁,117.2042,,39.127
2301,于家堡环球购,新华路于家堡自贸区环球购地下商业街,117.6814,,38.9966
2302,和平大悦城,南京路189号,117.1973,,39.1176
2303,鲁能城购物中心,水上公园北道与水上公园东路交叉口东南角,117.1748,,39.0957
2304,鹏欣水游城,大丰路12-24号,117.1696,,39.149
2305,社会山购物中心,知景道198号,117.0507,,39.0519
2306,凯德MALL,南北大街1号,117.2398,,39.0969
2307,天津万科广场,广东路60号,117.2135,,39.107
2308,熙悦汇购物中心,黄河道513号,117.1243,,39.1373
2309,爱琴海购物公园,津滨大道160号,117.2551,,39.1214
2310,伊势丹,第二大街62号,117.708,,39.024
2311,天佑城,南马路与西马路交口东北侧,117.1731,,39.1378
2312,天津国金中心商场,南京路108号,117.1973,,39.1192
2313,凯文汇,狮子林大街和翔纬路交口,117.1983,,39.1474
2314,泰达生活馆,第二大街56号,117.7063,,39.0251
2315,Ｄ26潮玩星球,天津天河城购物中心2F,117.2041,,39.1272
2316,复地活力广场,中环东路与东四道交叉口北角,117.4053,,39.1576
2317,永旺梦乐城,友谊南路111号,117.2191,,39.027
2318,于家堡堡子里21号文化创意社区,于家堡站环球购商业街,117.6813,,38.9966
2319,时代奥城商业广场,宾水西道凌宾路交叉口,117.1698,,39.0786
2320,温州国际商贸城,卫津南路269号小倪庄公交站,117.1965,,39.0528
2321,大悦城·旺街,南门外大街2号,117.1792,,39.1357
2322,仁恒置地广场,东马路137号,117.1911,,39.1391
2323,中冶和悦汇,黑牛城道与洪泽路交口,117.2445,,39.0808
2324,伊势丹,南京路108号,117.1972,,39.1192
2325,金元宝商厦,解放路668号F4层,117.667,,39.0177
2326,SM城市广场,环河北路168号,117.4195,,39.1582
2327,嘉华国际商业中心,华昌大街70号,117.2225,,39.1377
2328,万象城,乐园道9号,117.2153,,39.0908
2329,欧亚达商业广场,西青道58号,117.1526,,39.1567
2330,永旺梦乐城,中北镇阜盛道1号,117.0909,,39.143
2331,朗香街,建设路88号,117.215,,39.1155
2332,永旺梦乐城,鑫怡路深特广场1号楼,117.3419,,39.0282
2333,新燕莎奥特莱斯购物中心,空港经济区环河北路98号‎,117.3978,,39.1612
2334,万福生活广场,迎贤道96号,117.2084,,39.1801
2335,天津国贸购物中心,南京路39号五大道文化旅游区旁,117.2158,,39.1139
2336,永旺梦乐城,泰达大街泰达时尚东路29号,117.7297,,39.0317
2337,嘉里汇,六纬路238号,117.2174,,39.1273
2338,新世界百货,东马路138号,117.1897,,39.1402
2339,欧乐时尚广场,滨江道300号,117.1961,,39.121
2340,友谊商厦,友谊路21号,117.2038,,39.0924
2341,陆家嘴中心,大丰路与北马路交口东北角,117.1722,,39.1474
2342,富力广场,北马路127号,117.173,,39.146
2343,大岛商业广场,环岛西路11号,117.2193,,39.0432
2344,金元宝滨海国际购物中心,开发区黄海路19号,117.6884,,39.0335
2345,恒基广场,友谊路16号,117.2029,,39.0934
2346,万达广场,津滨大道53号,117.2544,,39.1243
2347,南开大悦城,南门外大街2-6号,117.1798,,39.1352
2348,天津国贸购物中心,南京路39号,117.2164,,39.1137
2349,新业广场,黑牛城道125号,117.2139,,39.0776
2350,万达百货,津滨大道53号河东万达广场3层,117.2547,,39.1242
2351,佛罗伦萨小镇京津名品奥特莱斯,前进道与翠亨路交叉口西北角,117.0157,,39.3752
2352,友阿奥特莱斯,云山道与宁海路交汇处往南500米,117.63,,39.0619
2353,万达广场,洞庭路紫云公园西侧,117.6804,,39.0132
2354,远洋未来广场,新开路71号,117.2217,,39.1387
2355,恒隆广场,兴安路166号,117.1999,,39.128
2356,甜水街,新津道,117.1006,,39.1031
2357,金元宝东方广场,塘沽解放路步行街507号,117.6683,,39.0159
2358,乐宾百货,南京路128号,117.1946,,39.1195
2359,州河湾广场,中昌南大道2号,117.4171,,40.0161
2360,新华城市广场,建国大街与体育场路交叉口东北角,117.3909,,38.9914
2361,住总大光明中心,光明道与泉州路交口,117.0587,,39.3868
2362,中国铁建国际城,金钟河大街与中环线交口,117.2356,,39.1704
2363,缤纷购物广场,天山路195号,117.2771,,39.1389
2364,彩悦城,乐园道9号,117.2176,,39.0903
2365,新城市中心,中北镇万卉路3号,117.0883,,39.1431
2366,恒星世界,先锋路61号,117.3066,,39.0845
2367,友谊新天地广场,滨江道208号,117.1986,,39.1244
2368,彩柒汇生活广场,凌宾路奥城商业广场8号楼,117.1716,,39.0752
2369,天津世纪都会,南京路181号,117.1992,,39.1174
2370,远洋未来汇购物中心,津塘公路7016号,117.597,,39.0316
2371,海信广场,解放北路188号,117.2181,,39.1175
2372,印象城,友谊南路111号,117.2183,,39.025
2373,劝业场商场,和平路290号,117.2006,,39.1268
2374,月坛商厦,津沽大街174号,117.3878,,38.9883
2375,贻成福地广场,福州道363号,117.6681,,39.0415
2376,新安购物广场,东马路138号旁,117.1902,,39.1401
2377,蓝海商贸城,新宜白大道姚江路,117.1938,,39.2026
2378,金元宝于家堡购物中心,新港路276号,117.6993,,39.0047
2379,华开城,南京路219号,117.1933,,39.1194
2380,龙居生活广场,大寺镇龙居花园柳杨道1号,117.245,,39.015
2381,百货大楼,和平路172号,117.1934,,39.1299
2382,秀谷商业广场,津塘公路1168号,117.6568,,39.0315
2383,米莱欧百货,南京路209号,117.1962,,39.1187
2384,鸿泰千佰汇商业广场,第三大街32号,117.7057,,39.0297
2385,若比邻社区商业中心,昆仑路保利玫瑰湾溪水河畔花园45号,117.262,,39.1705
2386,舜新城市广场,小站镇正营道与前营路交口南侧,117.4362,,38.9188
2387,荔隆时代广场,杨村泉州北路与南财源道交叉口,117.0624,,39.3895
2388,易品商业广场,世纪大道东305号,117.4893,,38.8448
2389,友谊新都市百货,狮子林大街200号,117.1991,,39.1477
2390,泉汇购物广场,大沽南路1118号,117.2813,,39.0689
2391,锦堂生活购物广场,上海街52号,117.2783,,39.0322
2392,瑞安威尼都,前进道与翠通路交口,117.0119,,39.377
2393,国际商场,南京路211号,117.1943,,39.1186
2394,保利广场,福安大街与禄安大街交口,117.1887,,39.1312
2395,新业广场,二经路1号,117.3551,,39.079
2396,第五大道商业街,南京路125号诚基中心,117.2022,,39.1172
2397,阳光新生活广场,气象台路100号,117.1856,,39.0933
2398,都行百货,大胡同,117.1862,,39.1486
2399,万隆大胡同商业中心,外环西路万隆大胡同商业中心内,117.1042,,39.097
2400,万达广场,东风大道111号,114.1739,,30.5068
2401,天纵城广场,巨龙大道1号,114.3044,,30.6952
2402,DIC帝斯曼购物中心,武珞路421号,114.3288,,30.536
2403,奥山世纪广场,和平大道1214号,114.3607,,30.6171
2404,金地广场,团结大道与仁和路交汇处,114.3844,,30.6037
2405,武商世贸广场,解放大道686号,114.2689,,30.5802
2406,武汉K11 Select,东湖新技术开发区关山大道355号,114.4125,,30.4934
2407,武汉国际广场购物中心,武商路356号,114.2711,,30.5801
2408,荟聚中心,园博大道1号,114.1675,,30.6174
2409,泛悦汇·昙华林,友谊大道与中山路交叉口螃蟹岬地铁站A2出口,114.3165,,30.552
2410,百联奥特莱斯,盘龙大道51号,114.2573,,30.7309
2411,光谷天地,关山大道519号,114.4105,,30.4772
2412,凯德广场,解放大道18号,114.1932,,30.5989
2413,HAPPY站台美食购物广场,中山大道818号佳丽广场B1楼,114.2917,,30.5794
2414,新佳丽时尚广场,中山大道818号,114.2903,,30.5785
2415,群星城,徐东大街120号,114.3487,,30.584
2416,群光广场,珞喻路6号,114.3554,,30.5252
2417,新世界百货,建设大道566号,114.27,,30.595
2418,万达百货,沙湖大道18号,114.3383,,30.5565
2419,泛悦汇·KA街,张之洞路151号,114.3044,,30.5352
2420,华侨城东方里商业街,欢乐大道,114.3833,,30.5895
2421,武汉国际广场,汉口区解放大道557号,114.2711,,30.5797
2422,南湖时尚城,关东街南湖大道116号,114.3866,,30.4772
2423,江腾广场,马鹦路101号,114.2544,,30.5371
2424,八大家红坊里,建设三路34号,114.3828,,30.6284
2425,永旺梦乐城,金银潭大道1号,114.2378,,30.6505
2426,武汉天地壹方南馆,中山大道1515号,114.3093,,30.6089
2427,维佳·佰港城,文治街30号,114.3265,,30.5033
2428,中百百货,和平大道1544号,114.4026,,30.6393
2429,M+购物中心,京汉大道循礼门地铁2号线C出口旁,114.2861,,30.5837
2430,万达广场,唐家墩路5-1号菱角湖公园对面,114.2686,,30.6102
2431,武汉天地新天地,芦沟桥路28号,114.3113,,30.6076
2432,中商广场,中南路9号,114.3317,,30.5368
2433,银泰创意城,珞喻路35号,114.3558,,30.5263
2434,香港路后院商业街,香港路271号,114.2747,,30.6107
2435,永旺梦乐城,金桥大道15号,114.2838,,30.6308
2436,悦活里生活广场,狮子山街南湖大道48号芷岸龙庭超市1-3层,114.335,,30.4803
2437,新世界百货,徐东大街31号,114.3469,,30.5887
2438,万达广场,沙湖大道18号,114.3383,,30.5564
2439,悦心汇,光谷一期风情街下沉广场负一楼,114.4025,,30.5051
2440,光谷德国风情街,珞瑜路726号光谷步行街,114.4088,,30.5013
2441,大洋百货,民生路176号,114.2901,,30.5776
2442,新世界百货,江汉路118号,114.2899,,30.5824
2443,凯德1818,中北路88号,114.3402,,30.5533
2444,摩尔城,王家湾龙阳大道特6号,114.2075,,30.5591
2445,凯德广场,中山大道238号,114.2676,,30.5685
2446,中百购物中心,吴家山田园大道108号,114.1344,,30.6202
2447,武汉天地壹方北馆,永和路8号,114.3139,,30.616
2448,中百百货,江汉路129号,114.2897,,30.5819
2449,世界城广场,珞喻路766号,114.4043,,30.5065
2450,首创奥特莱斯,高新二路139号,114.4614,,30.4775
2451,保利广场,关山大道330号,114.4104,,30.4909
2452,武商广场,解放大道688号,114.27,,30.5802
2453,永旺梦乐城,江城大道388号,114.206,,30.5039
2454,花园道,西北湖路特1号,114.2648,,30.5958
2455,江夏中百广场,文华路37号,114.3214,,30.3646
2456,五环天地,虎泉街271号,114.3798,,30.5061
2457,银泰百货,中南路14号,114.3335,,30.5374
2458,销品茂,徐东大街18号,114.3432,,30.5882
2459,武商众圆广场,和平大道959号,114.3784,,30.6274
2460,海林广场,田园大道1196号,114.1445,,30.623
2461,王府井百货,中山大道858号,114.2914,,30.5793
2462,大洋百货,光谷街3号,114.4016,,30.5058
2463,泛海城市广场二期Joy Park悦街,云彩路196号,114.2553,,30.6029
2464,一食万巷,江汉一路58号,114.2907,,30.5817
2465,湖北工业大学西区生活广场,南湖徐家墩湖北工业大学西区,114.3057,,30.4802
2466,百汇井时尚购,雄楚大道888号,114.3902,,30.4984
2467,鲁巷广场购物中心,珞喻路726号,114.3963,,30.5063
2468,世界城光谷步行街一期,珞喻路光谷广场,114.4026,,30.5052
2469,汉商武展购物中心,解放大道696号,114.2735,,30.5811
2470,青山百货商场,和平大道1542号,114.4028,,30.6392
2471,吾行里,和平大道东50米,114.3753,,30.6238
2472,万科广场,常青一路218号,114.2613,,30.6233
2473,未来城购物公园,珞狮南路147号,114.3536,,30.525
2474,柠檬中心Lemon center,花园道,114.2656,,30.5973
2475,南大天地,湖北省武汉市硚口区硚口路162号,114.2518,,30.5734
2476,人信汇购物中心,龙阳大道58号,114.2044,,30.5509
2477,大洋百货,龙阳大道36号,114.2091,,30.561
2478,武商亚贸广场,武珞路628号,114.3431,,30.5294
2479,星汇维港购物中心,中山大道1号,114.2503,,30.5694
2480,万家汇,后湖大道与百步亭花园路交汇处,114.315,,30.6535
2481,中心百货大楼,江汉路129号中百商厦,114.2899,,30.5819
2482,罗马春天奥特莱斯,江夏大道邬树村56号,114.3714,,30.386
2483,武广,解放大道668号国广7楼,114.2697,,30.5806
2484,东原时光道,团结南路,114.3401,,30.5844
2485,汉口城市广场,后湖大道111号,114.3053,,30.6513
2486,中百百货,兴新街172号,114.3133,,30.3482
2487,太和里,青年路59号,114.2626,,30.5899
2488,万隆广场,白沙洲大道404号,114.3037,,30.5194
2489,光谷国际广场,珞喻路889号,114.3982,,30.5074
2490,汉商21世纪购物中心,汉阳大道577号,114.2108,,30.5611
2491,新世界百货,珞瑜路1号,114.354,,30.527
2492,泛海城市广场,云杉路199号,114.2554,,30.6029
2493,印象城,和平大道1278号,114.39,,30.632
2494,大武汉1911,新华路589号,114.2626,,30.6148
2495,F6漫时区,和平大道722号,114.3243,,30.5746
2496,大汉口城,中山大道539号,114.2904,,30.5792
2497,洪山广场,中南路与八一路交叉口东南50米,114.3368,,30.544
2498,印象里广场,光谷一路万科嘉园,114.4455,,30.4998
2499,联投广场万汇mall,文化大道3号,114.3213,,30.374
2500,金鹰曲江购物中心,芙蓉南路芙蓉新天地1号楼,108.9737,,34.2085
2501,世纪金花,西大街1号,108.9452,,34.2599
2502,绿地缤纷荟,锦业路与丈二八路十字东北角,108.8806,,34.1943
2503,中贸广场,南关正街16号,108.946,,34.244
2504,西安SKP,长安北路261号,108.9488,,34.2476
2505,中大国际,高新路72号,108.8973,,34.2219
2506,开元商城,东大街解放市场6号,108.9481,,34.2584
2507,赛格国际购物中心,长安中路赛格国际购物中心,108.948,,34.2232
2508,金地广场,曲江新区曲江池东路999号,108.9884,,34.2032
2509,万达广场,雁塔路北段8号,108.9621,,34.2435
2510,万达广场,太华北路369号,108.9726,,34.315
2511,蓝海风漫巷,凤城二路蓝海凤城旁,108.934,,34.3181
2512,新世界时尚广场,北大街88号,108.9461,,34.2631
2513,王府井百货熙地港店,未央路170号,108.9454,,34.3378
2514,群光广场,东大街334号,108.9551,,34.2607
2515,悦荟广场,解放路与东新街交叉口西南,108.9622,,34.2635
2516,汉神购物广场,凤城八路168号，与文景路十字西南角,108.9369,,34.3404
2517,砂之船奥莱,世博大道5001号,109.0447,,34.3438
2518,大悦城,慈恩路777号,108.9621,,34.2164
2519,老城根G park,星火路22号,108.9214,,34.2856
2520,王府井百货,南关正街88号,108.9461,,34.2467
2521,曲江海港城,雁南一路与慈恩路交叉口东北角,108.962,,34.2119
2522,华盛奥特莱斯购物中心,国际港务区港兴路中段华南城2号交易广场,109.0459,,34.3572
2523,万达百货,解放路111号,108.9638,,34.2679
2524,王府井赛特奥莱,凤凰大道11号,109.1757,,34.3642
2525,苏宁易购广场,解放路186号民生百货斜对面,108.9625,,34.2653
2526,奥帕MALL购物中心首城奥特莱斯,电子正街405号,108.9198,,34.2096
2527,印象城,未央路33号,108.948,,34.2941
2528,W FIVE PARK 万众国际商业中心,曲江池南路与曲江池东路交汇处东北角,108.9888,,34.1952
2529,龙湖西安大兴星悦荟,大兴东路2号,108.9199,,34.2855
2530,t11block,唐延路与科技一路交汇处,108.8903,,34.2299
2531,万象城,三桥路与西户公路交叉口旁,108.8295,,34.2905
2532,万达广场,解放路111号五路口东南角,108.9643,,34.2681
2533,立丰国际购物广场,金花南路6号,108.9975,,34.2474
2534,鑫苑大都汇购物中心,丰禾路251号,108.8995,,34.281
2535,金鹰购物中心,科技路37号海星广场城市广场A座,108.9017,,34.2331
2536,凯德广场,南二环西段64号,108.9362,,34.2288
2537,益田假日世界购物中心,长乐西路166号,108.9737,,34.2692
2538,华清广场,雁塔路99号,108.9639,,34.241
2539,大融城,未央路与凤城八路交叉口东南角,108.9483,,34.3383
2540,CityOn熙地港（西安）购物中心,未央路170号,108.9461,,34.3377
2541,西安大都荟,科技路305号,108.8934,,34.237
2542,MOMOPARK购物中心,小寨西路与含光路交叉口东南角,108.9324,,34.2223
2543,中大国际,南大街30号,108.9463,,34.2541
2544,世纪金花,科技路55号,108.9033,,34.232
2545,芙蓉新天地广场,芙蓉南路与曲江池西路丁字路口向西300米,108.9744,,34.2079
2546,万科生活广场,西长安街919号,108.8941,,34.1584
2547,华阳城,长乐东路纺渭路交叉口西北角,109.0716,,34.2796
2548,开米广场,长安中路38号,108.9464,,34.2245
2549,世纪金花,环城南路东段336号,108.9489,,34.2488
2550,秋林公司,雁塔路北段58号,108.9632,,34.2456
2551,艾斯广场,未央路134号,108.9467,,34.3201
2552,民生百货,文景路116号文景路与凤城八路交叉口,108.9371,,34.3423
2553,百瑞广场,雁塔中路58号,108.9633,,34.2336
2554,民生百货,东大街骡马市1号,108.9512,,34.2586
2555,大话南门站Station,长安路与南稍门十字东南角向南80米,108.9475,,34.24
2556,华旗国际广场,长安中路99号,108.9474,,34.2217
2557,秋林公司,吉祥路,108.9314,,34.2233
2558,荣民龙首广场,未央路27号,108.9479,,34.2921
2559,正荣彩虹谷,雁翔路西北妇女儿童医院南侧,109.0104,,34.1943
2560,首创禧悦里,文景路与凤城十二路交叉口,108.9397,,34.3589
2561,海港城,长安中路177号,108.9477,,34.2253
2562,太奥广场,丰禾路275号,108.893,,34.2832
2563,曼蒂广场,雁南一路9号大唐不夜城新乐汇民生百货东侧,108.966,,34.213
2564,银泰城,雁南二路410号,108.9635,,34.2064
2565,万和城购物中心,胡家庙十字西北角长缨西路1号,108.9947,,34.279
2566,世纪金花,凤城五路与未央路十字西南角,108.9463,,34.329
2567,省军区军人服务社购物中心,长安中路30号,108.9459,,34.2197
2568,民生百货,未央路80号民生百货F5层,108.9467,,34.2988
2569,盛龙商业广场,未央路80号,108.9457,,34.3003
2570,阳阳国际购物广场,朱雀大街132号,108.9378,,34.2174
2571,兰岛广场,科技六路四号,108.9014,,34.2115
2572,华东·万悦城,长乐西路128号,108.9784,,34.2689
2573,华东万锦城购物中心,汉城南路与沣镐西路交叉口西北角,108.8714,,34.2608
2574,开元商城,西关正街57号,108.9118,,34.2589
2575,晶鑫商业广场,大寨路19号,108.8774,,34.2455
2576,金辉·环球广场,雁塔南路885号,108.9647,,34.1819
2577,绿地世纪城,锦业路1号,108.8755,,34.195
2578,唐延中心城,唐延路168号,108.8889,,34.2385
2579,西北商贸中心,长乐西路218号2号,108.9833,,34.2684
2580,曲江创意谷,曲江新区雁翔路3369号,109.0124,,34.2125
2581,秋林公司,翠华路73号,108.9567,,34.2108
2582,银泰百货,西大街48号,108.9429,,34.2589
2583,万达百货,雁塔北路8号万达广场1-4层,108.9628,,34.2436
2584,西市城购物中心,劳动南路118号,108.9086,,34.2453
2585,阳光天地,信息大道1号,108.8681,,34.1701
2586,兴正元广场,东大街骡马市1号,108.9505,,34.2571
2587,时尚大街,凤城八路与明光路交叉口东北角,108.9301,,34.3392
2588,盛大时代广场,唐延路3号,108.8905,,34.2351
2589,印象城,二环南路西段155号,108.922,,34.2351
2590,东方亿象城,长乐西路西北商贸中心西行50米,108.9813,,34.2689
2591,紫郡长安城市立方,长安西路与朱雀大街南段交叉口北250米路西,108.9385,,34.1943
2592,百盛,金花南路59号,108.9972,,34.2473
2593,万达广场,科技七路与唐延路交口,108.8916,,34.2083
2594,龙湖西安曲江星悦荟,新开门北路888号,108.9921,,34.2151
2595,新兴广场购物中心,互助路68号,108.9931,,34.2603
2596,南飞鸿乐荟里,朱雀南路1589号,108.9412,,34.1853
2597,民生百货,解放路103号,108.9637,,34.2664
2598,秋林公司,和平电影院南侧,108.9476,,34.2733
2599,李家村购物中心,雁塔北路8号万达广场,108.9629,,34.2425
2600,美景龙堂万科广场,中州大道,113.7185,,34.7216
2601,美景万科广场,英才街美景麟起城旁,113.6455,,34.8591
2602,海马海汇中心,东风南路与康宁街交汇处东北,113.7699,,34.7521
2603,大上海城,东太康路28号,113.6691,,34.756
2604,建业凯旋广场,花园路与农科路交汇处西北角,113.6806,,34.7935
2605,丹尼斯大卫城,二七路与太康路交叉口,113.6659,,34.7579
2606,关照先生,嵩山南路与安康路交叉口西南角,113.6275,,34.7267
2607,正道花园百货,花园路8号,113.6827,,34.7692
2608,杉杉奥特莱斯广场,郑开大道与223省道交叉口东北角,114.0292,,34.7819
2609,王府井百货,棉纺西路4号,113.6126,,34.7617
2610,高新区万科广场,科学大道红叶路交叉口东南角,113.5251,,34.8069
2611,永威木色购物公园,商务东五街6号,113.7309,,34.7673
2612,万象城,民主路10号,113.662,,34.7549
2613,CityOn熙地港购物中心,众意西路和农业东路交叉东南角,113.7169,,34.7847
2614,丹尼斯一天地,商务内环路cbd1号,113.7232,,34.7678
2615,万达百货,中原路171号,113.6018,,34.7471
2616,万达广场,开元路68号,113.6364,,34.8685
2617,万达广场,航海中路137号,113.643,,34.7183
2618,二七广场,西大街21号,113.6667,,34.752
2619,万达广场,中原中路171号,113.6015,,34.7466
2620,正弘城,花园路与东风路交汇处西南角,113.6804,,34.7957
2621,丹尼斯百货,人民路2号,113.675,,34.7574
2622,丹尼斯7天地,商务外环路与众意路交叉口东南,113.723,,34.7778
2623,锦艺城购物中心,棉纺路与秦岭路东100米路北,113.6058,,34.7631
2624,上悦城购物中心,郑汴路127号,113.7144,,34.7458
2625,国贸360广场,花园路39号,113.6801,,34.785
2626,朗悦公园茂,公园道1号一期,113.5558,,34.8197
2627,德化无限城,德化步行商业街与苑陵街交叉口西北50米,113.665,,34.7493
2628,丹尼斯百货,郑花路1号,113.6823,,34.7871
2629,星辰·万科生活广场,航海西路68号,113.6099,,34.7206
2630,首创奥特莱斯,洞林湖奥莱大道与环城东路交汇处,113.5008,,34.6754
2631,丹尼斯2天地,商务内环路与商务西街交叉口,113.7218,,34.7687
2632,丹尼斯6天地,众意西路与商务内环路交叉口,113.7209,,34.7768
2633,泰得城,嵩山南路19号,113.6287,,34.7357
2634,零零茂购物中心,文化路与优胜北路交汇处西南角,113.6665,,34.7688
2635,金水印象汇,中州大道1188号,113.725,,34.7489
2636,曼哈顿商业广场,金水路288号,113.7061,,34.7622
2637,百年德化,彩虹路,113.6653,,34.7504
2638,局外•太格茂,平安大道与博学路交汇处东北角,113.8016,,34.7929
2639,西元国际广场购物中心,建设西路198号,113.6012,,34.7578
2640,大商新玛特,花园路38新玛特购物广场郑州总店1层,113.681,,34.7855
2641,硅谷广场,文化路82号,113.6653,,34.7965
2642,新世界百货,紫荆山路与商城路交叉口东北角,113.6827,,34.7533
2643,建文新世界商厦,黄河96号文化路黄河路交叉口向东100米路南,113.6688,,34.774
2644,新田360广场,金水东路绿地新都会C座旁,113.7695,,34.7701
2645,丹尼斯5天地,众意西路国家电网自助营业厅西南侧,113.7194,,34.7747
2646,丹尼斯百货,科学大道与瑞达路交汇处正弘·高新数码港2-3层,113.5656,,34.8068
2647,汇美尚城,黄河路经八路西南建文新世界1-2层,113.6692,,34.774
2648,乐尚天地生活广场,经南三路与经开第五大街交叉口乐尚天地生活广场F1层,113.7546,,34.7133
2649,丹尼斯百货,丰产路19号,113.6789,,34.7833
2650,路砦生活广场,汝河路韵雅美术旁,113.6377,,34.7329
2651,丹尼斯百货,兴华南街,113.6334,,34.7094
2652,金成国际广场,经三路66号,113.6914,,34.7936
2653,宝龙城市广场,农业东路33号,113.7379,,34.7825
2654,新玛特,二七路200号,113.6658,,34.7554
2655,丹尼斯,嵩山南路与沁河路交叉口南100米路西,113.6277,,34.7221
2656,丹尼斯百货,棉纺路1号,113.6285,,34.7579
2657,鑫苑鑫都汇,陇海路庆丰街交叉口,113.651,,34.7358
2658,凤凰幸福城,青年路3号,113.7099,,34.7408
2659,升龙·汇金广场,南阳路192号,113.6312,,34.8003
2660,璞丽中心C座,黄河路,113.696,,34.7754
2661,万达广场,农科路,113.6785,,34.7931
2662,郑东商业中心b区,永平路82号,113.7587,,34.7433
2663,瀚海北金商场,文化路与北环交叉口瀚海北金,113.6655,,34.8092
2664,天旺广场,东风路38号,113.6408,,34.7975
2665,丹尼斯,丰乐路与跃进路交叉口西50米,113.6428,,34.7912
2666,王府井百货,地德街地坤街西北角,113.7181,,34.7841
2667,华联商厦,二七路230号,113.6659,,34.7533
2668,富田太阳城,航海东路2号,113.7133,,34.7215
2669,升龙商业广场,大学中路与政通路交叉口西北50米,113.6438,,34.7251
2670,丹尼斯四天地,商务外环路8号,113.7191,,34.7729
2671,兆吉·新世界购物中心,西大街168号,113.3714,,34.5368
2672,正道中环百货,花园路59号,113.6813,,34.778
2673,新玛特,陇海西路338号,113.6157,,34.7355
2674,世贸购物中心,一马路1号,113.666,,34.7401
2675,丹尼斯3天地,商务西四街与之间,113.7195,,34.7712
2676,正大乐城,东站北街与心怡路交叉口西北角,113.7729,,34.7604
2677,银兴悠客广场,南阳路张杰修脚斜对面,113.6492,,34.7726
2678,紫荆山百货,紫荆山路1号,113.6813,,34.7624
2679,华润万象城购物中心二期,民主路与西太康路交叉口西100米,113.6633,,34.7571
2680,丹尼斯百货,大学路80号,113.6437,,34.7392
2681,锦荣悦汇城,郑港四街与郑港七路交汇处,113.8605,,34.5648
2682,丹尼斯百货,济源路铝城公园隔壁,113.2986,,34.812
2683,梦天商城,商都路1号红星美凯龙B1层,113.7288,,34.7458
2684,中天广场,中岳大街和嵩山路交叉口,113.035,,34.4597
2685,豫龙商场,大同路116号,113.6653,,34.7468
2686,豫兴一家人购物广场,花园北路59号,113.6824,,34.8183
2687,帝湖购物广场,桐柏路98号,113.6166,,34.7201
2688,亚太商场,东大街428号,113.3883,,34.5366
2689,嵩亚商场,中岳大街与嵩山路交叉口向东100米,113.0367,,34.4585
2690,尚聪生活广场,秦岭路与岗坡路交叉口西南角,113.603,,34.7524
2691,四邻百货,大学路和政通路交叉口西500米路北,113.6434,,34.7522
2692,中原商贸城,嵩山北路28号,113.6265,,34.7532
2693,万家鲜生活广场,金成时代广场8号楼,113.705,,34.7768
2694,福润万家购物广场,郑港六街西50米,113.8669,,34.5732
2695,一站广场购物中心,中州大道与航海路交叉口西北角,113.7143,,34.7216
2696,丹尼斯七天地缤纷娱乐,众意路与商务外环路交叉口东南100米,113.7222,,34.7779
2697,中翔购物广场,须水河东路与郑上路交叉口北250米,113.5228,,34.7641
2698,华盛奥特莱斯,龙湖镇华南城园区2号交易广场,113.7277,,34.6043
2699,A时代广场,文化路85号,113.6658,,34.7952
